{"type":"FeatureCollection", "features": [
{"type":"Feature","geometry":{"type":"MultiPolygon","coordinates":[[[[-72.92723817000001,43.516358939999975],[-72.92792321000002,43.516262289999986],[-72.92826824999997,43.51438211999999],[-72.93035122999999,43.514513109999996],[-72.93020504999998,43.506675359999974],[-72.92972516999998,43.49665528000003],[-72.93437902,43.49702036999997],[-72.93478905,43.495466539999995],[-72.92944871999998,43.49368562000001],[-72.92893637999998,43.48511743],[-72.93231186000003,43.48520373000002],[-72.93230179,43.47773339999998],[-72.94176233000002,43.47706462999997],[-72.94233723999997,43.46988449999998],[-72.93961542,43.46463569000002],[-72.93969993000002,43.46223481999999],[-72.9371964,43.46072477000001],[-72.93735426,43.45697018999999],[-72.93716998000002,43.45610362000002],[-72.93908907999997,43.45630274000001],[-72.9431682,43.45565105999998],[-72.94383707999998,43.45461762999997],[-72.94648057,43.45181149000001],[-72.94837025999999,43.451238020000005],[-72.95275182,43.449400490000016],[-72.95370236000002,43.44763366000001],[-72.95613197,43.44498551999999],[-72.95961190000003,43.443306389999975],[-72.96299240000002,43.44228463000002],[-72.96607613999998,43.44279591999998],[-72.97033550999998,43.44201793000002],[-72.97080190999998,43.44003491000001],[-72.96995605000001,43.436588330000006],[-72.97055297999998,43.434858469999995],[-72.97068575999998,43.430977670000004],[-72.97420813999997,43.428115160000004],[-72.97529233,43.42649578999999],[-72.97833751000002,43.42539586999999],[-72.98003347999997,43.42400250999998],[-72.98330457999998,43.42289421999999],[-72.98404634000002,43.421008029999996],[-72.98596742000001,43.418024160000016],[-72.98769116,43.41634438],[-72.98904649000002,43.41602549999999],[-72.99161871000001,43.416122229999985],[-72.98984875999997,43.414593749999995],[-72.99104127999999,43.41251904000001],[-72.99152018000001,43.41023971999999],[-72.99344413,43.404174609999984],[-72.99385964999999,43.40123569000002],[-72.99253893000002,43.38925012999999],[-72.99346695999998,43.38634977999999],[-72.99429521000002,43.38491227999998],[-72.99466623,43.382828940000024],[-72.99601482000003,43.37973611000001],[-72.99698196000003,43.37823046],[-72.99731945000002,43.376630509999984],[-72.99302088000002,43.367149840000025],[-72.99093898000001,43.362185109999984],[-72.99190783,43.35612845999998],[-72.99191808,43.352393199999995],[-72.99125713000001,43.33453412],[-72.99072132999999,43.32129480999998],[-72.99131647000002,43.317604689999996],[-72.99201912000001,43.31544781000002],[-72.99352593999998,43.30837717000003],[-72.99387718000003,43.30508944000002],[-73.01903389,43.30584873999999],[-73.09606219,43.308159260000025],[-73.12270369999999,43.30921360000002],[-73.19178340000002,43.311918419999984],[-73.25519886000001,43.314492529999995],[-73.2557726,43.27943899000002],[-73.25615620000002,43.268690549999974],[-73.25892224,43.23053356999998],[-73.25973772999998,43.21683847999998],[-73.26133462000001,43.17892341999999],[-73.26386935,43.12339084000001],[-73.2650519,43.10640316000001],[-73.26541301999998,43.09936111000002],[-73.26619577999998,43.08716752999999],[-73.26968156999999,43.03610262000001],[-73.27009834,43.03071932],[-73.27169199999997,42.98549250999997],[-73.27316636,42.943651880000004],[-73.27351913000001,42.934389399999986],[-73.27678627,42.847475789999976],[-73.27700220999998,42.83758975000001],[-73.27698566999999,42.83363658000002],[-73.28256154000002,42.83504413999998],[-73.28464830000001,42.83463518999997],[-73.28450508999998,42.82312889000002],[-73.28497356000003,42.82025900999997],[-73.28281955,42.81615614999998],[-73.28267319999998,42.81462155999998],[-73.28368312999999,42.81151434999998],[-73.2863279,42.806760080000004],[-73.28950227000001,42.80342675999998],[-73.28957130999999,42.801391430000024],[-73.28876572000001,42.797532020000006],[-73.28610431999999,42.78915307],[-73.27505408000002,42.745979320000004],[-73.26506511000002,42.745688040000005],[-73.24496176000002,42.74530489],[-73.21324917999999,42.744460179999976],[-73.20451764,42.74476521999998],[-73.18808769999998,42.74443905999999],[-73.16366304000002,42.74400546999999],[-73.15360979000002,42.74375158999999],[-73.12455671999999,42.74320220999999],[-73.03374647999999,42.74133877000003],[-72.99957233999999,42.740666669999996],[-72.99064905,42.74043824],[-72.96297449999997,42.739958349999995],[-72.92878246999999,42.73924013999999],[-72.90763736999997,42.738744069999996],[-72.90737917000001,42.740665509999985],[-72.90761380999999,42.74293098999999],[-72.90693713000002,42.744385480000005],[-72.90586417999998,42.74544315000003],[-72.90386768000002,42.746270949999996],[-72.90163159999997,42.74648337999997],[-72.89927667,42.74608656999999],[-72.89629962999999,42.74622914999998],[-72.89717166000003,42.74716590999998],[-72.89824084000003,42.75008801000001],[-72.90521239999998,42.757475820000025],[-72.90714344999998,42.760406020000005],[-72.90889821000002,42.761754610000025],[-72.90847810999998,42.763241730000004],[-72.90880300999999,42.7651103],[-72.90063235999997,42.76521243000002],[-72.89710539999999,42.76541524999999],[-72.89501073000002,42.76667169000001],[-72.89509451999999,42.76795428999998],[-72.89395306,42.769432610000024],[-72.89378791000001,42.77037052999998],[-72.89431113,42.77315411000001],[-72.8953626,42.77474633000003],[-72.89584293000001,42.77647734999999],[-72.89727297000002,42.77921427000001],[-72.89690132999999,42.78148513999997],[-72.89709307999999,42.78340343000002],[-72.89622456000001,42.78571978999997],[-72.89584346999999,42.78862121999998],[-72.89597481999999,42.789508979999994],[-72.89844203000001,42.791502519999995],[-72.90001546000002,42.79229264999998],[-72.90180411,42.7940964],[-72.90559295000003,42.79497275],[-72.90658660999998,42.79474493999999],[-72.91068417000002,42.79290082],[-72.91315802999998,42.79160454999999],[-72.91551035999998,42.79426145999997],[-72.91197010000002,42.79714015000002],[-72.91115587000002,42.79860110999999],[-72.90899593,42.80011016999998],[-72.90944867000002,42.80110105],[-72.91078467,42.801798580000025],[-72.91360412,42.802266599999996],[-72.91569169000002,42.804167810000024],[-72.91579605999999,42.80514889],[-72.91372566000001,42.80893295999999],[-72.91187022000003,42.80937750999999],[-72.91121413000002,42.80908345],[-72.90829615000001,42.80952585],[-72.90695421999999,42.81016054000003],[-72.90626657000001,42.811752669999976],[-72.90657735000002,42.81252473000001],[-72.90929260000001,42.81485719],[-72.90954656999997,42.816111920000026],[-72.90874187999998,42.82017693],[-72.90990878000002,42.823342130000015],[-72.90916252,42.82498370000002],[-72.90823044000001,42.82568294999999],[-72.90823053000003,42.82789789999998],[-72.90747176999997,42.82898587],[-72.90538114999998,42.82980378000002],[-72.90624086000003,42.831517099999985],[-72.90734591,42.832177049999984],[-72.90457564000002,42.83382501],[-72.903572,42.83483691999999],[-72.90058515999999,42.83204454000003],[-72.89934706000003,42.830480369999975],[-72.89921589,42.828682549999996],[-72.89831878000001,42.828021879999994],[-72.89641919000002,42.82860892000002],[-72.89339639999997,42.828058820000024],[-72.89157259000001,42.82879349000001],[-72.88946587999999,42.82853116000001],[-72.88592670000003,42.82975883],[-72.88546865,42.830220740000016],[-72.88165842000001,42.83095558000002],[-72.88271709000003,42.83361150000002],[-72.88591815000001,42.83643642999999],[-72.88958760000003,42.83793874000003],[-72.89472107,42.83809328000001],[-72.89626951000002,42.837304589999974],[-72.89846460000001,42.83852588000002],[-72.89951381999998,42.839635699999974],[-72.90040472999999,42.83931493],[-72.90183342,42.84064267000002],[-72.90231986999999,42.84208862000003],[-72.90189977,42.843690820000006],[-72.89973595999999,42.84391133999998],[-72.89911097999999,42.844878129999984],[-72.89888289999999,42.84745006999998],[-72.89812595000001,42.849776959999986],[-72.89745152,42.85031627000001],[-72.89442809000002,42.85085737000003],[-72.89284648,42.85244104999998],[-72.89174979,42.854122089999976],[-72.88996096,42.85469205999999],[-72.88926665999998,42.85556030999999],[-72.88979257,42.85631547000003],[-72.89215001999997,42.85718004],[-72.89551687,42.85791003000003],[-72.89684802,42.85882153],[-72.90168832,42.863856020000014],[-72.90198284000002,42.86439236000001],[-72.90406617999997,42.865389170000014],[-72.90398176000002,42.868393809999986],[-72.9031554,42.87040288999998],[-72.90018788999998,42.871821160000025],[-72.89874356000001,42.87155145999998],[-72.89635688999999,42.87308839000002],[-72.89389885000003,42.87376469999998],[-72.89171642999997,42.873573850000014],[-72.89078939000001,42.874070089999975],[-72.89097115999999,42.876507189999984],[-72.89256087000001,42.87664546000002],[-72.89361997999998,42.88073393000002],[-72.89474085,42.88315700999999],[-72.89473204000001,42.88464656000002],[-72.89414688,42.890025639999976],[-72.89339307,42.89047882],[-72.88358155999998,42.89018070999998],[-72.883397,42.89559422000002],[-72.88291711,42.898538540000004],[-72.88355558,42.90080581000001],[-72.88305835,42.906157740000026],[-72.88181394999998,42.907829160000006],[-72.87871851,42.91028990000001],[-72.87973950999998,42.91103615999998],[-72.88292152000002,42.91445730999999],[-72.88322771999998,42.91545888000002],[-72.88273973999998,42.91712247999999],[-72.88355091,42.92054471],[-72.88475835000003,42.92346844000002],[-72.88514699000001,42.925454419999994],[-72.88681804999999,42.928044709999995],[-72.88900109999997,42.92863067000002],[-72.88937571000002,42.929396259999976],[-72.88992912999998,42.93344958],[-72.88912237,42.936227669999994],[-72.88981883000002,42.93768711000001],[-72.88960046,42.93936824000002],[-72.88861794000002,42.94155190999999],[-72.88835614999999,42.94741591000002],[-72.88825699,42.95467120000001],[-72.88833817,42.95801898000002],[-72.89027857000002,42.96288599000002],[-72.89046772,42.964700619999974],[-72.88980551999998,42.966957200000024],[-72.89051986999999,42.97038994000002],[-72.89160289,42.972032420000005],[-72.89291193000003,42.97565988000002],[-72.89336816999997,42.978772849999984],[-72.89471055000001,42.98295022999997],[-72.8945268,42.98735785000002],[-72.89253604999999,42.989977350000004],[-72.89129292000001,42.99215455000001],[-72.88959623,42.99399605999997],[-72.88781990000001,42.99500429],[-72.88904937000001,42.991441829999985],[-72.88917298000001,42.98734732999998],[-72.88767110999999,42.98596719],[-72.88702382999998,42.98467837999999],[-72.88463933000003,42.98275577999999],[-72.88214173,42.97992572999999],[-72.88016617,42.97928006000001],[-72.87769589999999,42.97793408000001],[-72.87456207999998,42.97567849000001],[-72.87279905000003,42.973581749999994],[-72.87084156999998,42.970411609999985],[-72.8716521,42.96862269000002],[-72.87253034000003,42.965498749999995],[-72.87376673,42.96460289999999],[-72.87532353,42.96223106999997],[-72.87498488,42.96070716999998],[-72.87519371000002,42.958388379999974],[-72.87316854,42.955681130000016],[-72.87156059,42.95444249000002],[-72.87113338,42.95351642999998],[-72.87234963999998,42.95141781000001],[-72.87024939000003,42.94877556],[-72.86845283000002,42.94732914999997],[-72.86483921000001,42.94545212999998],[-72.86140062999999,42.943107450000014],[-72.85541473,42.94025321999999],[-72.85231668,42.93907641999999],[-72.84787688,42.935692589999974],[-72.84569221999999,42.92951879999998],[-72.84262753000002,42.928709519999984],[-72.84095026,42.92861854],[-72.83860243999999,42.92714130000002],[-72.83765992000002,42.925311299999976],[-72.83561775999999,42.925249440000016],[-72.83440932000002,42.92674348999998],[-72.83528603000002,42.92958981999999],[-72.83347930000002,42.93166874999997],[-72.83112437,42.93180054999999],[-72.82998112000001,42.933854310000015],[-72.82606031,42.93464130000001],[-72.82387043,42.93573330999999],[-72.81918196999999,42.936704770000006],[-72.81583255999999,42.93719759999999],[-72.80952158000002,42.93693474000003],[-72.8071698,42.93728021999999],[-72.80545487,42.938111530000015],[-72.80344515000002,42.94349168000002],[-72.80309239000002,42.94729382000003],[-72.80195048000002,42.94807316999999],[-72.80111369000002,42.94953781999999],[-72.80179018000001,42.95256096999998],[-72.80111413999998,42.95364049],[-72.79676603000001,42.95622413000001],[-72.79413304000002,42.95613657000001],[-72.79090114000002,42.95843522000001],[-72.79037963000002,42.96009055000002],[-72.79195557000003,42.96291223999998],[-72.79323979999998,42.963142919999996],[-72.79416199000002,42.965286409999976],[-72.79357808999998,42.96749669000002],[-72.78989002999998,42.97141183999997],[-72.79039778999999,42.972266520000005],[-72.79009059999998,42.97472825],[-72.78844857000001,42.97807440999998],[-72.78828397000001,42.981370330000004],[-72.78712110999999,42.98311088000003],[-72.78705260999999,42.985505639999985],[-72.78643786999999,42.986969120000026],[-72.78656481000002,42.98863272],[-72.78765116,42.99077557999999],[-72.78946767999997,42.993300869999985],[-72.78930802000002,42.996804269999984],[-72.78855592000002,42.99856496000001],[-72.78876943,43.00012284000002],[-72.79002344000003,43.00109942],[-72.79328429999998,43.00078602999997],[-72.79631383999998,43.00212895999999],[-72.79486105000001,43.00312108999998],[-72.79464303999998,43.004336179999996],[-72.79514891000002,43.005761459999974],[-72.79258604,43.00685311000001],[-72.79112984,43.007825560000015],[-72.78811765,43.00819379000001],[-72.78673516999999,43.009215770000026],[-72.78515392000003,43.01101700999999],[-72.78346900999998,43.011631480000005],[-72.78392588999998,43.01337410000002],[-72.78346488,43.014146789999984],[-72.77996759000001,43.01634188000003],[-72.77664686000003,43.01880657999999],[-72.77567665999999,43.02053849999999],[-72.77424608000001,43.02213691999998],[-72.77362074000001,43.024721279999994],[-72.77367234000002,43.02667659999997],[-72.77452181000001,43.0278275],[-72.77525863,43.03097157000002],[-72.77608839999999,43.03191930000003],[-72.77798268999999,43.03235460000002],[-72.77896341000002,43.03298425999998],[-72.77971335000001,43.03439838000003],[-72.78269784999998,43.03597989999997],[-72.78620036000001,43.037085400000024],[-72.78972875,43.03772963],[-72.79003612000002,43.03857640000001],[-72.78846224,43.03922987999999],[-72.78786935,43.040540350000015],[-72.78828298000002,43.041074449999996],[-72.78802443000001,43.04271566],[-72.78652705000002,43.045071759999985],[-72.78553051,43.04926955000002],[-72.78542542000002,43.052251350000006],[-72.784377,43.05645974999999],[-72.78164899000001,43.059360649999974],[-72.78016797999999,43.059470680000004],[-72.7779701,43.058616900000004],[-72.77478809000002,43.05854479999999],[-72.77200649000002,43.05777669999998],[-72.76708086999997,43.05874690000002],[-72.76286519000001,43.061603289999994],[-72.76159175999999,43.06382814],[-72.75742651000002,43.064130739999996],[-72.75491552,43.06497777999999],[-72.75313352,43.06630551000001],[-72.75198728999999,43.068503299999975],[-72.75116703999998,43.06908225000001],[-72.74757167000001,43.06873515000001],[-72.74564151999999,43.06964476000002],[-72.74361805000001,43.069861960000026],[-72.74161057999999,43.06927661999998],[-72.73821650000002,43.07047785999998],[-72.73564374,43.07255508999998],[-72.73901813999998,43.07416276999999],[-72.74072533999998,43.074562560000004],[-72.74310265999998,43.07586079999999],[-72.74552825,43.07626300999999],[-72.74851705999998,43.07718503000001],[-72.74979669999999,43.078380159999995],[-72.75136779000002,43.079149700000016],[-72.75223110000002,43.08060284999999],[-72.75512597,43.08399154],[-72.75631363999997,43.084045479999986],[-72.75937599000002,43.08535333999998],[-72.76348001999997,43.08639033999998],[-72.76561666999999,43.08748037999999],[-72.76789033,43.08922983000002],[-72.76860835999997,43.09018258999998],[-72.76880489000001,43.09274248999998],[-72.77011958000003,43.09563071000002],[-72.77047577000002,43.09702146000001],[-72.77150224000002,43.09857942999997],[-72.77324226000002,43.099860060000026],[-72.77814639000002,43.10014171],[-72.77670710000001,43.102409980000004],[-72.77562353000002,43.10321880999999],[-72.77280166000003,43.10454843000002],[-72.77477262999997,43.10687324999998],[-72.77568258999997,43.109024009999985],[-72.77516792,43.11070253999998],[-72.77348544,43.111630030000015],[-72.76883599000001,43.111343610000006],[-72.76647971,43.11223002999998],[-72.76171986999998,43.11450215999997],[-72.76043006999998,43.1157604],[-72.75733508000002,43.11554536],[-72.75606668,43.116056619999995],[-72.75577325,43.11723638000001],[-72.75935469000001,43.12005635999998],[-72.76005600000002,43.121344179999994],[-72.76254209000001,43.12377551999998],[-72.76513948000002,43.12445525999999],[-72.76811715000002,43.12451046000001],[-72.76999067000003,43.125162320000015],[-72.77187263000002,43.12694521999998],[-72.77516756,43.127846920000025],[-72.77742989000001,43.12746277000002],[-72.78108415000003,43.12629622999998],[-72.78459699000001,43.126388469999995],[-72.78665759,43.12419374000001],[-72.78777127000001,43.12345628999998],[-72.78914728000001,43.12340064],[-72.79730121,43.12448384999999],[-72.79827068999998,43.124767299999974],[-72.79851207000002,43.12581868000001],[-72.79721769000002,43.12832401999998],[-72.79689450000001,43.13106721999998],[-72.79697892000002,43.1328067],[-72.79537771000003,43.134079859999986],[-72.79271487,43.140387429999976],[-72.79300282000003,43.14300917999998],[-72.79501919,43.145152670000016],[-72.79453246999998,43.147238440000024],[-72.79587637999998,43.15108526],[-72.79776671000002,43.15450378999998],[-72.79853491,43.156736550000005],[-72.80113409,43.15795172999998],[-72.80425093000002,43.160397279999984],[-72.80707819000003,43.16100617000001],[-72.80847587,43.16164024],[-72.81014639,43.16006420000002],[-72.81626705000002,43.15810348000002],[-72.81863743999997,43.15824452999999],[-72.82151262999997,43.15741403999999],[-72.82566609999998,43.15558772000003],[-72.82695086000001,43.15621170999998],[-72.82886986,43.15552244999998],[-72.82970566,43.15453660999998],[-72.83335416,43.15375852],[-72.83622422000002,43.15108830999998],[-72.83756750999999,43.14768136999999],[-72.83764086999997,43.14608826],[-72.83967224999998,43.14613895999997],[-72.84559693,43.145793019999985],[-72.84729881999999,43.14546803000002],[-72.85635129999997,43.14501782000002],[-72.86038314000001,43.14554148000002],[-72.86509417000002,43.144773199999975],[-72.86986768000003,43.14456956999999],[-72.87216966,43.14472662999998],[-72.87841150000003,43.14404222000002],[-72.87910462999997,43.14635264999998],[-72.87985880000002,43.14723511],[-72.88363873999998,43.14816602000002],[-72.88515544,43.14912921000001],[-72.88716767,43.15136530000001],[-72.89036055999998,43.15314837],[-72.89376623999999,43.15411282000002],[-72.89609528,43.15528268999998],[-72.90452664999998,43.15742689000001],[-72.90522004000002,43.15815562],[-72.90165973,43.16198023999999],[-72.89855404999997,43.163931160000004],[-72.89560613999998,43.16463525],[-72.89352962999999,43.16609513999998],[-72.88985910000002,43.17168781999999],[-72.88704316000002,43.17352249999999],[-72.88639174999997,43.17511633999999],[-72.88458816999997,43.17679504],[-72.88339349,43.179109419999975],[-72.88209155999999,43.17958985000001],[-72.88103380000001,43.18078380999998],[-72.87676589,43.18163283000001],[-72.87583856999998,43.18204664000001],[-72.87509051,43.18361313999998],[-72.87340649999999,43.18444445],[-72.87214978999998,43.18569307000001],[-72.86835008000003,43.18759410000001],[-72.86800324000001,43.18859710999999],[-72.86762575,43.19193383999999],[-72.86694494,43.19470824000001],[-72.86520672,43.19741135999999],[-72.8643667,43.19812839999997],[-72.86146491,43.19885039000002],[-72.85927745999999,43.199696700000004],[-72.85839203,43.200831419999986],[-72.85541597999998,43.202355590000025],[-72.85373081,43.203987359999985],[-72.85118915999999,43.20515003999998],[-72.84927375000001,43.205685930000016],[-72.84749435999998,43.20674199000001],[-72.8417217,43.20670774000001],[-72.83955735,43.206054429999995],[-72.83721222000003,43.20608913000001],[-72.83613539999999,43.21014686000001],[-72.83669799,43.21148034999999],[-72.83684434999998,43.21619271999998],[-72.83474769999998,43.21712049000001],[-72.8343739,43.217891029999976],[-72.83612884000001,43.21853570000002],[-72.83583872999998,43.22011470000001],[-72.83699188000003,43.22093837],[-72.83698378999998,43.23543366000001],[-72.8392,43.23636646],[-72.84048862999998,43.23825858999999],[-72.84076021999999,43.239908430000014],[-72.84027609999998,43.243625080000015],[-72.83952769000001,43.24569728],[-72.84034388999999,43.24874704000001],[-72.84159843999998,43.251308110000025],[-72.84399373999997,43.25350940999999],[-72.84720873999999,43.25731227],[-72.84846195,43.257671329999994],[-72.84847858,43.26058210999997],[-72.84787472,43.261396779999984],[-72.84590250000002,43.26261600999999],[-72.84591606999999,43.26372545999999],[-72.84678343000002,43.26612326999998],[-72.84321296000002,43.266001370000026],[-72.84283815999999,43.26876507999998],[-72.84163332000003,43.269180319999975],[-72.84175090999997,43.27168997000001],[-72.84275456,43.27273623000002],[-72.84191453,43.28131223999998],[-72.8421543,43.28273958],[-72.84173770000001,43.290380630000016],[-72.84203248,43.29090169],[-72.83840608999998,43.29156505999998],[-72.83539642,43.29152379999999],[-72.83049956999997,43.290355999999974],[-72.82614238999997,43.29063108999998],[-72.82338550999998,43.291264350000006],[-72.81743827000003,43.290208559999996],[-72.814077,43.29007974000001],[-72.81159944000001,43.289624479999986],[-72.80968206,43.29034872],[-72.80579153999997,43.291028359999984],[-72.80244312999997,43.29192071],[-72.79978621999999,43.293453950000014],[-72.79750374999998,43.29314083000003],[-72.79866059,43.29833930000001],[-72.79832670000002,43.29912555999999],[-72.79675614000001,43.300304600000004],[-72.79571546,43.30569509999998],[-72.79544350999998,43.31015000000002],[-72.79463396,43.312013809999996],[-72.79346077000002,43.31308766000001],[-72.79099031999999,43.31462010000001],[-72.79071891000001,43.31586745999999],[-72.78781000999999,43.31823048000001],[-72.78842457000002,43.319717430000026],[-72.79027157000002,43.321514709999974],[-72.79069607000002,43.32416101000001],[-72.79144116999998,43.32632884999998],[-72.79088172000002,43.332311249999975],[-72.79119142000002,43.33599588999999],[-72.79176983999997,43.33775766000002],[-72.78983419999997,43.338097119999986],[-72.78868258,43.338967449999984],[-72.7870322,43.33943807000003],[-72.78816458,43.34255517999998],[-72.79006829999997,43.34689528000001],[-72.79169818999998,43.35008807999998],[-72.79360865000001,43.352593590000026],[-72.79463566999999,43.354998050000006],[-72.79473590999999,43.35612467999999],[-72.79563904999998,43.357860200000005],[-72.79479137999999,43.36210267000001],[-72.79489036000001,43.36254894000001],[-72.79179384000003,43.36658040999998],[-72.79158995,43.36830280999999],[-72.78764604000003,43.37099440999998],[-72.78734288999999,43.37211915],[-72.78750624000003,43.374208880000026],[-72.78799413000002,43.375711550000005],[-72.79210956999998,43.37975669000002],[-72.79405456,43.38092495000001],[-72.79921014000001,43.382216630000016],[-72.80058615000002,43.38284915999998],[-72.80350413000002,43.38718288000001],[-72.80690549000002,43.390084950000016],[-72.80915147000002,43.39145565000001],[-72.81202331999998,43.391660349999995],[-72.81510823999997,43.39246271000002],[-72.81837979,43.39302836000002],[-72.82210219000001,43.39509669],[-72.82832435,43.39779333000001],[-72.83215436,43.40157381],[-72.83454713999998,43.40230675999999],[-72.83676794000002,43.404226489999985],[-72.83793358000003,43.405577859999994],[-72.83987911000003,43.408453940000015],[-72.84235702000001,43.40938449999999],[-72.84406403999998,43.41076743000002],[-72.84508556999998,43.412164029999985],[-72.84840486000002,43.41415028],[-72.85133388999998,43.41636369999998],[-72.85421321000001,43.419065020000005],[-72.85651132999999,43.424091239999996],[-72.85752764,43.42700894000001],[-72.85776912,43.43111441000002],[-72.85845648999998,43.43705302000001],[-72.86124708,43.43856892000002],[-72.86139613,43.43949650000002],[-72.86393436999998,43.440299400000015],[-72.86542904999999,43.44112818999997],[-72.86731873999997,43.44292772],[-72.86958880999998,43.44383579999999],[-72.87060054,43.44463896000002],[-72.87145000999999,43.44699713],[-72.87360051000002,43.44952575000002],[-72.87707936999999,43.449690799999985],[-72.87985593000002,43.45195152000002],[-72.88056218000003,43.454244510000024],[-72.88108405000003,43.454892599999994],[-72.88753707000001,43.45886465000001],[-72.8921894,43.45965253000003],[-72.89576355000003,43.46047826],[-72.89947346000002,43.460914460000026],[-72.90650084999999,43.460355909999976],[-72.90990689,43.459751419999975],[-72.91199086,43.45871964000003],[-72.91395076999999,43.45819768000001],[-72.91524379999998,43.458673610000005],[-72.91774113999998,43.46027121999998],[-72.92006433,43.46045084000002],[-72.9221839,43.459842579999986],[-72.92440829999998,43.459641739999995],[-72.92773532000001,43.45871488],[-72.92769783,43.459801140000025],[-72.93268484999999,43.459842400000014],[-72.93290223000002,43.460655369999984],[-72.9343356,43.46049481],[-72.93474563000001,43.46177058000001],[-72.93249911999999,43.46217378],[-72.93165316,43.465556719999995],[-72.93233568,43.467042040000024],[-72.93185426999997,43.468804439999985],[-72.93205969000002,43.47068902000001],[-72.93192735999997,43.474624389999974],[-72.92432892,43.474354240000025],[-72.92411675,43.477706609999984],[-72.92509324999997,43.477708140000004],[-72.92513982000003,43.484082769999986],[-72.92455698999999,43.488557990000004],[-72.92224170999998,43.49050629999999],[-72.92409436999998,43.493509949999975],[-72.92370447000002,43.496751570000015],[-72.92228963000002,43.49677242000001],[-72.92294464000003,43.50353190999999],[-72.9247724,43.50347231000001],[-72.92547263,43.51096295999997],[-72.92552504000003,43.51561995999998],[-72.92601552999997,43.51641503000002],[-72.92723817000001,43.516358939999975]]],[[[-72.88235011,44.14937234000001],[-72.88196849000002,44.15161760000001],[-72.87942899000001,44.15429239000002],[-72.87920505,44.15556061000001],[-72.88032385999998,44.157680089999985],[-72.89154652000002,44.16073893999999],[-72.89308274000001,44.16539162999999],[-72.91416643999997,44.164554210000006],[-72.92226239000001,44.163832309999975],[-72.93429514000002,44.16314044000001],[-72.94488167999998,44.16203773000001],[-72.96480252999999,44.159881919999975],[-72.96470975,44.1568264],[-72.96495787999999,44.15593388000002],[-72.96509523999998,44.15158810999998],[-72.96493477000001,44.14910902999998],[-72.96539758,44.148355579999986],[-72.96903753999999,44.14617074],[-72.97110307999998,44.14529799000002],[-72.97283221999999,44.14383423999999],[-72.97423186999998,44.14166125999998],[-72.97937073000003,44.13652374999998],[-72.98196048,44.134140049999985],[-72.97990257999999,44.12368090000001],[-72.97882819,44.11891773000002],[-72.97787326999998,44.115919659999975],[-72.97777285000001,44.11285415999998],[-72.97703863999999,44.109558419999985],[-72.97697948000001,44.105944799999975],[-72.97606654999998,44.10323009000001],[-72.97448943,44.100701920000006],[-72.97420255999998,44.09865112],[-72.97177004999998,44.09862290000001],[-72.96896543999998,44.097767680000004],[-72.96359876999998,44.09542776000001],[-72.96217493,44.09445154000002],[-72.96244616000001,44.09310069999998],[-72.96476837,44.09074577000001],[-72.96489467999999,44.08599671000002],[-72.96435940999999,44.08471257999997],[-72.96511987000002,44.08266573999998],[-72.96553332000002,44.08056001],[-72.96763751999998,44.074771440000006],[-72.96965911000001,44.072491660000026],[-72.97133107000002,44.07142957999997],[-72.97603516999999,44.070026600000006],[-72.98066727000003,44.06926920000001],[-72.98260911,44.06849821999998],[-72.98528506999997,44.068212689999996],[-72.98761393000001,44.06826573000001],[-72.98906878999998,44.06934039999999],[-72.99136464999998,44.06771204],[-72.99341284000002,44.06741240000002],[-72.99601221,44.066610939999975],[-72.99890384999998,44.066614809999976],[-72.99925284,44.07147157000003],[-73.00108535999999,44.07265124000003],[-73.0018202,44.075361180000016],[-73.00445948999999,44.07657033999999],[-73.00813927000002,44.081444980000015],[-73.00910318000001,44.08424689999998],[-73.00947896000002,44.08851643000003],[-73.00822979999998,44.090650649999986],[-73.00815168000003,44.09256103000001],[-73.00936433999999,44.094942479999986],[-73.01185959999998,44.09480179000002],[-73.01223862,44.09562256999999],[-73.01264686000002,44.099694320000026],[-73.01236322,44.10209591],[-73.01262653999999,44.10348836999998],[-73.01231306,44.10550869999997],[-73.01254078,44.10719747000002],[-73.01411411999999,44.10948640999999],[-73.01495711000001,44.11230253000002],[-73.01737785,44.11480992999998],[-73.01838347,44.115298989999985],[-73.01863230999999,44.117196149999984],[-73.01961347999998,44.11876095000002],[-73.02294302000001,44.118509759999995],[-73.02475297000001,44.119475109999996],[-73.02561206000001,44.12147915999998],[-73.02623685999998,44.12192354000001],[-73.02901144999998,44.12216563999999],[-73.03042736999998,44.122976540000025],[-73.03197139999997,44.12273622999999],[-73.03346383000002,44.12309961],[-73.03454713000002,44.12248002000001],[-73.03587019000003,44.12263841999999],[-73.03644222000003,44.12397146000001],[-73.03852916,44.124406220000026],[-73.04080371999999,44.125747880000006],[-73.04270079000003,44.12582114999998],[-73.04399705999998,44.12679143999998],[-73.04637086999998,44.12693366000002],[-73.04811609000001,44.127844349999975],[-73.04979308999998,44.1279596],[-73.05072194000002,44.12959551],[-73.05046977,44.13111096],[-73.05184721,44.13101108000001],[-73.05230310000002,44.12964549999998],[-73.05383508,44.12894401],[-73.05571695999998,44.12734117999997],[-73.05787536999998,44.126209519999975],[-73.06114063000001,44.12647903999999],[-73.06552405999997,44.12840406999999],[-73.06807048000002,44.12914961000001],[-73.07113643000002,44.12974448],[-73.07323838000002,44.12958598],[-73.07479004999999,44.13013761000002],[-73.07671877000001,44.13030348000001],[-73.07871562999998,44.13117398000003],[-73.08010116999998,44.131103859999996],[-73.08329845999998,44.132080350000024],[-73.08452505000002,44.13133355000002],[-73.08296906999999,44.12916605999999],[-73.08255076,44.12692719],[-73.08263518000001,44.12507237],[-73.08191111999997,44.121518089999995],[-73.07912899000002,44.116652250000016],[-73.07637849999998,44.11257888],[-73.07690423000003,44.111040960000025],[-73.07685909999998,44.10957757],[-73.07496626,44.10401904999998],[-73.07487519,44.101709700000015],[-73.07515424000002,44.099003530000005],[-73.07434018999999,44.09599278000002],[-73.07411130999998,44.09359101000001],[-73.07335022000001,44.09244819999998],[-73.07307845000003,44.090693810000005],[-73.07422574999998,44.087352220000014],[-73.074795,44.083643310000014],[-73.07398203000002,44.08224581000002],[-73.07500312000002,44.08131839999999],[-73.07678296,44.08179181999998],[-73.07907863999998,44.08154244000002],[-73.08307344000002,44.079818509999996],[-73.08670089999998,44.07892670000001],[-73.08579741,44.075104969999984],[-73.08572071999998,44.07365542000002],[-73.08658501999997,44.06751075],[-73.08880699000002,44.066028930000016],[-73.08939979000002,44.06515079000002],[-73.09111462999999,44.05971876000001],[-73.09241441,44.05465622000003],[-73.09276240999998,44.05181520000002],[-73.09251690000002,44.050464009999985],[-73.09051419000002,44.04643378999998],[-73.09057289999998,44.04167116000002],[-73.09098454999997,44.03754313000002],[-73.09273597999999,44.033210940000004],[-73.09960803000001,44.026530649999984],[-73.10215489000001,44.02424314000001],[-73.10261661999999,44.02253440999999],[-73.1024521,44.01645087999998],[-73.10157494999999,44.014653150000015],[-73.10019363999999,44.013406780000025],[-73.09759659999997,44.010309629999995],[-73.09735414,44.009600320000004],[-73.09796088000002,44.00533151000002],[-73.09839267000001,44.00444859999999],[-73.10287526000002,43.99935819000001],[-73.10377084999999,43.997729470000024],[-73.10477269,43.99497530000002],[-73.10504895999998,43.993026180000015],[-73.10476477999998,43.98787059],[-73.10439197,43.98679098000002],[-73.10266966,43.98693536000002],[-73.09340042999997,43.988196749999986],[-73.09369521000002,43.979976290000025],[-73.09393309000001,43.976646130000006],[-73.09540403,43.97534932000002],[-73.09617070000002,43.97201842999999],[-73.09272771000002,43.97147966],[-73.09054476,43.96777380999998],[-73.09101457999998,43.96154967000001],[-73.09080663999998,43.95896109],[-73.08977952999999,43.958017229999996],[-73.08809328000001,43.95723321000003],[-73.08532319,43.95475385999998],[-73.08164403,43.95403754],[-73.08157058,43.95234247000002],[-73.08437807000001,43.94976872000001],[-73.08563594999998,43.947946179999974],[-73.08739888999997,43.946897320000005],[-73.08742909,43.94534447000001],[-73.08860553,43.94337423000002],[-73.09117837000002,43.94021433],[-73.09180722000002,43.93889703000002],[-73.09226777999999,43.93482634999998],[-73.09031236999999,43.92904821000002],[-73.09020672999998,43.92760568],[-73.08940805999998,43.92551119000001],[-73.08804121999998,43.92430859000001],[-73.0862942,43.92037006999999],[-73.08259615999998,43.92097590999998],[-73.08143626999998,43.922304180000026],[-73.08180369000002,43.92494687999999],[-73.08018557999998,43.92517729999997],[-73.07497174000002,43.92375814000002],[-73.07175934000003,43.92082245],[-73.06932135,43.91832178999999],[-73.06865411000001,43.91676976000002],[-73.06844123000002,43.91476544],[-73.06705047000003,43.91257762999999],[-73.06640336999999,43.909326669999984],[-73.06832057999998,43.90813638999998],[-73.07208028999997,43.90660728],[-73.07289802000003,43.90522642000002],[-73.07231034,43.90410276],[-73.07137591999998,43.90414088],[-73.06893055,43.903068280000014],[-73.069028,43.90116742999999],[-73.07026709000002,43.89854334],[-73.07035789000003,43.896968389999984],[-73.07150195999998,43.895190249999985],[-73.07093478000002,43.89221133000001],[-73.07028184,43.890225620000024],[-73.07078841999999,43.88882129000001],[-73.06859729000001,43.888574240000025],[-73.0675344,43.887712729999976],[-73.06925661999998,43.885320130000025],[-73.06858003000002,43.884794039999974],[-73.06701127999997,43.88495820000003],[-73.06656348000001,43.88411825999998],[-73.06830160999999,43.88299316000001],[-73.06827014999999,43.881731409999986],[-73.06741196000002,43.88001028000002],[-73.06690501000003,43.878139009999984],[-73.06580229999997,43.877442110000004],[-73.06616127000001,43.875725820000014],[-73.06796681999998,43.87255928000002],[-73.06790577999999,43.87014546],[-73.06725338000001,43.86891688999998],[-73.06813871000003,43.86752999999999],[-73.06926147000001,43.864385930000026],[-73.06883076000003,43.86254729000001],[-73.06926750000002,43.86085195999999],[-73.07101812000002,43.86050611000002],[-73.07011813000003,43.85918853999999],[-73.06739658999999,43.85647239000002],[-73.06366484,43.854751799999974],[-73.06106232000002,43.852528749999976],[-73.05929714000001,43.85025787000001],[-73.05790152999998,43.84776548999997],[-73.05693133,43.84410789999998],[-73.05657721,43.839048149999996],[-73.05599511000003,43.83636526999999],[-73.05515401000002,43.83030941999999],[-73.05015071000003,43.83142265999999],[-73.04940112000003,43.83065275000001],[-73.04695306000002,43.83108148000002],[-73.04378344999998,43.83296759000001],[-73.04357812,43.833758620000026],[-73.03965875,43.83866869000002],[-73.03691392000002,43.83859668000002],[-73.03433639999997,43.839423580000016],[-73.02961225000001,43.842216500000006],[-73.02836029999997,43.84505877999999],[-73.02691227999998,43.84678008999998],[-73.02532545999998,43.84739366000002],[-73.02253487000002,43.84902228999999],[-73.02174645000002,43.85032897999997],[-73.01735725999998,43.85171532999999],[-73.01683969999999,43.85232395999998],[-73.01184288000002,43.85494984000002],[-73.00945990000002,43.855596950000006],[-73.00753407000002,43.85556728],[-73.00617667,43.85509053999999],[-73.00021242999998,43.85544331],[-72.99925940000003,43.85484943],[-72.99748485999999,43.849771069999974],[-72.99621502999997,43.84572736000001],[-72.99575977,43.84294477999998],[-72.99593634000001,43.840466779999986],[-72.99648868000003,43.837586740000006],[-72.99748504000002,43.83482545999999],[-72.99860502000001,43.83274714999999],[-72.99808872,43.830792910000014],[-72.99891185000001,43.82947407],[-72.99883111999998,43.82775240000001],[-72.99926713000002,43.826511419999974],[-72.99838269999998,43.82592742999998],[-72.99824722,43.82304486999999],[-72.99750068999998,43.82076833999997],[-72.99734740999997,43.818766349999976],[-72.99519835000001,43.81668715000001],[-72.99479711999999,43.81546387999998],[-72.99515942,43.811078469999984],[-72.99463315000003,43.80807643000003],[-72.99479990999998,43.80390031000002],[-72.99453345,43.80257824],[-72.99302439000002,43.79984311999999],[-72.99180461999998,43.798235620000014],[-72.99024431999999,43.795045519999974],[-72.99008879000002,43.79298231000001],[-72.99105251999998,43.78999683000001],[-72.99034833000002,43.788630969999986],[-72.98807512000002,43.78615782999998],[-72.98566543999999,43.784113409999975],[-72.98455904000002,43.782680579999976],[-72.98342854999999,43.780076269999995],[-72.98253153000002,43.779174839999996],[-72.98325172,43.775953819999984],[-72.98277929,43.77233461999998],[-72.98138376999998,43.76921859999999],[-72.97775343,43.7687646],[-72.97636168999998,43.76891869000002],[-72.97495413000001,43.767574690000004],[-72.97334977000003,43.7676912],[-72.97104454999999,43.76737681999998],[-72.97087355999997,43.76645327],[-72.96968805,43.76464116],[-72.96841353999997,43.76131916999998],[-72.96707772000002,43.759466610000004],[-72.96796710000001,43.75710700000002],[-72.96713362999998,43.75407944],[-72.96885594000003,43.752171309999994],[-72.97056728000001,43.751291820000006],[-72.97181536,43.749303320000024],[-72.97154169999999,43.74770769000003],[-72.97399210999998,43.74458384000002],[-72.97403679000001,43.74213649000001],[-72.97561732000003,43.74006960000003],[-72.97373140000002,43.73986624999998],[-72.97052242000001,43.738387209999985],[-72.97068064000001,43.73635098],[-72.97166963000001,43.73508221999998],[-72.97087419000002,43.731598589999976],[-72.97089002000001,43.72881124000003],[-72.96956929999999,43.72588122000002],[-72.96809403999998,43.724449660000005],[-72.96546024000003,43.71994763999999],[-72.96414203,43.71919589999999],[-72.96214221000002,43.716885830000024],[-72.96150625000001,43.715371370000014],[-72.96122523000003,43.71327094999998],[-72.96166475000001,43.71188110000003],[-72.96049946,43.711822659999996],[-72.95936626999998,43.711037120000015],[-72.95763138000001,43.71066546999998],[-72.95645216999998,43.70974848999998],[-72.95354705,43.70870123999998],[-72.95265479,43.70720404999997],[-72.95050636000002,43.70719335000001],[-72.94883521000003,43.70771019],[-72.94775317,43.707165840000016],[-72.94593287999999,43.707485529999985],[-72.94312502999998,43.70571881000001],[-72.94046982999998,43.705657770000016],[-72.93945522000001,43.70449572000001],[-72.93936432999999,43.70240294000001],[-72.93861708999998,43.70116457],[-72.93817208000002,43.69909013],[-72.93998276000002,43.69684209000002],[-72.94150314000001,43.69414346999997],[-72.94026333,43.691947029999994],[-72.94019653999999,43.686948770000015],[-72.93937216,43.685423979999996],[-72.93969579999998,43.683666879999976],[-72.94057511,43.68190492999997],[-72.94324253000002,43.67966147999999],[-72.94526797999998,43.67904736999998],[-72.94561553,43.677520689999994],[-72.94321052999999,43.67431755000001],[-72.94223718,43.672480440000015],[-72.94271203,43.67128801000001],[-72.94112395000002,43.67070150000001],[-72.93986939000001,43.66971314],[-72.93912295000001,43.66065464000002],[-72.93608146000003,43.65812026999998],[-72.93587019,43.65660680000002],[-72.93501056999997,43.655806240000004],[-72.93181299999998,43.65462504999999],[-72.92949871000002,43.652282609999986],[-72.92750464,43.651327149999986],[-72.92665183999998,43.652008060000014],[-72.92464213,43.65261631999999],[-72.92115921999999,43.65161690000002],[-72.91528633000001,43.651413460000015],[-72.91079178000001,43.65051894999999],[-72.90885713,43.64993055999997],[-72.90601736999997,43.648497640000016],[-72.90069897000001,43.64813515999998],[-72.89869618,43.64857827999998],[-72.88764171999998,43.655066180000006],[-72.88626067000001,43.65537813999998],[-72.88153777999997,43.65542426000002],[-72.87678421999999,43.65601336999998],[-72.87328962999999,43.65672168999998],[-72.87178731,43.657555160000015],[-72.86643924999998,43.66107572999999],[-72.86483120999998,43.66264475000003],[-72.86369380000002,43.664472690000025],[-72.86212305999999,43.66596198000002],[-72.86032353000002,43.66651080999998],[-72.85657371999997,43.66699448000003],[-72.85312012000003,43.667721229999984],[-72.85190548000003,43.66746438000001],[-72.84497894999998,43.66503564999999],[-72.84321915999999,43.66456906000002],[-72.83718434999997,43.66363382999998],[-72.83457869,43.663631769999995],[-72.83202534999998,43.66397411000003],[-72.82746660999999,43.66507088999998],[-72.82480198000002,43.66489459000002],[-72.82049586,43.66325518000002],[-72.81849432000001,43.66281655],[-72.81685643999998,43.662863749999985],[-72.81419899000002,43.663469410000005],[-72.8125407,43.664355820000026],[-72.81085389999998,43.66582514999999],[-72.80825462000001,43.66745899],[-72.80651551,43.66803992000001],[-72.80544039,43.66922507999999],[-72.80587362,43.67043917000001],[-72.80779855999998,43.67284282999998],[-72.80929027000002,43.67407608000002],[-72.81061144,43.67741676000003],[-72.81105744000001,43.680320800000004],[-72.81344644,43.682498090000024],[-72.81358793999999,43.68436998999999],[-72.80562712,43.68218667999997],[-72.80705823,43.67950073999998],[-72.80581095999997,43.67923669999999],[-72.80327389000001,43.68006116999999],[-72.79976627000002,43.67721556999999],[-72.7984869,43.67665216],[-72.79831789000002,43.675465480000014],[-72.79947615999998,43.67405450000001],[-72.79841911,43.67243432999999],[-72.79544037,43.67251657999998],[-72.79570340999999,43.670998259999976],[-72.78635930000002,43.67288418999999],[-72.78608061,43.67197611],[-72.78080491999998,43.67243549],[-72.78195068999997,43.67423385000001],[-72.77962516000002,43.675404619999995],[-72.78126645999998,43.67815349],[-72.78294686999999,43.67750405999999],[-72.78390143000001,43.67653242],[-72.78535044,43.68020816000001],[-72.78770150999998,43.68120271999999],[-72.78883308000002,43.680383370000015],[-72.78796240000003,43.67976872999998],[-72.78635444000003,43.67536892999999],[-72.78711005000002,43.67559736999999],[-72.79511277,43.67397890000001],[-72.79710487,43.676715090000016],[-72.79802957999999,43.67640512000003],[-72.79968751000001,43.678837269999974],[-72.79847602000001,43.67913484000002],[-72.79875849000001,43.68022371000001],[-72.80291455999998,43.681438979999996],[-72.80484544000001,43.688104080000016],[-72.81204875999998,43.69007603],[-72.81375731000003,43.692027759999974],[-72.81442895999999,43.69393265000002],[-72.81374841000002,43.69753099000002],[-72.81443002999998,43.69844814999999],[-72.81641044000003,43.69972670999999],[-72.81750129,43.70080730000001],[-72.82088998,43.701576939999995],[-72.82191870000003,43.702334080000014],[-72.82295381,43.70427601],[-72.82586801000002,43.70889318000002],[-72.82635076999998,43.71203293999997],[-72.82705784000001,43.714777140000024],[-72.82627715000001,43.71662557000002],[-72.82441676000002,43.71810685000003],[-72.82298204,43.72000121999997],[-72.82297359,43.722618479999994],[-72.82247239999998,43.72368703000001],[-72.82315671999999,43.72573441999998],[-72.82299003999998,43.729219030000024],[-72.82157312999999,43.730956890000016],[-72.82059213999997,43.733574060000024],[-72.82076475000002,43.736113999999986],[-72.82034303,43.73784340999998],[-72.81995654999997,43.742064029999995],[-72.82002505000003,43.74355062000001],[-72.82068528000002,43.74592999999999],[-72.8205355,43.74767514000001],[-72.82073165999998,43.751784199999975],[-72.82030536000002,43.754150100000004],[-72.82045927000001,43.75600976999999],[-72.81840163999999,43.76196870000001],[-72.81822004000003,43.76343965000001],[-72.81744591,43.764486980000015],[-72.81499613,43.766471790000026],[-72.81386807000001,43.76790983000001],[-72.81632646999998,43.768959059999986],[-72.81931835,43.770594070000016],[-72.82211945,43.77049292999999],[-72.82309019000002,43.77085513999998],[-72.82560838,43.77091096999999],[-72.82906450000002,43.77155671999998],[-72.83103312999998,43.77225874999999],[-72.83543768999999,43.77319784000002],[-72.83512043000002,43.774704929999984],[-72.83223671000002,43.77419752999998],[-72.82736826000001,43.77426387999998],[-72.82535981000001,43.77396234999998],[-72.82299795,43.77405962],[-72.81903821999998,43.77346161000003],[-72.81785774000002,43.773588459999985],[-72.81302758999999,43.773011929999996],[-72.81086712000001,43.77541019],[-72.80862034,43.776541039999984],[-72.80483312000001,43.77781870000001],[-72.80001744999998,43.77871761],[-72.79807183000003,43.77878306000002],[-72.79485843999998,43.778256510000006],[-72.78644137999999,43.779614270000025],[-72.78449360000002,43.779462430000024],[-72.78284187000003,43.778489809999996],[-72.77962507000001,43.777178160000005],[-72.77745092999999,43.776942270000006],[-72.76818404,43.77648432000001],[-72.76644834000001,43.776181080000015],[-72.76342184999999,43.77484129999999],[-72.76076476999998,43.77246237000003],[-72.75776265000002,43.77210205],[-72.75762860999998,43.77383254],[-72.75658800999997,43.776014050000015],[-72.75513432999998,43.77686891000002],[-72.75379436999998,43.776339310000026],[-72.75244821000001,43.776580060000015],[-72.75211414,43.77795309999999],[-72.75318358999999,43.78282567999997],[-72.75513595000001,43.785098259999984],[-72.75953664000002,43.78610352999999],[-72.76017187999997,43.786735609999994],[-72.76020874,43.78826085999998],[-72.76108068000002,43.790335389999996],[-72.7659208,43.79422545],[-72.76882088999997,43.79715214999999],[-72.7719174,43.800937569999974],[-72.77348661000002,43.80160265000001],[-72.77592558999999,43.80206132000001],[-72.78213876000001,43.80553882999999],[-72.78284816000001,43.80435970000002],[-72.78799502999999,43.805945529999974],[-72.78858055,43.80672191000002],[-72.78845954000002,43.80853060999999],[-72.78786718999999,43.80916737000001],[-72.78557816,43.80961380999997],[-72.78447877000002,43.81088060000002],[-72.78438015,43.81440225],[-72.78582384999999,43.816009029999975],[-72.78810911,43.816365210000015],[-72.79133525999998,43.81640540000001],[-72.79414022999998,43.819717860000026],[-72.79408881,43.821836710000014],[-72.79108121000002,43.82279090999998],[-72.79074957,43.82385074000001],[-72.79324843,43.82426409999999],[-72.79593239000002,43.826045739999984],[-72.79676594,43.82750589],[-72.79678617000002,43.82931647999999],[-72.79499141000002,43.82959534999998],[-72.79412729,43.83037406],[-72.79425414000002,43.83531991000001],[-72.79486663,43.83653652999999],[-72.79836849999998,43.837317489999975],[-72.80187747999997,43.83943418000001],[-72.80291097000003,43.841403979999995],[-72.80185814999999,43.84508008],[-72.80195371000002,43.84831154],[-72.80329826000002,43.84939509999998],[-72.80337126,43.85072742],[-72.80179369000001,43.85141371999998],[-72.80158359,43.85330484999997],[-72.80260639,43.85388057],[-72.80401169999999,43.85384613999997],[-72.80560014999998,43.854359020000004],[-72.80551230999998,43.85778898000001],[-72.80589402999999,43.85854782000001],[-72.80821515999997,43.85781406000001],[-72.81621922,43.85674452000001],[-72.81788381000001,43.85698150000002],[-72.81623719999999,43.85845594],[-72.81565969000002,43.86112957],[-72.81352906000001,43.863363049999975],[-72.81167306999998,43.86370277999998],[-72.81007896,43.86321344999999],[-72.80907208000002,43.86446971999999],[-72.80826855999999,43.867193869999994],[-72.80987993000002,43.86777669000003],[-72.81098713,43.87009304999998],[-72.81361086999999,43.874727930000006],[-72.80986069,43.876746819999994],[-72.80656872999998,43.878250760000014],[-72.80967819,43.88401163999998],[-72.81192487999999,43.88574355999998],[-72.81297941000003,43.887358259999985],[-72.81643049000002,43.889112290000014],[-72.81778600000001,43.89009041000003],[-72.81849360000001,43.89188804999998],[-72.81856319000002,43.89442430999998],[-72.81726197,43.89403009],[-72.81092501,43.89523484],[-72.81250465,43.89919449000001],[-72.80482961000001,43.9004726],[-72.80551519,43.902255579999974],[-72.80921368000003,43.90276604000002],[-72.80935957999998,43.90306406000002],[-72.81384236000002,43.902016720000006],[-72.81451526000001,43.90460036000002],[-72.81529244000001,43.905394890000025],[-72.81438104,43.906950610000024],[-72.81553985,43.91061395000003],[-72.81715588999998,43.91068010999999],[-72.81807728000001,43.91288616999998],[-72.82084286999998,43.91233140000003],[-72.82134037999998,43.913974499999995],[-72.82040659,43.91564951999999],[-72.82114646000002,43.917426120000016],[-72.82179608000001,43.91754056000002],[-72.82381829000002,43.91919364],[-72.82631193999998,43.91896673999997],[-72.82798183,43.91964494000001],[-72.83167437999998,43.918191620000016],[-72.83259000999999,43.91528155999998],[-72.83343911999998,43.91545479000001],[-72.83428328000002,43.91307064],[-72.83852431000003,43.91414458999998],[-72.84084166999997,43.91585206000002],[-72.84084292,43.91743772000001],[-72.83993242000003,43.919418389999976],[-72.83996937,43.920564979999995],[-72.84127776999998,43.92571571000002],[-72.84009900000001,43.92826401000002],[-72.83741414000002,43.92812656000001],[-72.83873377999998,43.93583953000001],[-72.84280931,43.93691761000002],[-72.84248737000001,43.939980049999974],[-72.84139212000002,43.942295969999975],[-72.84060765999999,43.94575262000001],[-72.84084238000003,43.94902137999998],[-72.83964086999998,43.95181223999998],[-72.83932406000002,43.95366489999998],[-72.83993816999998,43.95711004999998],[-72.84107415,43.95966734000001],[-72.84224644,43.96338093000003],[-72.84231531,43.96480171000002],[-72.84322393000002,43.96956676999997],[-72.83942035000001,43.96983144000001],[-72.83883851000002,43.97050819999998],[-72.8400732,43.971700999999996],[-72.84239036999998,43.97243295999999],[-72.84316296999998,43.97343787],[-72.84199498999999,43.97514497999998],[-72.84210268999999,43.97733926000001],[-72.84330052000001,43.98278639],[-72.84384018999998,43.98341586999999],[-72.84801829000003,43.98522178000002],[-72.84993666999998,43.987737089999996],[-72.85213642999997,43.98969161000002],[-72.85277652000002,43.99246393999999],[-72.85236900000001,43.99640839],[-72.85255598999998,43.998514030000024],[-72.85316146999997,44.00015516000002],[-72.85712939000001,44.001309289999995],[-72.85611316,44.005137950000005],[-72.85354328,44.0044815],[-72.85085077000002,44.00859037999999],[-72.84937667999998,44.00814700000001],[-72.84907821000002,44.009488929999975],[-72.85031038,44.01105823],[-72.85208447000002,44.012137300000006],[-72.85258700999998,44.014670860000024],[-72.85030318999998,44.01765095000002],[-72.85426679,44.018873240000005],[-72.85175256000002,44.02284142000002],[-72.84587454000001,44.021289749999994],[-72.84368457,44.02260605999999],[-72.84149954999998,44.02268121999998],[-72.83694019,44.02507759000002],[-72.83535974,44.026151449999986],[-72.83687365999998,44.02647409999997],[-72.83681288999998,44.02868563999999],[-72.83589203999998,44.03142885],[-72.83438684999999,44.03385192000002],[-72.83551590000002,44.04242622999999],[-72.83484417,44.045009230000005],[-72.83309642,44.04762972999998],[-72.83299726000001,44.04921988000001],[-72.83206840999998,44.049850349999986],[-72.83445166000001,44.05162254999999],[-72.83738464999999,44.05443632999999],[-72.84007985,44.05613327999998],[-72.84478657,44.05669596000001],[-72.85148421000002,44.05974384000001],[-72.85581775000003,44.062410820000025],[-72.83976134,44.05745741999999],[-72.82148699999999,44.052538990000016],[-72.81870171999998,44.05173761999998],[-72.80975262999999,44.065441169999986],[-72.80741549999999,44.06916454999998],[-72.80751034000002,44.06946239000001],[-72.79382063999998,44.09012590999998],[-72.82582027000001,44.09950975999999],[-72.82715303999998,44.09321874],[-72.82828030000002,44.09127068999999],[-72.83595955999999,44.093673179999996],[-72.8397812,44.09500613],[-72.84090343000003,44.094906700000024],[-72.84207249000002,44.092991110000014],[-72.84307891999998,44.091975779999984],[-72.85149211999999,44.09415837],[-72.85264103999998,44.095951609999986],[-72.85008986000003,44.103467609999996],[-72.85160692,44.105717889999994],[-72.85108145999999,44.106995100000006],[-72.85186691000001,44.10780734999997],[-72.85209624999999,44.10923298],[-72.85307929999999,44.110708690000024],[-72.85662685,44.111136620000025],[-72.85689879,44.10891375],[-72.85760450999999,44.10723531999997],[-72.85886176000002,44.10612047000001],[-72.85976094,44.10623005000002],[-72.85820153999998,44.11023455999998],[-72.85770061,44.112414279999996],[-72.85807001,44.11682404999999],[-72.85752531000003,44.11862267999999],[-72.85409769,44.121741310000004],[-72.85284654999998,44.12459537000001],[-72.85161052000001,44.12612987],[-72.85064526000002,44.12836865000003],[-72.84816446999997,44.13199997999999],[-72.84607464999999,44.13716284999998],[-72.84661783000001,44.13763374000001],[-72.85206172,44.13957198999998],[-72.85674047999998,44.140480790000026],[-72.86071135999998,44.13940009999999],[-72.86283606,44.13915422000002],[-72.86540216999998,44.13994957],[-72.86651296999997,44.14148334999999],[-72.87017666000003,44.141757989999974],[-72.87410925,44.14318192000002],[-72.87533279000002,44.14482233000001],[-72.87773401999999,44.145240720000004],[-72.87969519,44.145185430000026],[-72.88235011,44.14937234000001]]],[[[-76.78327078000001,42.57657004999999],[-76.78217210999998,42.57659171],[-76.78233203999997,42.579520479999985],[-76.79201544,42.57928835000001],[-76.79193750000002,42.576565370000026],[-76.79595045000002,42.576484549999975],[-76.79589561,42.57368471000001],[-76.79432451999998,42.57369584999998],[-76.79318763999999,42.57303374000003],[-76.79312175000001,42.57219730999998],[-76.79690699000002,42.57202991999998],[-76.79673285000001,42.567809109999985],[-76.79574728,42.56786503000001],[-76.79560909999998,42.563513150000006],[-76.80064142999998,42.56328552000002],[-76.80067595999998,42.56385233999998],[-76.81287404,42.56348888000002],[-76.81302578999998,42.56565223000001],[-76.82029789,42.56535681999998],[-76.82016995999999,42.563233560000015],[-76.81479906999999,42.563363830000014],[-76.81592461000002,42.56127024],[-76.81580603999998,42.55718365000001],[-76.81255813000001,42.55728461000001],[-76.81224276,42.551400109999975],[-76.81078971,42.55143203],[-76.81054302000001,42.54749162000002],[-76.81196173000001,42.547460160000014],[-76.81127579000002,42.54560236999998],[-76.81110346000003,42.54374997999997],[-76.81029111999999,42.543769689999976],[-76.81001657000002,42.53507859000001],[-76.80953911,42.528352900000016],[-76.81319255,42.528206539999985],[-76.81356276000002,42.536151010000026],[-76.81665810999999,42.53610200999998],[-76.81635739000001,42.52813247],[-76.82034121999999,42.52800616000002],[-76.82099964999998,42.52657288],[-76.82293861,42.52551539000001],[-76.82505961999999,42.525891349999995],[-76.82568047000001,42.523382509999976],[-76.82844390999998,42.52332488000002],[-76.82853273,42.52552078000002],[-76.83339632000002,42.525434029999985],[-76.83317039999997,42.52008848000003],[-76.82831841000001,42.52023349000001],[-76.82820422999998,42.518290209999975],[-76.81296412,42.51873495000001],[-76.81265287999997,42.51389051000001],[-76.81827944999998,42.51373831000001],[-76.81805451999998,42.508578950000015],[-76.82776605999999,42.50835968000001],[-76.82772892999998,42.50745069999999],[-76.82595584,42.50693414],[-76.82227793999999,42.50760506],[-76.81992193000002,42.50771904999999],[-76.82030732999999,42.50528600000001],[-76.82308676999997,42.50511123000001],[-76.82763992999998,42.50528627],[-76.82748844999998,42.50158742000002],[-76.82503903999998,42.50175257000001],[-76.82498168000001,42.50057829999997],[-76.82272599999999,42.50088890000001],[-76.82290984000002,42.50389372000001],[-76.81787453999999,42.503897489999986],[-76.81768628999998,42.49908019999998],[-76.82434662999998,42.49891783999999],[-76.82424450000002,42.49501564000002],[-76.82232217,42.495131790000016],[-76.82231309000002,42.49361446],[-76.82418246999998,42.49367927999998],[-76.82409428,42.49148337999998],[-76.82261469999997,42.49154748000001],[-76.82259249999998,42.49052117999997],[-76.82389919000002,42.49048684000002],[-76.82381873000003,42.487980160000006],[-76.82120830999997,42.48803068000001],[-76.82115976,42.48589708999998],[-76.81552806000002,42.48449608999999],[-76.81549013,42.48318641999998],[-76.81713287000002,42.483142369999996],[-76.81696412999997,42.47786325999999],[-76.81242552999998,42.47793968000002],[-76.81226981999998,42.474231840000016],[-76.80720521,42.474289380000016],[-76.80677674999998,42.465702669999985],[-76.82117728999998,42.46541381999998],[-76.82141445000002,42.46940853000001],[-76.82182168999998,42.47085636999998],[-76.82412223,42.47204457999999],[-76.82863099000002,42.471990730000016],[-76.82868411999999,42.470850610000014],[-76.82586189,42.470913629999984],[-76.82536114999999,42.46292925],[-76.81615961,42.46313916999998],[-76.81604435999998,42.461807480000004],[-76.82020906999998,42.461665890000006],[-76.81999951,42.45769231000003],[-76.81582724999998,42.457818169999996],[-76.81566256000002,42.45376709999999],[-76.82152484,42.453593049999995],[-76.82183293000003,42.457325430000026],[-76.82684036,42.45717817000002],[-76.82665309999999,42.453479870000024],[-76.82857399,42.453462779999995],[-76.82870075,42.45138042999997],[-76.83051762999997,42.451054269999986],[-76.83079794000002,42.448195],[-76.83066317999999,42.44699942],[-76.82909236,42.44696148999998],[-76.82881807000001,42.44611480999998],[-76.83175268000002,42.446036419999984],[-76.83079236999998,42.44360677999998],[-76.83170448999999,42.442412460000014],[-76.82841495999998,42.442118300000004],[-76.82380309000001,42.44356066],[-76.81877560999999,42.443663060000006],[-76.81867322,42.44262004000001],[-76.81362983000002,42.44275363000003],[-76.81673928999999,42.44121858],[-76.82012429000002,42.438945279999984],[-76.8193392,42.437273679999976],[-76.81963236000001,42.436538480000024],[-76.81949795999998,42.432623879999994],[-76.81626839,42.432661989999986],[-76.81627477,42.43175229000002],[-76.8074661,42.431950159999985],[-76.80495996000002,42.432412880000015],[-76.80294971000001,42.434128620000024],[-76.80322039999999,42.43938355],[-76.80532738,42.43930992000003],[-76.80542277,42.441095959999984],[-76.79865841999998,42.441215890000024],[-76.79853885,42.439547249999976],[-76.79546714999998,42.439829540000005],[-76.79420154000002,42.440934500000026],[-76.79543281000002,42.44132952000001],[-76.79553098000002,42.44453841000001],[-76.79612817999998,42.44545216],[-76.79667549999999,42.454309550000005],[-76.78631200000001,42.454606669999976],[-76.78632773999999,42.45284579999998],[-76.78406971999999,42.45290352000001],[-76.78413741000003,42.45370847999999],[-76.78324236999998,42.45489758999997],[-76.78355441000002,42.460575310000024],[-76.78408581000002,42.46216995999998],[-76.78214036999998,42.46220475000001],[-76.78221939999997,42.464238739999985],[-76.78980919999998,42.464147490000016],[-76.78989469999999,42.46609453999997],[-76.79344115999999,42.46607189000002],[-76.79367427,42.47024234999998],[-76.79256068000001,42.470273280000015],[-76.79290419,42.47752631999998],[-76.78865002999999,42.47756586999998],[-76.78829761999998,42.47039841999998],[-76.78472283999997,42.47050368999999],[-76.78317818,42.47027112000001],[-76.78065279999998,42.46840120000002],[-76.78240305999998,42.465366080000024],[-76.78085012999998,42.46527771000001],[-76.77778103000003,42.463970029999984],[-76.77787525000002,42.46614335999999],[-76.77628303,42.46615909000002],[-76.77630389000001,42.46751406999999],[-76.77536389,42.46755568999998],[-76.77605064,42.46999907999998],[-76.77696509999998,42.47073231000002],[-76.77834578,42.470692929999984],[-76.77869154000001,42.48188449000003],[-76.77754154000002,42.48181822999999],[-76.77696293999998,42.484871150000004],[-76.77422503999998,42.48493596999998],[-76.77427862000002,42.48734430000002],[-76.77915327,42.48729107999998],[-76.77931454999998,42.49255228999999],[-76.76977156999999,42.49250195000002],[-76.76985788000002,42.49469343999999],[-76.76675129,42.495186090000004],[-76.76341977999999,42.495385399999975],[-76.76329706000001,42.492738480000014],[-76.76152081999999,42.492647139999974],[-76.75844254999998,42.491780319999975],[-76.75855375999998,42.49641197],[-76.76076323000001,42.49609885000001],[-76.76280215999998,42.49635119999999],[-76.76340162000002,42.49731860999998],[-76.76996171000002,42.49750605000003],[-76.76989626,42.49580506000001],[-76.77957912,42.49561618000001],[-76.77967081999998,42.49790942999999],[-76.76998634,42.49816313000002],[-76.77018294999999,42.50351380000001],[-76.76638027000001,42.503600819999974],[-76.76630727999998,42.50257893000003],[-76.76415065999998,42.5026388],[-76.76425656999999,42.50536583000002],[-76.76138282,42.50547757999999],[-76.75764145,42.501910339999995],[-76.75620225,42.502031439999996],[-76.75602865000002,42.496684819999984],[-76.74802782,42.4968657],[-76.74797090999999,42.495479709999984],[-76.74457530000001,42.495558459999984],[-76.74466781000001,42.49690344999999],[-76.74218862999999,42.49691415000001],[-76.74246391000003,42.50106151],[-76.73550735999999,42.50124813999997],[-76.73542859999998,42.50018669000002],[-76.73387909000002,42.500210159999995],[-76.73420838999999,42.50541033000002],[-76.74361264999999,42.50520005999999],[-76.74341811,42.501033459999974],[-76.75040117999998,42.500872990000005],[-76.75066054000001,42.50580400000001],[-76.74687700999999,42.5059473],[-76.75024745000002,42.50806616],[-76.76068006999998,42.50785228000001],[-76.76106718,42.515271369999994],[-76.77086907,42.515024960000005],[-76.77123055999999,42.522397479999995],[-76.77580898999997,42.522392260000004],[-76.77613164000002,42.52484806000001],[-76.77635621000002,42.52940355999999],[-76.7813319,42.529245249999974],[-76.78164224,42.53403134000001],[-76.77469656,42.53430481999999],[-76.77655622999998,42.53581685],[-76.77731229,42.53712894],[-76.77941191000002,42.537136850000024],[-76.77991148000001,42.54462165000001],[-76.78035631,42.544605649999994],[-76.78079026,42.550416429999984],[-76.79229898,42.55009737],[-76.79265634000001,42.55784999000002],[-76.78118078,42.55819107000002],[-76.78128677000001,42.561233200000004],[-76.77386310000003,42.56137092],[-76.7739254,42.56297744],[-76.77892007000003,42.562827930000026],[-76.77899729,42.56355172000002],[-76.78140975999997,42.56350973000002],[-76.78152491999998,42.56544401999997],[-76.76792386,42.56573134000001],[-76.76823581000002,42.57310647000003],[-76.78431101000001,42.572496950000016],[-76.78303326000002,42.57331377999998],[-76.78327078000001,42.57657004999999]]],[[[-76.76042134,42.58687447],[-76.76030473999998,42.58412514999998],[-76.76989024,42.583864800000015],[-76.77085908999999,42.58303035],[-76.77077980000001,42.580780240000024],[-76.77162988999999,42.580785100000014],[-76.77147886,42.577658110000016],[-76.76800251999998,42.57770728000003],[-76.76806275000001,42.57904365000002],[-76.76553089999999,42.57910972000002],[-76.76561046,42.580310699999984],[-76.76254189999997,42.58045705000001],[-76.76194550999998,42.56983986],[-76.75975725,42.56988697000003],[-76.75971338,42.568680959999995],[-76.7552182,42.56879046],[-76.7548817,42.56542757],[-76.75480501999999,42.56114213000001],[-76.76142120999998,42.56092358000001],[-76.76159975000002,42.56319472000001],[-76.76769397999999,42.562956670000005],[-76.7674677,42.558583569999996],[-76.76141788000001,42.55876230000001],[-76.76115942000001,42.55585303999999],[-76.76053129000002,42.545060639999974],[-76.76927838,42.54486286000002],[-76.76900247999998,42.53768074999999],[-76.76764875999999,42.537701690000006],[-76.76743174,42.53277453999999],[-76.76446494999999,42.532856349999975],[-76.76459548999998,42.53472295],[-76.76240911999997,42.53479262000002],[-76.76229089999998,42.53282218999999],[-76.75998370999997,42.532844220000015],[-76.76000834000001,42.53416763000001],[-76.75224943,42.53421896999998],[-76.75206711999999,42.52998477],[-76.74965257999997,42.53006665999999],[-76.74972441,42.53164602999999],[-76.7471486,42.53169430000003],[-76.74708513000002,42.53015540000001],[-76.74623295999999,42.53018641],[-76.74640907999998,42.53380390000001],[-76.74585897999998,42.53478938000001],[-76.74151455999998,42.534517789999995],[-76.74156023,42.537898659999996],[-76.74534763000003,42.53788149000002],[-76.74543942000003,42.54542221000003],[-76.74123426,42.545490719999975],[-76.74127236999999,42.547696410000015],[-76.73484676999999,42.548055120000015],[-76.73491824000001,42.54997664000001],[-76.74152499000002,42.551222740000014],[-76.74164285,42.552423180000005],[-76.74310615000002,42.552387399999986],[-76.74332487999999,42.55540543000001],[-76.74779210000003,42.55530582],[-76.74787454,42.556758960000025],[-76.75238464,42.55672156999998],[-76.75263331000002,42.559009609999976],[-76.75294858000001,42.56548421000002],[-76.75136293000003,42.565539950000016],[-76.75149059,42.56773529999998],[-76.74821706,42.56778529000002],[-76.74837636000001,42.568868039999984],[-76.75082497,42.568830649999995],[-76.75095748000001,42.57203000999999],[-76.74266537,42.57217448],[-76.74318059000001,42.58159527999999],[-76.74613973999999,42.58155024000001],[-76.74615348999998,42.58050092000002],[-76.75425546000002,42.5804086],[-76.75452148,42.587014539999984],[-76.76042134,42.58687447]]],[[[-72.83582309000002,43.56740918999998],[-72.83604180999998,43.570149879999974],[-72.82718469000002,43.570402049999984],[-72.82767185,43.577703910000025],[-72.8213384,43.58441278999999],[-72.82548908000001,43.58728257000001],[-72.83477153000001,43.577440860000024],[-72.84902589000001,43.57686937],[-72.84851076000001,43.57180287],[-72.85147476999998,43.57158091000002],[-72.85476564999999,43.5614784],[-72.85688531,43.557214439999996],[-72.85534775000002,43.55732447999998],[-72.85738884,43.55374673],[-72.85755254999998,43.553040650000014],[-72.85979447,43.552906070000006],[-72.85914881000002,43.54903955999998],[-72.85824622000001,43.54596794999998],[-72.85987942999998,43.54301616999999],[-72.86613260000001,43.54086747000002],[-72.86841849000001,43.540538079999976],[-72.87185149999999,43.540691630000026],[-72.87181635000002,43.539633149999986],[-72.87493884999998,43.53855291000002],[-72.87516161999997,43.53700329999998],[-72.87478449000002,43.535795140000005],[-72.88006583999999,43.53227303],[-72.88414488000001,43.53110182],[-72.88432782000001,43.53591974],[-72.89117793000003,43.535587290000024],[-72.89096999999998,43.532122990000005],[-72.89716231,43.53194884999999],[-72.89694681999998,43.528917250000006],[-72.90678763,43.528431160000025],[-72.90666850999997,43.52652618000002],[-72.91305618000001,43.52622699],[-72.91327976000002,43.523988659999986],[-72.90946971,43.524199829999986],[-72.90945577000002,43.522991579999996],[-72.90124521000001,43.523308480000026],[-72.90120142,43.52579736000001],[-72.89676612,43.52712994000001],[-72.88362508,43.528084680000006],[-72.87725926000002,43.52839779999999],[-72.87761193,43.53107915999999],[-72.87415392999998,43.53128889999999],[-72.87411445999999,43.53266094999998],[-72.87352769,43.53381608000001],[-72.86898395999998,43.53530562999998],[-72.86943724000002,43.53614951999998],[-72.87088652,43.53670969000001],[-72.86975647000003,43.537464399999976],[-72.86531747999999,43.538754100000006],[-72.86537779999998,43.53957731999998],[-72.86083982999997,43.53968619],[-72.85828208999999,43.53994159000001],[-72.85818275000003,43.54079349],[-72.85687712999999,43.54115578],[-72.85447104000002,43.54605667999999],[-72.85548691000002,43.547835710000015],[-72.85549348,43.55125873999998],[-72.85208905000002,43.55717272999999],[-72.85160547999999,43.558682869999984],[-72.84897446999997,43.55951993000002],[-72.84877218999998,43.55617214],[-72.84580584999998,43.555456359999994],[-72.84200506000002,43.556115680000005],[-72.84128433000001,43.55471603000001],[-72.83906578,43.555925],[-72.83470878000003,43.55500128],[-72.83582309000002,43.56740918999998]]],[[[-72.68987943000002,43.68608566],[-72.68862428,43.68664419999999],[-72.68075371999998,43.68419168999998],[-72.67964248999999,43.68299461999999],[-72.68185265,43.67925554999999],[-72.67210477999998,43.676189650000026],[-72.66971835999999,43.67976005999998],[-72.66327865,43.67763837000001],[-72.66124322000002,43.68109609999999],[-72.65113585,43.67953067000002],[-72.64740068999998,43.67671617000002],[-72.64659824,43.675475819999974],[-72.64540104000002,43.67462618000002],[-72.64308971000003,43.67392244000001],[-72.64546658,43.672088299999984],[-72.63981681000001,43.67029471000001],[-72.63997,43.66850767],[-72.64088591000001,43.66696607],[-72.63902146999999,43.666354660000025],[-72.64133036999999,43.66253327999999],[-72.63978093999998,43.662022560000025],[-72.64003779000001,43.66131611999998],[-72.63396459,43.65936116],[-72.63355546000003,43.65813689999999],[-72.62904626,43.65684477000002],[-72.62885432000002,43.657298130000015],[-72.62318954,43.65858964],[-72.61621213000001,43.65903104],[-72.61575850000003,43.65963714999998],[-72.61272284,43.658925950000025],[-72.60501841000001,43.656636830000025],[-72.60436852999999,43.657628250000016],[-72.60302416000002,43.65716508000003],[-72.60235288000001,43.658126649999986],[-72.59931875000001,43.657268380000005],[-72.59791667000002,43.65961557000003],[-72.59310450999999,43.65814517000001],[-72.59342446,43.65735639000002],[-72.58744790999998,43.65582232999998],[-72.58575257000001,43.654682760000014],[-72.58600455999999,43.65262575999998],[-72.58076491999998,43.65097608999997],[-72.57844936999999,43.65495678000002],[-72.57513519999998,43.656203689999984],[-72.57442275,43.654946800000005],[-72.57399185000003,43.65169062000001],[-72.56946359,43.65050070000001],[-72.56810709000001,43.65259015999999],[-72.56751636000001,43.652248629999974],[-72.56525726000001,43.654130599999974],[-72.56833589000001,43.65690374000002],[-72.57658412,43.659234130000016],[-72.57775937999997,43.65729427000002],[-72.57938972,43.658551250000016],[-72.57941696,43.65688620999998],[-72.58242789000002,43.65632729999999],[-72.58371255999998,43.65718242999998],[-72.59568580000001,43.66106881000002],[-72.59981220999998,43.66213268000001],[-72.60036824999997,43.66122253999998],[-72.60364320999997,43.66208548999998],[-72.60474656000002,43.66024964000002],[-72.60667896000001,43.661287619999996],[-72.6134682,43.66283813000001],[-72.61296126000002,43.66359167000002],[-72.61611098999998,43.663814890000026],[-72.61763389999999,43.662150129999986],[-72.62535810999998,43.664635859999976],[-72.62433737999999,43.66155866999998],[-72.62445173999998,43.660090249999996],[-72.6294446,43.65887821000001],[-72.63084416999999,43.65929894999999],[-72.63116195999999,43.660075319999976],[-72.63288975,43.66034079999997],[-72.63566567999999,43.66363222000001],[-72.63339867000002,43.66920934000001],[-72.63552391000002,43.66898019000001],[-72.63715551000001,43.670612319999975],[-72.63948374,43.6768922],[-72.63957094,43.678571799999986],[-72.63898955000002,43.68039146000001],[-72.64032484,43.68061863999998],[-72.64090558999999,43.678865229999985],[-72.66304903999998,43.685012770000014],[-72.67041590000002,43.68716660000001],[-72.67232492,43.69003889999999],[-72.67701536999999,43.691436220000014],[-72.67779794,43.689312700000016],[-72.68634300000002,43.69170981000002],[-72.68987943000002,43.68608566]]],[[[-72.83254865999999,43.63615050999999],[-72.84095933999998,43.63926941],[-72.84797567999999,43.644048759999976],[-72.84864184000003,43.64524524000001],[-72.85425968999999,43.649071649999996],[-72.85206172,43.65349563000001],[-72.85259482999999,43.653635339999994],[-72.85566258,43.64734143999999],[-72.86241488000002,43.63375530000002],[-72.83511081,43.62624982],[-72.84011743000002,43.616206550000015],[-72.82083253000002,43.61054528],[-72.8274356,43.63190048000001],[-72.82772157,43.63436051000002],[-72.83254865999999,43.63615050999999]]],[[[-71.71080676000003,44.562469050000004],[-71.70626411,44.548604669999975],[-71.71558081,44.54341681],[-71.70709505999997,44.53884206999999],[-71.68647739,44.558406649999995],[-71.69589719999999,44.563196430000005],[-71.69182078,44.56706213000001],[-71.68240285000002,44.56227117999998],[-71.67475217999998,44.569525750000025],[-71.68417011000003,44.57431742],[-71.68824977000003,44.57044893],[-71.69746028999998,44.575131279999994],[-71.71080676000003,44.562469050000004]],[[-71.70336232,44.5601312],[-71.70306779999999,44.56224178000002],[-71.70073715000001,44.563955899999996],[-71.69922377,44.56363883],[-71.69947918000003,44.56132435000001],[-71.70167156999997,44.55958991],[-71.70336232,44.5601312]]],[[[-72.43304762000002,43.71154865],[-72.43914536,43.70176545999999],[-72.44033374999998,43.702032729999985],[-72.44420233,43.70613370000001],[-72.44709774,43.7080421],[-72.44655455999998,43.708908010000016],[-72.45272017000002,43.710681739999984],[-72.45231705999998,43.70949866000001],[-72.45688092,43.70723965000002],[-72.45951552999998,43.70795866999998],[-72.46094529999999,43.70590167],[-72.46261042999998,43.70552292000002],[-72.46266599,43.706496990000005],[-72.46430072999999,43.706991440000024],[-72.46665413,43.705899690000024],[-72.46829220000001,43.70744543000001],[-72.46891205999998,43.70631197],[-72.46837311000002,43.70556391000002],[-72.4738188,43.70700627000002],[-72.47576649000001,43.706658989999994],[-72.47504638999999,43.70418160999998],[-72.47357697000001,43.70061177000002],[-72.47510869000001,43.69869358],[-72.48303723999999,43.70117148999998],[-72.48299831000003,43.702909439999985],[-72.48636407999999,43.69747966],[-72.48044578000003,43.69536233000002],[-72.47964180000002,43.69308867000001],[-72.48045279000002,43.691858120000006],[-72.48593525000001,43.687636329999975],[-72.49454012000001,43.68854252],[-72.50018062999999,43.686895100000015],[-72.49918875999998,43.68563605000003],[-72.49526076000001,43.6868978],[-72.48693485000001,43.68622885000002],[-72.48203171,43.68487927000001],[-72.47898643000002,43.68940681999999],[-72.47759613,43.68907931000001],[-72.47488421000003,43.69333401],[-72.47363612999999,43.693008840000005],[-72.46515037,43.700757409999994],[-72.46419257999997,43.70186074999998],[-72.46210492,43.700969120000025],[-72.46099887999998,43.70210285000002],[-72.45856412,43.701626920000024],[-72.45805060999999,43.703015789999995],[-72.45473608999998,43.702299289999985],[-72.45287822,43.70511441000002],[-72.45103112999999,43.70544668000002],[-72.45004096999998,43.70646758999999],[-72.44845055000002,43.705778150000015],[-72.44439677999998,43.70466204000002],[-72.44282254000001,43.702779350000014],[-72.44172091000002,43.70012675999999],[-72.44001308000003,43.699022430000014],[-72.43672623999998,43.69912231000001],[-72.43120952999999,43.70720835999998],[-72.42977904000003,43.71037572],[-72.42350159,43.709237770000016],[-72.42282294,43.71019251000001],[-72.42607380999999,43.71213641000003],[-72.42765200999997,43.71180872999997],[-72.42999606000001,43.71278090999999],[-72.43218701,43.71132911000001],[-72.43304762000002,43.71154865]]],[[[-76.82140931999999,42.599784650000004],[-76.82130711000002,42.59793567999998],[-76.82219738999999,42.59791249],[-76.82210955,42.594951089999995],[-76.82328329,42.596539889999974],[-76.82376442999998,42.5990357],[-76.82523547,42.59966337999998],[-76.82799297000003,42.59957168],[-76.82787313,42.59816878999999],[-76.82988841999997,42.598114039999984],[-76.83132097999999,42.59876204],[-76.83319243,42.598673580000025],[-76.83336099000002,42.592367190000004],[-76.83607947000002,42.59232358000003],[-76.83605889,42.59162155000001],[-76.83335982,42.59165122000002],[-76.8332772,42.59018467999999],[-76.83090635999997,42.589884960000006],[-76.82779258,42.58997971000002],[-76.82777496,42.58937666000003],[-76.83092713000002,42.58924072999997],[-76.83090132000001,42.58680067],[-76.82394118000002,42.58697022000001],[-76.82382925000002,42.585378090000006],[-76.81787068,42.58554485000002],[-76.81762750000001,42.57964120999998],[-76.81662475000002,42.579661620000024],[-76.81671358,42.58092542999998],[-76.81426524,42.580761629999984],[-76.80561964999998,42.58102881999997],[-76.80583810000002,42.585838739999986],[-76.80976592000002,42.58575873000001],[-76.80997116999998,42.59149640999999],[-76.81099413999999,42.59150728999998],[-76.81108224000002,42.59272156999998],[-76.81295989,42.59269189999998],[-76.81307748,42.59455417999999],[-76.81213371000001,42.59462314000001],[-76.81250689000001,42.60002036999998],[-76.82140931999999,42.599784650000004]]],[[[-72.37812932999998,43.729002279999975],[-72.38011963000002,43.72951948000002],[-72.38070038000001,43.72891579999998],[-72.38599567,43.72618877000002],[-72.38899815000002,43.72700622999997],[-72.39188637000001,43.72387304],[-72.39077816999998,43.72138056],[-72.39200161999997,43.72036315999998],[-72.39580870999998,43.71799771000002],[-72.40770903999999,43.72110699000001],[-72.41249441999997,43.720562289999975],[-72.41213068000002,43.71870998999998],[-72.40964359999998,43.719002079999996],[-72.40028078,43.71660426],[-72.39523434,43.71486379999999],[-72.39465519999999,43.715858630000014],[-72.39320412000001,43.71522042999999],[-72.39221397,43.71721117999999],[-72.38969595999998,43.71979427000002],[-72.38951309999999,43.72032244000002],[-72.38656914,43.723003259999984],[-72.37876322,43.72682121999998],[-72.37412032999998,43.72603405000001],[-72.37465685000001,43.72318646999997],[-72.37236306,43.722674849999976],[-72.37133136,43.725238890000014],[-72.37178617000001,43.725869810000006],[-72.36562630999998,43.72408988000001],[-72.36712458,43.722508360000006],[-72.36324765,43.72139692000002],[-72.36469540000002,43.72016690999999],[-72.36318669000002,43.71922215000001],[-72.36086061999998,43.71650618000001],[-72.35891626,43.71516747999999],[-72.35773218999998,43.71474846000001],[-72.35518101000002,43.714728320000006],[-72.35252114000002,43.71319758999999],[-72.35100381000001,43.714754570000025],[-72.34650764000003,43.713167569999996],[-72.34481256999999,43.71470808999999],[-72.34644354,43.71519219999999],[-72.34619613000001,43.71625060000002],[-72.35405348,43.71836549],[-72.34955830000001,43.723056929999984],[-72.35195170999998,43.72351542000001],[-72.35428228,43.72284108000002],[-72.35525139999999,43.72369162000001],[-72.35753557999999,43.724416659999974],[-72.36041075999998,43.72439050000003],[-72.36406564999999,43.72564308],[-72.37018549999999,43.72747982999999],[-72.37634644000002,43.72853938999998],[-72.37812932999998,43.729002279999975]]],[[[-72.5439657,43.68534054999998],[-72.54254834,43.68751666999998],[-72.54333901000001,43.688547640000024],[-72.54547044999998,43.68909144999998],[-72.54494031000002,43.687084070000026],[-72.54528579999999,43.68621949999999],[-72.54420367,43.68522710000002],[-72.54527429000001,43.68335060999999],[-72.53941694000002,43.68178222],[-72.54090352999998,43.67923958],[-72.53962856999999,43.67888312000002],[-72.54042651999998,43.677678370000024],[-72.54009964,43.67624824000001],[-72.54122861000002,43.67525152000002],[-72.54267392999998,43.675502610000024],[-72.54517593999998,43.67518338000002],[-72.54660256,43.67791570999998],[-72.54826562,43.678008490000025],[-72.54878551000002,43.67967981999999],[-72.55256068,43.680978960000004],[-72.55296738999999,43.679799109999976],[-72.55294977,43.677034330000026],[-72.55376795000001,43.67625165999999],[-72.55498627999998,43.676555699999994],[-72.5560453,43.67438102],[-72.55321174,43.67350935000002],[-72.55415983,43.67205683999998],[-72.55134649000001,43.67100221999999],[-72.55054342,43.67222889999999],[-72.5456552,43.67145846],[-72.54419854999998,43.672461209999994],[-72.54457595000002,43.673953729999994],[-72.54212608,43.67410251000001],[-72.53993648,43.673938710000016],[-72.53717420999999,43.67818612999997],[-72.53556041000002,43.68132731999998],[-72.53537170999999,43.68349606999999],[-72.53220562000001,43.681409040000005],[-72.52737825999998,43.68010674999999],[-72.52685243000002,43.68019466999999],[-72.52338031,43.677347629999986],[-72.51847249000002,43.67601683999999],[-72.51601058,43.67791490000002],[-72.51327995999998,43.67966641999999],[-72.51141569999999,43.682945700000005],[-72.51047075999998,43.68290714],[-72.50966616,43.685424609999984],[-72.50804112999998,43.68613023],[-72.50044493000001,43.68611720000001],[-72.50064307000002,43.68717397],[-72.50305168,43.68792859000001],[-72.50391364000001,43.68725784999998],[-72.50677659000002,43.68794962999999],[-72.50885598000002,43.68733013000002],[-72.50930818,43.686202330000015],[-72.51277490000001,43.68660589000001],[-72.51477112999999,43.68364072000003],[-72.51368478,43.68236423000002],[-72.51355118999999,43.68116469],[-72.51454376999999,43.67971173000001],[-72.51680601999999,43.678567569999984],[-72.51783284999999,43.67915022],[-72.51909883000002,43.67755070999999],[-72.52224056,43.67829518000002],[-72.52204727999998,43.67970201999998],[-72.52594237,43.68100215999999],[-72.52990445,43.683294339999975],[-72.53212057000002,43.68677580000002],[-72.5342379,43.68668527],[-72.53390041,43.68544277000001],[-72.53942619999998,43.68580785],[-72.54018343000001,43.68450941999998],[-72.5439657,43.68534054999998]]],[[[-71.72435496000003,44.560585909999986],[-71.71682249999998,44.55675805999999],[-71.72526762000001,44.54874087000002],[-71.71620875999997,44.543761940000024],[-71.70712598,44.54882070000002],[-71.71140936,44.56189710000001],[-71.71275065999998,44.56062412],[-71.72028176999999,44.564452870000025],[-71.72435496000003,44.560585909999986]]],[[[-76.84109167000003,42.58498487000003],[-76.84061114999997,42.57557745999998],[-76.83979495,42.574807109999995],[-76.83529365999999,42.574640699999975],[-76.83584869999999,42.57136735],[-76.83418906000003,42.57139396000002],[-76.83414456000003,42.57065625000001],[-76.84031205999997,42.57043123],[-76.83997466,42.564524619999986],[-76.83332278,42.564761859999976],[-76.83365873999998,42.57065498999998],[-76.82899651999998,42.570824089999974],[-76.82851520000003,42.563627499999996],[-76.83012781999997,42.56357473000003],[-76.82967553999998,42.55673783999998],[-76.82861328000001,42.556768309999995],[-76.82872708999997,42.558603619999985],[-76.82657461999997,42.55865145000001],[-76.82706160999999,42.57089996000002],[-76.82816809000002,42.57086435999997],[-76.828598,42.57805725999998],[-76.83459557999998,42.577898319999974],[-76.83496471000001,42.58510568999998],[-76.84109167000003,42.58498487000003]]],[[[-76.83575853000002,42.54817091000001],[-76.83572527000001,42.54640194000001],[-76.83879436000001,42.54603749],[-76.84656946000001,42.54584491999998],[-76.84654761000002,42.54463856000001],[-76.84822028999997,42.54278347000002],[-76.83501029000001,42.54318496000002],[-76.83478473000002,42.53826257999998],[-76.82927045000002,42.53835975999999],[-76.82918271,42.53689330999998],[-76.82334873999997,42.53703580000001],[-76.82326962000002,42.535924910000006],[-76.81754371,42.53607216],[-76.81787453999999,42.541634550000026],[-76.81976478000001,42.54152801999999],[-76.81985198000001,42.54354833999997],[-76.82591313,42.54340683999999],[-76.82601147999998,42.546782310000026],[-76.83224173000002,42.54659729999997],[-76.83232705,42.54823941000001],[-76.83575853000002,42.54817091000001]]],[[[-72.74203913999997,43.68974916000002],[-72.74666511999999,43.69091695999998],[-72.74441286000001,43.694983760000014],[-72.75115868,43.69298798],[-72.75514960999999,43.69604153],[-72.77251325999998,43.68893573999998],[-72.77465639000002,43.68511301000001],[-72.77252593999998,43.684539359999974],[-72.77280920999999,43.68238545000003],[-72.77672453999998,43.68038462999999],[-72.77678746999999,43.67998196999997],[-72.78266862999999,43.68171289999998],[-72.78205695000003,43.68046436999998],[-72.78203366999998,43.67903415000001],[-72.78122322000002,43.67819565999997],[-72.77670638000001,43.67811888],[-72.77402088000002,43.67917476000002],[-72.76983981000001,43.68130817000002],[-72.76906774999998,43.68718808],[-72.75587761999998,43.692590800000005],[-72.74933370999997,43.687587510000014],[-72.74203913999997,43.68974916000002]]],[[[-76.85179965999998,42.44494872000001],[-76.85158066000002,42.44133204000002],[-76.85524427000001,42.441232249999985],[-76.85432863,42.43949556000001],[-76.85060659999999,42.43961872],[-76.85072886,42.441345790000014],[-76.84427395,42.44155796000001],[-76.84391839,42.436209899999994],[-76.84116566,42.436267610000016],[-76.84097560999999,42.43451464999998],[-76.84379540999998,42.434361190000004],[-76.84362900999997,42.43186035000002],[-76.83446047000001,42.43221007],[-76.83433829,42.431379030000016],[-76.83031275000002,42.431465960000025],[-76.83066389999999,42.43478335999998],[-76.83460529000001,42.43472484],[-76.83550384,42.43837117999999],[-76.83858643000002,42.43825872000002],[-76.83900024000002,42.444767660000025],[-76.84447442999999,42.44457159000001],[-76.84440547000003,42.44352802999998],[-76.84769123000001,42.443430120000016],[-76.84785296000001,42.44506647999998],[-76.85179965999998,42.44494872000001]]],[[[-72.56325437999999,43.66771133999998],[-72.56570693999998,43.66826143999998],[-72.56602033000001,43.66750466000002],[-72.56227275999998,43.66498754999998],[-72.56493416,43.660955890000025],[-72.56423231000002,43.660753709999994],[-72.56630379,43.6574693],[-72.56465960999998,43.65571040999998],[-72.56580322000002,43.65501017999998],[-72.56508852000002,43.654271110000025],[-72.56326876000003,43.65520013999998],[-72.56256215000002,43.65446960999998],[-72.55948640000003,43.65940870999998],[-72.55846666000002,43.66176643],[-72.55993454999998,43.66198965000001],[-72.56048141000002,43.66291185],[-72.56009978999998,43.665692809999996],[-72.55845417,43.66682509999998],[-72.55231093999998,43.66607911],[-72.55255456999998,43.66823087],[-72.55234933000003,43.670991070000014],[-72.55603100000002,43.67292113000002],[-72.55702521,43.67207302000003],[-72.55956434000001,43.67284246999998],[-72.56199497,43.669875950000005],[-72.56325437999999,43.66771133999998]]],[[[-72.34252884,43.714144239999996],[-72.34468113999998,43.714549420000026],[-72.34647346999998,43.71289318999999],[-72.34648148000002,43.71233159000002],[-72.34468464000003,43.71035468000002],[-72.34476726000003,43.708975169999974],[-72.34318366999997,43.70973787999998],[-72.34176964,43.71120136000002],[-72.33521341,43.70665233],[-72.32883797,43.70502991000001],[-72.32307952000002,43.71109518999998],[-72.32455037,43.71253881000001],[-72.32885496,43.707907250000005],[-72.33302336000003,43.708943250000004],[-72.33257808000002,43.71150908999999],[-72.34016968999998,43.71369824999999],[-72.34252884,43.714144239999996]]],[[[-74.5975138,40.938044779999984],[-74.59719603000002,40.939158099999986],[-74.59999771999998,40.93881166],[-74.60500404999999,40.93151517000001],[-74.60210841999998,40.92940963000001],[-74.60068438000002,40.92893227000002],[-74.5991459,40.93040635],[-74.59506224,40.93340859],[-74.59207225,40.93689109000002],[-74.59548258000001,40.935925080000004],[-74.5975138,40.938044779999984]]],[[[-72.91893248999997,43.526454890000025],[-72.91891613000001,43.52755301000002],[-72.92670174,43.52711142999999],[-72.92660788,43.526017249999995],[-72.92992923999998,43.52595746999998],[-72.92976598000001,43.52370350000001],[-72.92892281000002,43.522764310000014],[-72.92432001999998,43.52136214000001],[-72.92322727999999,43.52203072999998],[-72.92098831999999,43.52407784000002],[-72.91873354,43.52419236999998],[-72.91343986999999,43.52399260999999],[-72.91324254,43.526232110000024],[-72.91651364,43.526564740000026],[-72.91893248999997,43.526454890000025]]],[[[-76.77299277999998,42.60932907],[-76.77285963999998,42.60714727999999],[-76.77818602999997,42.60670003000001],[-76.77809092000001,42.60552630000001],[-76.77478681999997,42.60568110999998],[-76.77458886,42.60331124999999],[-76.77169031,42.60339216],[-76.77155464999998,42.60122845000001],[-76.76764057999998,42.601347480000015],[-76.76766117,42.60207656],[-76.76585067000002,42.602212580000014],[-76.76491338,42.60333921],[-76.76642163000002,42.60474326999997],[-76.76654803000002,42.607073749999984],[-76.77024399999999,42.60701666],[-76.77034468,42.60941501000002],[-76.77299277999998,42.60932907]]],[[[-76.81390923999999,42.57134767000002],[-76.81376476999998,42.571354499999984],[-76.81425328,42.57964067],[-76.81573735,42.57984232000001],[-76.81751261,42.57879201999998],[-76.81748635999998,42.57821611999998],[-76.82113027000003,42.57811767999999],[-76.82068563000001,42.57106907000002],[-76.81390923999999,42.57134767000002]]],[[[-76.87876777000002,42.55144505999999],[-76.87420714000001,42.551636729999984],[-76.87421576999998,42.552384070000016],[-76.86808693,42.552601270000025],[-76.86695113000002,42.554745019999984],[-76.87255657999998,42.55458599000002],[-76.87238703000003,42.556425880000006],[-76.88036511000001,42.55674097999997],[-76.88109133,42.55316736999998],[-76.88161355,42.55219079],[-76.88125167999999,42.55134406000002],[-76.87876777000002,42.55144505999999]]],[[[-76.80036823,42.58594734000002],[-76.80027553999997,42.581851400000005],[-76.79728439000002,42.58192088999999],[-76.79718360999999,42.579963770000006],[-76.79206425000001,42.58004846],[-76.79232982000002,42.58611392],[-76.80036823,42.58594734000002]]],[[[-76.87876777000002,42.55144505999999],[-76.88105887,42.55042578000001],[-76.88109401999998,42.54567942],[-76.87190650999997,42.54582542000003],[-76.87062381999999,42.54806617000003],[-76.87040913999999,42.54954206000002],[-76.87717780000003,42.54930976000003],[-76.87732199999999,42.551392109999995],[-76.87876777000002,42.55144505999999]]],[[[-72.74203913999997,43.68974916000002],[-72.73441417999999,43.692009600000006],[-72.73049112000001,43.690847280000014],[-72.72492667,43.691567469999995],[-72.72649795000001,43.692034139999976],[-72.72589669000001,43.693037609999976],[-72.72882014999999,43.692607169999974],[-72.73978605999997,43.695338419999985],[-72.74203913999997,43.68974916000002]]],[[[-76.85196651000001,42.537851020000005],[-76.85251445,42.53904434999998],[-76.85179337,42.539934089999974],[-76.84991401000002,42.54000493000001],[-76.85004751000002,42.542735909999976],[-76.85582187,42.54257948999998],[-76.85552062,42.535019799999986],[-76.85285013999999,42.53603566999999],[-76.85196651000001,42.537851020000005]]],[[[-76.80219985000002,42.57495454000002],[-76.80136270000003,42.574999219999995],[-76.80207372000001,42.57708176],[-76.80787928000001,42.576891260000025],[-76.80780564999998,42.575753220000024],[-76.80917762000001,42.57572705000001],[-76.80937819000002,42.574156949999974],[-76.80540721,42.574287130000016],[-76.80338454999998,42.57396779999999],[-76.80331820999999,42.57227588000001],[-76.8011616,42.57185048000002],[-76.80131074000002,42.57425260000002],[-76.80219985000002,42.57495454000002]]],[[[-76.83507125,42.55994294999999],[-76.83311043999998,42.560032939999985],[-76.83338516999999,42.56343709999999],[-76.83990697000002,42.56320641000002],[-76.83968400999998,42.55973842999998],[-76.83507125,42.55994294999999]]],[[[-72.72310305000002,43.75933985],[-72.72308148000002,43.76103175999998],[-72.72070739999998,43.76322055999998],[-72.72239041,43.763700089999986],[-72.72378647,43.76182918000001],[-72.72399324000003,43.759943969999995],[-72.72478643,43.75932304000003],[-72.72987260999997,43.75984589000001],[-72.73254668999999,43.761418419999984],[-72.73337214999998,43.760241450000024],[-72.73591704,43.76039122999998],[-72.73655892,43.75931502999998],[-72.73359016,43.7590189],[-72.73003083999998,43.759126149999986],[-72.72724115,43.75874793999998],[-72.72367949,43.75907024000003],[-72.72310305000002,43.75933985]]],[[[-76.77259407000003,42.54478463999999],[-76.77084273000003,42.545325030000015],[-76.77108726,42.54919352000002],[-76.77364607999999,42.549140480000005],[-76.77335939,42.54476828000003],[-76.77259407000003,42.54478463999999]]],[[[-72.85272042000003,43.66747355000001],[-72.85497286999998,43.66683266000001],[-72.84705797999999,43.66467425000002],[-72.84668903,43.66538409999998],[-72.84932156999997,43.66609871000003],[-72.85272042000003,43.66747355000001]]],[[[-72.92891103,43.51640613000001],[-72.92590523000001,43.516496389999986],[-72.92550435999999,43.51756664999999],[-72.92829368999998,43.51787681000002],[-72.92891103,43.51640613000001]]],[[[-73.14303619999998,43.994038810000006],[-73.14205755,43.994584859999975],[-73.14201933999999,43.99559210000001],[-73.14403435999998,43.99566204000001],[-73.14303619999998,43.994038810000006]]]]},"properties":{"ADMINFORES":"99092000010343","REGION":"09","FORESTNUMB":"20","FORESTORGC":"0920","FORESTNAME":"Green Mountain and Finger Lakes National Forests","GIS_ACRES":854081.411,"SHAPE_AREA":0.383376674717,"SHAPE_LEN":9.65160513163}}
]}