{"type":"FeatureCollection", "features": [
{"type":"Feature","geometry":{"type":"Polygon","coordinates":[[[-71.7275245,43.5634359],[-71.7290668,43.5608469],[-71.7222005,43.5529583],[-71.7156082,43.5512417],[-71.710344,43.5448484],[-71.7088487,43.5396756],[-71.6886604,43.5292692],[-71.6874858,43.5248366],[-71.6914529,43.5161393],[-71.6847999,43.510753],[-71.6803135,43.5058931],[-71.6782231,43.5015291],[-71.6701663,43.4970888],[-71.6642152,43.4961658],[-71.6548614,43.492],[-71.6535048,43.4877964],[-71.6379236,43.4921481],[-71.6302568,43.4772127],[-71.6284258,43.4777046],[-71.6237477,43.4698134],[-71.628811,43.468405],[-71.624555,43.4596285],[-71.6276873,43.4587609],[-71.619575,43.443975],[-71.616057,43.4436049],[-71.6109876,43.4407066],[-71.6030868,43.4399606],[-71.6009659,43.4349253],[-71.5958388,43.4376871],[-71.5953864,43.441695],[-71.593055,43.4431823],[-71.587813,43.4415634],[-71.5850712,43.4443961],[-71.5807933,43.4441719],[-71.5752998,43.4465448],[-71.5692388,43.4524524],[-71.5629441,43.4514432],[-71.5589444,43.4553531],[-71.5470795,43.4526691],[-71.5118196,43.4329236],[-71.3939921,43.3702087],[-71.3488069,43.3464517],[-71.3053036,43.3228761],[-71.2352009,43.2844356],[-71.2075857,43.3081699],[-71.1912917,43.3258867],[-71.1589375,43.3553249],[-71.1647417,43.3761137],[-71.1672842,43.389958],[-71.1764271,43.434744],[-71.1839663,43.4756566],[-71.1915731,43.514576],[-71.1628153,43.5389467],[-71.1995947,43.5594091],[-71.2041305,43.5532097],[-71.2089482,43.5513532],[-71.2275378,43.5653695],[-71.2585125,43.5710398],[-71.2608861,43.5719933],[-71.331162,43.619961],[-71.336767,43.622435],[-71.3385364,43.6253103],[-71.4607357,43.709964],[-71.4755056,43.7210753],[-71.5151729,43.7498099],[-71.5316571,43.7609791],[-71.5214044,43.6978004],[-71.5814032,43.6919491],[-71.6477905,43.6862089],[-71.6512146,43.6802153],[-71.6488187,43.6732497],[-71.6505581,43.6667113],[-71.6549987,43.6617523],[-71.6541747,43.6535889],[-71.6507414,43.6450518],[-71.6536711,43.641199],[-71.6521299,43.6370257],[-71.6569365,43.6315937],[-71.6511532,43.6211185],[-71.6650544,43.6135732],[-71.6630402,43.608042],[-71.6638337,43.6047003],[-71.6704104,43.6045706],[-71.6812753,43.5981391],[-71.688096,43.5949501],[-71.6986399,43.5942939],[-71.7037214,43.5947212],[-71.7077043,43.6010229],[-71.7136096,43.6004661],[-71.7197438,43.5952781],[-71.728121,43.5949042],[-71.7317153,43.5898795],[-71.7306234,43.5874886],[-71.7245194,43.5859468],[-71.7158962,43.5791874],[-71.718538,43.573649],[-71.7248098,43.5705897],[-71.7242144,43.5663706],[-71.7275245,43.5634359]]]},"properties":{"State":"New Hampshire","County":"Belknap","id":"43126078","long_name":"new-hampshire-belknap-county","long_county":"Belknap County","normalized":"Y"}},
{"type":"Feature","geometry":{"type":"Polygon","coordinates":[[[-71.1628153,43.5389467],[-71.1532693,43.5471436],[-71.1277195,43.5729888],[-71.1203354,43.543291],[-71.1126654,43.5110986],[-71.104739,43.5182065],[-71.1028332,43.5100022],[-71.0958854,43.5158197],[-71.0944566,43.5081453],[-71.0891078,43.5127316],[-71.087276,43.5036051],[-71.0609646,43.5282655],[-71.0588974,43.5211073],[-71.0530465,43.5269291],[-71.0511781,43.5215459],[-71.0446739,43.5282294],[-71.0424569,43.520854],[-71.0369219,43.5266456],[-71.0241709,43.4821886],[-71.0182706,43.4881649],[-70.9812272,43.5244359],[-70.9684859,43.5363927],[-70.9622655,43.5412287],[-70.9541969,43.541852],[-70.9506485,43.5513922],[-70.954967,43.5541938],[-70.9555927,43.5588858],[-70.9577137,43.561617],[-70.9634056,43.563982],[-70.9665793,43.5692921],[-70.9727416,43.570138],[-70.975157,43.61441],[-70.9793361,43.6732187],[-70.9818158,43.6995097],[-70.9829864,43.7282921],[-70.9851658,43.7557946],[-70.9870917,43.770873],[-70.989122,43.792113],[-70.9898343,43.8219748],[-70.9901847,43.8463812],[-70.991162,43.8626468],[-70.9924891,43.8950105],[-70.9924284,43.9062026],[-70.9947779,43.9603248],[-70.9959222,43.9789482],[-70.9967464,44.0010044],[-70.9978448,44.0216264],[-70.9981662,44.0352371],[-71.0020718,44.1073646],[-71.0030333,44.1320151],[-71.0047272,44.1641499],[-71.0057493,44.2026318],[-71.0073517,44.2256421],[-71.0094114,44.2672144],[-71.0099283,44.2847961],[-71.0444719,44.2837051],[-71.0437547,44.2749071],[-71.042129,44.2749413],[-71.04258,44.262865],[-71.0427013,44.2377334],[-71.067451,44.2377334],[-71.0975024,44.2353501],[-71.243204,44.243873],[-71.2523694,44.2442189],[-71.3060108,44.137211],[-71.3027339,44.1371889],[-71.3077227,44.1125767],[-71.3118878,44.0917305],[-71.3237393,44.0915089],[-71.33588,44.085768],[-71.3435645,44.0922766],[-71.3431327,44.1222491],[-71.357468,44.1660236],[-71.3737405,44.1738167],[-71.384239,44.178844],[-71.3884474,44.193037],[-71.394874,44.214679],[-71.415902,44.212169],[-71.426507,44.210903],[-71.4128457,44.1663953],[-71.387466,44.1554852],[-71.385153,44.148357],[-71.3943744,44.1471508],[-71.39405,44.145725],[-71.384741,44.146976],[-71.3762025,44.1195351],[-71.3765078,44.1040064],[-71.3818004,44.0979034],[-71.366686,44.0690244],[-71.3468649,44.0690062],[-71.3826005,44.0225265],[-71.3785089,44.0013974],[-71.3613088,43.9156105],[-71.5646019,43.8931132],[-71.5436335,43.7961972],[-71.5379235,43.7965743],[-71.5316571,43.7609791],[-71.5151729,43.7498099],[-71.4755056,43.7210753],[-71.4607357,43.709964],[-71.3385364,43.6253103],[-71.336767,43.622435],[-71.331162,43.619961],[-71.2608861,43.5719933],[-71.2585125,43.5710398],[-71.2275378,43.5653695],[-71.2089482,43.5513532],[-71.2041305,43.5532097],[-71.1995947,43.5594091],[-71.1628153,43.5389467]]]},"properties":{"State":"New Hampshire","County":"Carroll","id":"2023981","long_name":"new-hampshire-carroll-county","long_county":"Carroll County","normalized":"Y"}},
{"type":"Feature","geometry":{"type":"Polygon","coordinates":[[[-72.4517579,43.1613143],[-72.4522478,43.1528787],[-72.4573918,43.147468],[-72.4530585,43.1394681],[-72.4472037,43.1369134],[-72.441048,43.1367289],[-72.4403059,43.1342857],[-72.4421796,43.1294322],[-72.4328402,43.1194093],[-72.432487,43.1154553],[-72.4341187,43.1101875],[-72.4418144,43.1058436],[-72.4435028,43.1019941],[-72.44211,43.0982417],[-72.4389752,43.0948147],[-72.4382086,43.0899477],[-72.4336611,43.0857607],[-72.4368295,43.0796034],[-72.4461422,43.0705101],[-72.4503954,43.0685262],[-72.4554877,43.0626218],[-72.4618849,43.058977],[-72.4678975,43.0527381],[-72.4672414,43.0488475],[-72.4615983,43.0432249],[-72.4606662,43.0409024],[-72.462855,43.0257584],[-72.4580582,43.0182442],[-72.4437769,43.0099338],[-72.4440781,43.0052668],[-72.446418,43.0024659],[-72.4513118,43.0000505],[-72.4559105,43.0012254],[-72.4597239,43.0004649],[-72.4630522,42.9968545],[-72.4655787,42.9900108],[-72.4621497,42.9822703],[-72.4658535,42.9783718],[-72.4759023,42.9714699],[-72.4818897,42.9738468],[-72.4872347,42.9716139],[-72.4921369,42.9677223],[-72.5027746,42.9661922],[-72.5066337,42.9644325],[-72.5184895,42.9630968],[-72.5249889,42.9585996],[-72.5322719,42.9547865],[-72.534563,42.9498538],[-72.5318379,42.9466898],[-72.5281754,42.9450796],[-72.5263459,42.9354761],[-72.527064,42.9281639],[-72.5242891,42.9186524],[-72.5245695,42.9153794],[-72.5294594,42.912465],[-72.5315463,42.9072241],[-72.5309859,42.8990767],[-72.531754,42.8966416],[-72.5405629,42.8894411],[-72.5506028,42.8862399],[-72.5523927,42.8834433],[-72.5551893,42.8749857],[-72.5553948,42.8667368],[-72.5541268,42.8607961],[-72.557057,42.8527649],[-72.5524527,42.8457183],[-72.5471456,42.8400114],[-72.5466726,42.8260049],[-72.5423498,42.8158893],[-72.5426304,42.8117161],[-72.540806,42.8065754],[-72.5183636,42.789606],[-72.5123298,42.7844543],[-72.5089595,42.7800558],[-72.5087934,42.7761983],[-72.5138336,42.7732938],[-72.5165283,42.7684128],[-72.5149542,42.7651313],[-72.5107084,42.7638139],[-72.5011802,42.7673128],[-72.4967433,42.7735534],[-72.4912499,42.7727202],[-72.4855774,42.7663597],[-72.4799088,42.7634796],[-72.4765995,42.7600945],[-72.4726887,42.7453093],[-72.467689,42.7415005],[-72.4633234,42.7365431],[-72.4590559,42.7298502],[-72.4584471,42.72696],[-72.4120392,42.7253616],[-72.3262116,42.7227919],[-72.2830393,42.7215898],[-72.2037068,42.7197134],[-72.0786988,42.7164015],[-71.981431,42.7132286],[-71.9288611,42.7121558],[-71.940972,42.775624],[-71.944283,42.78841],[-71.97471,42.789402],[-71.984583,42.835453],[-71.986429,42.845172],[-71.995004,42.884486],[-72.001215,42.919444],[-72.00619,42.943789],[-72.062222,42.944796],[-72.06126,42.965807],[-72.057949,43.018922],[-72.041972,43.082238],[-72.043499,43.081993],[-72.034083,43.128746],[-72.038173,43.128799],[-72.123152,43.129715],[-72.178497,43.131866],[-72.173202,43.148956],[-72.1565438,43.1819569],[-72.186218,43.178436],[-72.262483,43.169952],[-72.332142,43.162841],[-72.330326,43.155166],[-72.376424,43.15773],[-72.372045,43.132118],[-72.431632,43.135635],[-72.43209,43.15982],[-72.4517579,43.1613143]]]},"properties":{"State":"New Hampshire","County":"Cheshire","id":null,"long_name":"new-hampshire-cheshire-county","long_county":"Cheshire County","normalized":"Y"}},
{"type":"Feature","geometry":{"type":"Polygon","coordinates":[[[-71.3737405,44.1738167],[-71.3657858,44.1816006],[-71.3683117,44.1921966],[-71.3656595,44.1951849],[-71.3599761,44.2067744],[-71.3561871,44.2102146],[-71.3566923,44.2197193],[-71.3386242,44.2388991],[-71.330254,44.2428667],[-71.3296456,44.2447602],[-71.3116014,44.2380523],[-71.2899217,44.2415098],[-71.2922694,44.2331648],[-71.29605,44.2266279],[-71.3007347,44.2230942],[-71.3099396,44.2186178],[-71.3195555,44.2061293],[-71.3173364,44.1974682],[-71.318824,44.1920108],[-71.3266318,44.1830824],[-71.331466,44.1737807],[-71.316467,44.1114136],[-71.3077227,44.1125767],[-71.3027339,44.1371889],[-71.3060108,44.137211],[-71.2523694,44.2442189],[-71.243204,44.243873],[-71.0975024,44.2353501],[-71.067451,44.2377334],[-71.0427013,44.2377334],[-71.04258,44.262865],[-71.042129,44.2749413],[-71.0437547,44.2749071],[-71.0444719,44.2837051],[-71.0099283,44.2847961],[-71.0112432,44.3009283],[-71.0128759,44.3408602],[-71.0152103,44.3734677],[-71.0156833,44.3851483],[-71.0182165,44.4316488],[-71.0214966,44.4845659],[-71.0228554,44.500023],[-71.0245798,44.530342],[-71.026151,44.549232],[-71.0271277,44.5778266],[-71.0285171,44.6102987],[-71.0344058,44.7099589],[-71.0373969,44.7500132],[-71.0380836,44.7626549],[-71.0432498,44.8285304],[-71.0467506,44.8634902],[-71.0494057,44.8967937],[-71.0583016,44.9912066],[-71.0595041,45.0148609],[-71.0645431,45.0827661],[-71.0724015,45.1815203],[-71.0744917,45.2042482],[-71.07728,45.251774],[-71.082684,45.295599],[-71.0841694,45.3054741],[-71.0925558,45.3039197],[-71.0982114,45.3016753],[-71.0995003,45.2991914],[-71.1052842,45.2948778],[-71.1040769,45.2926331],[-71.1078642,45.2895578],[-71.1105633,45.2848922],[-71.1064433,45.2815731],[-71.1071944,45.2783483],[-71.11066,45.2753833],[-71.1163172,45.2740875],[-71.11644,45.2694422],[-71.1191714,45.2671325],[-71.1192289,45.2630697],[-71.1279458,45.2536931],[-71.1298861,45.2485267],[-71.1329108,45.2445131],[-71.1392544,45.2427906],[-71.1480275,45.242445],[-71.1570197,45.2481928],[-71.1623372,45.2503475],[-71.1688292,45.2462722],[-71.1768247,45.2440453],[-71.1801067,45.2399381],[-71.1868917,45.2443897],[-71.1877386,45.24762],[-71.1951436,45.2512689],[-71.1961928,45.2539761],[-71.20251,45.2543225],[-71.2071908,45.2530617],[-71.2096342,45.2505992],[-71.2206311,45.2507342],[-71.2213983,45.2530469],[-71.2306507,45.2494258],[-71.2331161,45.2515219],[-71.2313353,45.2539039],[-71.2355961,45.2609072],[-71.2456206,45.2688],[-71.2554256,45.2719731],[-71.2587714,45.271895],[-71.2623117,45.2760044],[-71.2637619,45.2847928],[-71.2661814,45.2914444],[-71.2649536,45.2937939],[-71.2726942,45.2965736],[-71.2805197,45.2945872],[-71.2822311,45.2995019],[-71.2879208,45.3009089],[-71.2909739,45.2987117],[-71.2962422,45.2991442],[-71.3005353,45.2966506],[-71.3076022,45.2874861],[-71.31544,45.2865958],[-71.3208431,45.2819203],[-71.3308067,45.2802803],[-71.3330347,45.2758578],[-71.3364156,45.2727439],[-71.344315,45.2712514],[-71.3476831,45.2720186],[-71.350315,45.2695067],[-71.3556842,45.2686031],[-71.3602833,45.2703356],[-71.3632189,45.2667408],[-71.3593408,45.2620989],[-71.35654,45.2539044],[-71.3627586,45.24831],[-71.36802,45.2463922],[-71.3759564,45.2451011],[-71.3788833,45.2428319],[-71.3803478,45.2387078],[-71.3841436,45.2335083],[-71.3892633,45.2349525],[-71.3963617,45.2418492],[-71.4021647,45.2425972],[-71.4074508,45.2412222],[-71.4123117,45.2369056],[-71.4168244,45.2357811],[-71.4199931,45.2327436],[-71.4274131,45.2342492],[-71.4342281,45.2384167],[-71.4428239,45.2382931],[-71.4383906,45.2326372],[-71.4174183,45.2217472],[-71.4158175,45.2183586],[-71.4031294,45.2153011],[-71.3976597,45.2053269],[-71.3999817,45.2003289],[-71.4058325,45.1974867],[-71.4042042,45.1949703],[-71.4068439,45.1902922],[-71.4107081,45.1862036],[-71.4144225,45.1847883],[-71.4157517,45.1806869],[-71.4141081,45.1789914],[-71.417375,45.1748642],[-71.4184553,45.1705306],[-71.4214272,45.1685147],[-71.4243775,45.1631078],[-71.4234989,45.1606747],[-71.4264014,45.1526781],[-71.4332703,45.1483144],[-71.4358003,45.1396072],[-71.4324378,45.1380189],[-71.4287622,45.1335469],[-71.4265425,45.1270242],[-71.4295056,45.1223053],[-71.4400986,45.1160075],[-71.4416028,45.1130956],[-71.4460197,45.1135161],[-71.4502206,45.1105008],[-71.4515981,45.1024619],[-71.4581306,45.0991411],[-71.4620792,45.09309],[-71.4643892,45.0933503],[-71.4671661,45.0852461],[-71.4702936,45.0834122],[-71.4774361,45.0840664],[-71.489285,45.0737186],[-71.4896978,45.0706458],[-71.4976864,45.070465],[-71.4956672,45.0647542],[-71.4992031,45.0583597],[-71.4972044,45.0558022],[-71.4990292,45.0528692],[-71.5035797,45.0525517],[-71.5053547,45.0489239],[-71.5031189,45.0452039],[-71.4968183,45.0446742],[-71.4932792,45.0457739],[-71.4909572,45.0431686],[-71.4929733,45.0332289],[-71.4977478,45.0300233],[-71.5013967,45.0175133],[-71.5010194,45.0134458],[-71.4654444,45.0136213],[-71.4659947,45.0120349],[-71.472984,45.011035],[-71.4784493,45.008786],[-71.4801428,45.0030016],[-71.4869185,45.0022767],[-71.4882208,45.000902],[-71.4957118,45.0048919],[-71.4985247,45.0038952],[-71.504457,45.0083868],[-71.5091711,45.0079165],[-71.5145311,45.0044284],[-71.524126,45.0024193],[-71.5318075,44.9986443],[-71.537085,44.9924962],[-71.5356194,44.9893653],[-71.5414596,44.985248],[-71.5367379,44.9837658],[-71.5375514,44.9813036],[-71.5324734,44.9793578],[-71.5309988,44.9748906],[-71.5273679,44.9730026],[-71.5231982,44.9635864],[-71.5164429,44.9642262],[-71.5152633,44.9584881],[-71.5160547,44.952767],[-71.5195428,44.9499232],[-71.5170712,44.9483806],[-71.5187637,44.9447069],[-71.5152997,44.9439748],[-71.5158208,44.9399674],[-71.521235,44.9377807],[-71.51624,44.93497],[-71.5159626,44.9312688],[-71.5126685,44.9261427],[-71.5045629,44.9188724],[-71.499731,44.9107327],[-71.4949998,44.9046938],[-71.5010417,44.9046182],[-71.5037943,44.9013947],[-71.5076225,44.8996876],[-71.5084948,44.8964704],[-71.5142374,44.8946611],[-71.5109867,44.8905396],[-71.521237,44.8829648],[-71.5222269,44.8804781],[-71.5288995,44.8777898],[-71.5294188,44.8733942],[-71.5331296,44.8703464],[-71.5403625,44.8686986],[-71.5462232,44.8661739],[-71.5505952,44.8605008],[-71.5472706,44.8579874],[-71.5559849,44.8497407],[-71.5559898,44.8467789],[-71.5523104,44.8427674],[-71.5512372,44.8374537],[-71.5573941,44.834338],[-71.5615275,44.8248144],[-71.5646593,44.8243829],[-71.5739177,44.8205952],[-71.5770818,44.8156017],[-71.5766229,44.812498],[-71.5731782,44.811001],[-71.5686996,44.8066288],[-71.5732365,44.7994228],[-71.5716656,44.7935314],[-71.5793596,44.7851173],[-71.5838718,44.785226],[-71.5926619,44.7827738],[-71.5965868,44.7787048],[-71.5963241,44.7750412],[-71.6016378,44.7727545],[-71.6033915,44.769294],[-71.611695,44.7654636],[-71.6132244,44.7590665],[-71.6253343,44.7540925],[-71.6311177,44.7533101],[-71.6321496,44.7486275],[-71.6274224,44.7469865],[-71.6256477,44.7433694],[-71.6268709,44.740388],[-71.6253506,44.7373704],[-71.6266887,44.7286173],[-71.6235213,44.726912],[-71.6175913,44.7287334],[-71.6191928,44.722069],[-71.6089658,44.7136933],[-71.6060493,44.7091637],[-71.5993985,44.7043994],[-71.6014283,44.6987962],[-71.5947842,44.6967032],[-71.5988361,44.6922279],[-71.5973386,44.6889074],[-71.5991095,44.6850974],[-71.5954297,44.6819833],[-71.5973138,44.678903],[-71.5881179,44.6741103],[-71.5878362,44.6705101],[-71.5855149,44.6662716],[-71.585645,44.6628774],[-71.5883774,44.6605751],[-71.5854266,44.6569383],[-71.5748846,44.6539545],[-71.5799857,44.6513766],[-71.5712171,44.6494484],[-71.5632597,44.6524906],[-71.5618881,44.6463525],[-71.5583316,44.6408492],[-71.5639439,44.6392191],[-71.5637984,44.6366607],[-71.558467,44.6341215],[-71.5542428,44.6295254],[-71.5567905,44.6177583],[-71.5535979,44.6070613],[-71.5572611,44.603238],[-71.5618781,44.6033256],[-71.5611388,44.5997669],[-71.5560447,44.5992678],[-71.552266,44.5933818],[-71.5468286,44.5976563],[-71.5450291,44.5954612],[-71.5473065,44.5929477],[-71.544713,44.5902226],[-71.5403574,44.589889],[-71.5365064,44.586816],[-71.5382428,44.5823352],[-71.5447862,44.5784709],[-71.5529413,44.5761144],[-71.5483549,44.5725904],[-71.5516931,44.5689894],[-71.5578851,44.5706059],[-71.5584348,44.5650386],[-71.5621858,44.563242],[-71.5707915,44.5629522],[-71.5758696,44.5651274],[-71.5814913,44.5647918],[-71.5881264,44.5659284],[-71.5934797,44.5641167],[-71.5973178,44.5592957],[-71.597742,44.5539327],[-71.586908,44.5469414],[-71.5779808,44.5429588],[-71.5718131,44.5371913],[-71.5733643,44.5335787],[-71.5798763,44.5256187],[-71.5833189,44.5231584],[-71.5889275,44.5223252],[-71.5930169,44.5231435],[-71.5940583,44.5203778],[-71.5862762,44.5146906],[-71.5837391,44.509094],[-71.5782301,44.5053465],[-71.5788704,44.5013961],[-71.5869896,44.5038394],[-71.5905397,44.500869],[-71.5945984,44.5000798],[-71.5949183,44.494228],[-71.5982568,44.4874111],[-71.601211,44.4855381],[-71.6107516,44.4844557],[-71.6155545,44.4861204],[-71.6188189,44.4852557],[-71.6243819,44.4756224],[-71.6306482,44.4740123],[-71.6351176,44.4776238],[-71.6273906,44.4798593],[-71.6256476,44.4838313],[-71.6322824,44.4841557],[-71.6335053,44.4817309],[-71.6388636,44.4778659],[-71.6425806,44.4769314],[-71.6477566,44.4731901],[-71.6476852,44.4701002],[-71.6404323,44.466111],[-71.6395537,44.4642411],[-71.6430125,44.4613444],[-71.6467334,44.460396],[-71.6523638,44.4610242],[-71.6570548,44.4550407],[-71.6591553,44.4440081],[-71.6644186,44.4381173],[-71.6700607,44.436325],[-71.6777539,44.4360503],[-71.6795397,44.4346017],[-71.6766557,44.4290597],[-71.6836982,44.427125],[-71.6848644,44.4239039],[-71.6941308,44.4202551],[-71.7023099,44.4146246],[-71.7144234,44.4102707],[-71.7259781,44.4116205],[-71.7360283,44.4102536],[-71.7396155,44.4070853],[-71.7428006,44.4015313],[-71.7495121,44.4019354],[-71.7568471,44.4065887],[-71.7661682,44.4062061],[-71.7428229,44.3821326],[-71.7295288,44.367554],[-71.6959282,44.3322366],[-71.6867459,44.3364901],[-71.5870965,44.3048065],[-71.5756941,44.2546413],[-71.5073439,44.2629911],[-71.5057949,44.2558254],[-71.4696458,44.260007],[-71.4433227,44.2493049],[-71.415902,44.212169],[-71.394874,44.214679],[-71.3884474,44.193037],[-71.384239,44.178844],[-71.3737405,44.1738167]]]},"properties":{"State":"New Hampshire","County":"Coos","id":"43126210","long_name":"new-hampshire-coos-county","long_county":"Coos County","normalized":"Y"}},
{"type":"Feature","geometry":{"type":"Polygon","coordinates":[[[-71.9352715,43.5288921],[-71.9312141,43.5335255],[-71.9078443,43.5578826],[-71.892448,43.57468],[-71.8640492,43.5994648],[-71.849678,43.611217],[-71.8446277,43.6005825],[-71.8292883,43.5667032],[-71.8180565,43.5446008],[-71.818085,43.547944],[-71.814925,43.551076],[-71.810171,43.550835],[-71.807498,43.553088],[-71.803858,43.552887],[-71.801321,43.556786],[-71.797572,43.559498],[-71.790083,43.558965],[-71.78658,43.561425],[-71.781202,43.559459],[-71.777758,43.553187],[-71.761009,43.567752],[-71.755732,43.565576],[-71.749484,43.567644],[-71.74484,43.565219],[-71.743146,43.568019],[-71.735752,43.569327],[-71.730977,43.567889],[-71.7275245,43.5634359],[-71.7242144,43.5663706],[-71.7248098,43.5705897],[-71.718538,43.573649],[-71.7158962,43.5791874],[-71.7245194,43.5859468],[-71.7306234,43.5874886],[-71.7317153,43.5898795],[-71.728121,43.5949042],[-71.7197438,43.5952781],[-71.7136096,43.6004661],[-71.7077043,43.6010229],[-71.7037214,43.5947212],[-71.6986399,43.5942939],[-71.688096,43.5949501],[-71.6812753,43.5981391],[-71.6704104,43.6045706],[-71.6638337,43.6047003],[-71.6630402,43.608042],[-71.6650544,43.6135732],[-71.6511532,43.6211185],[-71.6569365,43.6315937],[-71.6521299,43.6370257],[-71.6536711,43.641199],[-71.6507414,43.6450518],[-71.6541747,43.6535889],[-71.6549987,43.6617523],[-71.6505581,43.6667113],[-71.6488187,43.6732497],[-71.6512146,43.6802153],[-71.6477905,43.6862089],[-71.5814032,43.6919491],[-71.5214044,43.6978004],[-71.5316571,43.7609791],[-71.5379235,43.7965743],[-71.5436335,43.7961972],[-71.5646019,43.8931132],[-71.3613088,43.9156105],[-71.3785089,44.0013974],[-71.3826005,44.0225265],[-71.3468649,44.0690062],[-71.366686,44.0690244],[-71.3818004,44.0979034],[-71.3765078,44.1040064],[-71.3762025,44.1195351],[-71.384741,44.146976],[-71.385153,44.148357],[-71.387466,44.1554852],[-71.4128457,44.1663953],[-71.41532740573292,44.17448054915266],[-71.426507,44.210903],[-71.415902,44.212169],[-71.4433227,44.2493049],[-71.4696458,44.260007],[-71.5057949,44.2558254],[-71.5073439,44.2629911],[-71.5756941,44.2546413],[-71.5870965,44.3048065],[-71.6867459,44.3364901],[-71.6959282,44.3322366],[-71.7295288,44.367554],[-71.7428229,44.3821326],[-71.7661682,44.4062061],[-71.777893,44.4000177],[-71.7921369,44.4000962],[-71.8030118,44.3927333],[-71.803724,44.3907621],[-71.7999323,44.3861037],[-71.8033699,44.3832815],[-71.8091308,44.3837554],[-71.814697,44.381304],[-71.8156367,44.3749528],[-71.8127439,44.3708151],[-71.8162762,44.3673369],[-71.8124192,44.3575599],[-71.8141118,44.3548357],[-71.8183769,44.3535354],[-71.8257796,44.3529537],[-71.8331918,44.350233],[-71.8420984,44.3451821],[-71.852868,44.3408415],[-71.8643245,44.3395842],[-71.8717118,44.3366959],[-71.8845169,44.3419407],[-71.8916538,44.3433156],[-71.9003914,44.3472102],[-71.9088261,44.3481282],[-71.9171837,44.3467161],[-71.9246614,44.3422889],[-71.9299222,44.3373318],[-71.9384262,44.3357828],[-71.9446749,44.3376516],[-71.9579308,44.337495],[-71.9619375,44.3366051],[-71.9726003,44.3367359],[-71.9774108,44.337494],[-71.984641,44.3361525],[-71.9865577,44.3314187],[-71.9887531,44.3298424],[-72.0027063,44.3245202],[-72.0094855,44.3226421],[-72.0223004,44.3210984],[-72.0297718,44.3221655],[-72.0327952,44.3204841],[-72.0336385,44.3173262],[-72.031494,44.3154253],[-72.0326361,44.3099004],[-72.0327781,44.3023576],[-72.0376257,44.297064],[-72.0443199,44.2951736],[-72.0464954,44.2920391],[-72.0535063,44.290421],[-72.0594232,44.2859544],[-72.0645505,44.2789942],[-72.0682691,44.272472],[-72.0670539,44.2681425],[-72.0596336,44.2677778],[-72.0586356,44.2649611],[-72.0596535,44.2565948],[-72.0548535,44.247977],[-72.0501993,44.2442848],[-72.048013,44.2398302],[-72.0536356,44.2256755],[-72.0524436,44.2191016],[-72.0553628,44.2130279],[-72.0598754,44.2098794],[-72.0577323,44.2060446],[-72.0606087,44.1998519],[-72.0644487,44.1975628],[-72.0655962,44.1889233],[-72.0580225,44.1805063],[-72.0533231,44.1685431],[-72.0485679,44.1646876],[-72.0470045,44.1614876],[-72.0401667,44.1556684],[-72.0430813,44.1509879],[-72.0422495,44.1484336],[-72.0419332,44.1367451],[-72.0383058,44.1337968],[-72.0332664,44.1319142],[-72.0374216,44.1257842],[-72.0458403,44.1245279],[-72.0493516,44.1197369],[-72.0533619,44.1188267],[-72.0534019,44.1144876],[-72.0554004,44.1114527],[-72.0529903,44.1018547],[-72.047399,44.0964082],[-72.0428602,44.0974141],[-72.0416428,44.1018018],[-72.0380571,44.1034333],[-72.0326445,44.1014914],[-72.0307007,44.0979295],[-72.0322946,44.0918965],[-72.0381338,44.0886876],[-72.0432565,44.0889891],[-72.045059,44.0865842],[-72.0338434,44.081778],[-72.0316203,44.0798285],[-72.0341604,44.0771064],[-72.0384364,44.0767934],[-72.0443462,44.0793055],[-72.0516909,44.0772718],[-72.0524844,44.0744412],[-72.0487583,44.0714142],[-72.0488015,44.0690033],[-72.0541514,44.0638391],[-72.0585585,44.0579595],[-72.0654744,44.0583823],[-72.0690775,44.0541763],[-72.0629967,44.0519784],[-72.0664898,44.0490676],[-72.0762824,44.0450712],[-72.0790869,44.0424564],[-72.0794425,44.0393264],[-72.0749027,44.0323903],[-72.0807956,44.0291926],[-72.0827355,44.0261419],[-72.0819066,44.0231956],[-72.0864602,44.021471],[-72.0911473,44.0243245],[-72.0943589,44.0234222],[-72.0959147,44.0204119],[-72.0955399,44.015712],[-72.1027325,44.0150866],[-72.1060197,44.0115762],[-72.1037122,44.0031949],[-72.1098077,43.9999654],[-72.1126529,43.9964926],[-72.1166719,43.994692],[-72.1168406,43.9919011],[-72.1139492,43.989522],[-72.1118465,43.9844783],[-72.1148139,43.9692911],[-72.1111859,43.9669332],[-72.1050781,43.9700318],[-72.0923262,43.9668632],[-72.0912195,43.9655091],[-72.1009547,43.9629122],[-72.0996981,43.9567372],[-72.1047524,43.9507835],[-72.1121407,43.9475166],[-72.1181975,43.9468049],[-72.1191106,43.9438133],[-72.1169014,43.9349307],[-72.118324,43.9226118],[-72.1242814,43.9168975],[-72.1330967,43.9130653],[-72.135613,43.9096115],[-72.1495937,43.902905],[-72.1554314,43.8977032],[-72.1587371,43.8926348],[-72.1599257,43.8877328],[-72.1696011,43.8861995],[-72.1724286,43.8848741],[-72.1736996,43.8799458],[-72.168234,43.8690873],[-72.1746456,43.8666142],[-72.1818618,43.865941],[-72.1850534,43.8638095],[-72.1879281,43.8538008],[-72.1839153,43.8464164],[-72.1825435,43.8349803],[-72.1836018,43.8308099],[-72.1889002,43.8222953],[-72.1869215,43.8162993],[-72.183481,43.8116078],[-72.1851875,43.8044747],[-72.1915698,43.7998245],[-72.193991,43.7941127],[-72.196796,43.7903814],[-72.2055217,43.7849657],[-72.2040799,43.7797164],[-72.2054529,43.7767723],[-72.2054716,43.770982],[-72.2094243,43.7686111],[-72.2178376,43.7661205],[-72.2322653,43.7477129],[-72.238767,43.7445577],[-72.2468586,43.742713],[-72.252033,43.7394392],[-72.2644626,43.7338769],[-72.2719409,43.7332384],[-72.2755299,43.7271825],[-72.2814771,43.7239311],[-72.2864602,43.7174613],[-72.2950802,43.7088198],[-72.2993305,43.7066942],[-72.29992698143818,43.7037386012834],[-72.3051245,43.6953595],[-72.3059739,43.6832485],[-72.3028006,43.6796874],[-72.3034526,43.6680476],[-72.3134618,43.6573433],[-72.3150957,43.6490603],[-72.3137692,43.6443581],[-72.3172453,43.6401666],[-72.3286347,43.6359538],[-72.3274288,43.6310998],[-72.3290505,43.6272115],[-72.3324782,43.6250494],[-72.3346741,43.6193073],[-72.3349608,43.6149707],[-72.3329011,43.6099723],[-72.3283907,43.6070275],[-72.3283244,43.6012948],[-72.3303188,43.6002671],[-72.208145,43.5851619],[-72.1711653,43.5740225],[-72.1064123,43.5534846],[-72.1198695,43.5382895],[-72.0909033,43.5289389],[-72.069503,43.553284],[-72.0672562,43.5439914],[-71.9699894,43.5324577],[-71.9352715,43.5288921]]]},"properties":{"State":"New Hampshire","County":"Grafton","id":"55352251","long_name":"new-hampshire-grafton-county","long_county":"Grafton County","normalized":"Y"}},
{"type":"Feature","geometry":{"type":"Polygon","coordinates":[[[-72.038173,43.128799],[-72.034083,43.128746],[-72.043499,43.081993],[-72.041972,43.082238],[-72.057949,43.018922],[-72.06126,42.965807],[-72.062222,42.944796],[-72.00619,42.943789],[-72.001215,42.919444],[-71.995004,42.884486],[-71.986429,42.845172],[-71.984583,42.835453],[-71.97471,42.789402],[-71.944283,42.78841],[-71.940972,42.775624],[-71.9288611,42.7121558],[-71.8987719,42.7113111],[-71.7725513,42.7081308],[-71.7012206,42.7059602],[-71.6518406,42.7048257],[-71.6266578,42.7044795],[-71.5428581,42.7028087],[-71.4576835,42.7004602],[-71.3222882,42.6972286],[-71.2948705,42.6972433],[-71.279006,42.7113307],[-71.2681025,42.726053],[-71.2551324,42.736474],[-71.2454264,42.7425463],[-71.262917,42.75629],[-71.351283,42.772168],[-71.3499201,42.7740681],[-71.3531258,42.7782707],[-71.352967,42.7827575],[-71.3582288,42.7851951],[-71.3642637,42.7848447],[-71.3653804,42.7928751],[-71.3610051,42.799024],[-71.3870565,42.823579],[-71.427077,42.82489],[-71.43279,42.849541],[-71.43919,42.878406],[-71.4422594,42.890351],[-71.4512246,42.9307994],[-71.3754311,42.9393229],[-71.3923862,43.0093035],[-71.449778,43.0200593],[-71.4547861,43.0439948],[-71.4620432,43.040124],[-71.4739813,43.0352672],[-71.4759471,43.0376356],[-71.4835602,43.0418042],[-71.4863661,43.0482649],[-71.489085,43.0517714],[-71.5127468,43.0496139],[-71.5174767,43.0689085],[-71.6205298,43.0565079],[-71.641205,43.053791],[-71.667778,43.152454],[-71.7325664,43.1397729],[-71.7666884,43.1333777],[-71.7959966,43.127614],[-71.8102484,43.1242725],[-71.8555238,43.1153689],[-71.8674036,43.1340056],[-71.9129635,43.2068251],[-72.008965,43.187504],[-72.03656,43.182388],[-72.023834,43.160152],[-72.038173,43.128799]]]},"properties":{"State":"New Hampshire","County":"Hillsborough","id":null,"long_name":"new-hampshire-hillsborough-county","long_county":"Hillsborough County","normalized":"Y"}},
{"type":"Feature","geometry":{"type":"Polygon","coordinates":[[[-72.008965,43.187504],[-71.9129635,43.2068251],[-71.8674036,43.1340056],[-71.8555238,43.1153689],[-71.8102484,43.1242725],[-71.7959966,43.127614],[-71.7666884,43.1333777],[-71.7325664,43.1397729],[-71.667778,43.152454],[-71.641205,43.053791],[-71.6205298,43.0565079],[-71.5174767,43.0689085],[-71.5127468,43.0496139],[-71.489085,43.0517714],[-71.4863661,43.0482649],[-71.4835602,43.0418042],[-71.4759471,43.0376356],[-71.4739813,43.0352672],[-71.4620432,43.040124],[-71.4547861,43.0439948],[-71.449778,43.0200593],[-71.3923862,43.0093035],[-71.3963109,43.0169092],[-71.3975939,43.0252785],[-71.4029517,43.0410562],[-71.3922323,43.039293],[-71.3655141,43.0855638],[-71.36179768756213,43.09208078930093],[-71.3542876,43.0901727],[-71.3427337,43.0954633],[-71.3459061,43.1002357],[-71.3344689,43.0983882],[-71.3298792,43.105268],[-71.324807,43.1043815],[-71.3158956,43.1216757],[-71.3191988,43.1273636],[-71.3214947,43.1370792],[-71.3254582,43.1376052],[-71.32932738987297,43.14084212125277],[-71.3234809,43.151405],[-71.3175563,43.1625268],[-71.307616,43.1770828],[-71.3044254,43.1804803],[-71.276028,43.2261368],[-71.2609271,43.2512047],[-71.2520046,43.2642764],[-71.2459853,43.2744629],[-71.2352009,43.2844356],[-71.3053036,43.3228761],[-71.3488069,43.3464517],[-71.3939921,43.3702087],[-71.5118196,43.4329236],[-71.5470795,43.4526691],[-71.5589444,43.4553531],[-71.5629441,43.4514432],[-71.5692388,43.4524524],[-71.5752998,43.4465448],[-71.5807933,43.4441719],[-71.5850712,43.4443961],[-71.587813,43.4415634],[-71.593055,43.4431823],[-71.5953864,43.441695],[-71.5958388,43.4376871],[-71.6009659,43.4349253],[-71.6030868,43.4399606],[-71.6109876,43.4407066],[-71.616057,43.4436049],[-71.619575,43.443975],[-71.6276873,43.4587609],[-71.624555,43.4596285],[-71.628811,43.468405],[-71.6237477,43.4698134],[-71.6284258,43.4777046],[-71.6302568,43.4772127],[-71.6379236,43.4921481],[-71.6535048,43.4877964],[-71.6548614,43.492],[-71.6642152,43.4961658],[-71.6701663,43.4970888],[-71.6782231,43.5015291],[-71.6803135,43.5058931],[-71.6847999,43.510753],[-71.6914529,43.5161393],[-71.6874858,43.5248366],[-71.6886604,43.5292692],[-71.7088487,43.5396756],[-71.710344,43.5448484],[-71.7156082,43.5512417],[-71.7222005,43.5529583],[-71.7290668,43.5608469],[-71.7275245,43.5634359],[-71.730977,43.567889],[-71.735752,43.569327],[-71.743146,43.568019],[-71.74484,43.565219],[-71.749484,43.567644],[-71.755732,43.565576],[-71.761009,43.567752],[-71.777758,43.553187],[-71.781202,43.559459],[-71.78658,43.561425],[-71.790083,43.558965],[-71.797572,43.559498],[-71.801321,43.556786],[-71.803858,43.552887],[-71.807498,43.553088],[-71.810171,43.550835],[-71.814925,43.551076],[-71.818085,43.547944],[-71.8180565,43.5446008],[-71.8292883,43.5667032],[-71.8446277,43.6005825],[-71.849678,43.611217],[-71.8640492,43.5994648],[-71.892448,43.57468],[-71.9078443,43.5578826],[-71.9312141,43.5335255],[-71.9352715,43.5288921],[-71.9903054,43.4649286],[-72.0030147,43.448769],[-72.0113293,43.4369541],[-72.0537982,43.4410765],[-72.057983,43.422981],[-72.046547,43.411201],[-72.0497877,43.3801246],[-72.089897,43.322285],[-72.065422,43.254601],[-72.0455125,43.2547031],[-72.041901,43.222401],[-72.008965,43.187504]]]},"properties":{"State":"New Hampshire","County":"Merrimack","id":"5538549","long_name":"new-hampshire-merrimack-county","long_county":"Merrimack County","normalized":"Y"}},
{"type":"Feature","geometry":{"type":"Polygon","coordinates":[[[-71.2454264,42.7425463],[-71.2374316,42.7448946],[-71.2238257,42.7464861],[-71.1817862,42.7373414],[-71.1826823,42.7501339],[-71.18614,42.7909349],[-71.1666472,42.8088811],[-71.1480386,42.8161399],[-71.1328052,42.8214761],[-71.0644128,42.8062744],[-71.053993,42.8332765],[-71.0449202,42.8486666],[-71.0311972,42.8592974],[-71.0162248,42.8617021],[-70.9670178,42.8688002],[-70.9490505,42.8761606],[-70.9295951,42.8850315],[-70.9146307,42.8866472],[-70.9035334,42.8867783],[-70.8856028,42.8828344],[-70.8477182,42.8608672],[-70.8367257,42.8646805],[-70.8297003,42.8687191],[-70.820239,42.8717876],[-70.8147389,42.8721991],[-70.7329801,42.8754003],[-70.727792,42.8853423],[-70.7262979,42.8903314],[-70.7253666,42.8986225],[-70.7264052,42.9072853],[-70.7252234,42.9166135],[-70.7208024,42.9194911],[-70.711586,42.9275817],[-70.7052697,42.9362145],[-70.7020407,42.9433815],[-70.6969006,42.9502496],[-70.6944478,42.9503999],[-70.6878229,42.9401728],[-70.680377,42.9329462],[-70.674108,42.9284861],[-70.6645644,42.9230722],[-70.6500967,42.9178204],[-70.6375574,42.915484],[-70.625513,42.9148825],[-70.6149008,42.9128334],[-70.6034622,42.9120393],[-70.5955567,42.9123112],[-70.5830367,42.914153],[-70.5688411,42.9186082],[-70.5613593,42.9222206],[-70.6086478,42.9756617],[-70.6111518,42.9789898],[-70.6240345,42.9820899],[-70.6322791,42.9865066],[-70.7011973,43.0452405],[-70.7049593,43.0633092],[-70.7018909,43.0722444],[-70.7071909,43.075489],[-70.725945,43.0745016],[-70.7377252,43.0731065],[-70.7430323,43.0779573],[-70.7556969,43.0799332],[-70.757955,43.0815048],[-70.7635552,43.0903778],[-70.7687287,43.0939789],[-70.7773656,43.0954132],[-70.7814092,43.0977324],[-70.7838652,43.1009366],[-70.7996587,43.1103971],[-70.806724,43.1158977],[-70.8200148,43.1225276],[-70.8248955,43.1184043],[-70.8310319,43.117668],[-70.8388427,43.120037],[-70.846015,43.1257208],[-70.8555824,43.1268654],[-70.8619149,43.1246985],[-70.8640817,43.1201362],[-70.8600077,43.1164207],[-70.8619606,43.1114313],[-70.8609688,43.1023217],[-70.860938,43.0946084],[-70.8637155,43.0873226],[-70.8688732,43.0848658],[-70.875401,43.0803887],[-70.8916561,43.0831905],[-70.8921376,43.0839793],[-70.9339855,43.0902414],[-70.9808012,43.0823673],[-71.0121664,43.0820359],[-71.0732437,43.0815959],[-71.0266856,43.1379468],[-71.1280979,43.200212],[-71.1331229,43.2036958],[-71.1710371,43.2272577],[-71.2459853,43.2744629],[-71.2520046,43.2642764],[-71.2609271,43.2512047],[-71.276028,43.2261368],[-71.3044254,43.1804803],[-71.307616,43.1770828],[-71.3175563,43.1625268],[-71.3234809,43.151405],[-71.3294412,43.1406365],[-71.3407011,43.1250705],[-71.3561163,43.1020435],[-71.3655141,43.0855638],[-71.3922323,43.039293],[-71.4029517,43.0410562],[-71.3975939,43.0252785],[-71.3963109,43.0169092],[-71.3923862,43.0093035],[-71.3754311,42.9393229],[-71.4512246,42.9307994],[-71.4422594,42.890351],[-71.43919,42.878406],[-71.43279,42.849541],[-71.427077,42.82489],[-71.3870565,42.823579],[-71.3610051,42.799024],[-71.3653804,42.7928751],[-71.3642637,42.7848447],[-71.3582288,42.7851951],[-71.352967,42.7827575],[-71.3531258,42.7782707],[-71.3499201,42.7740681],[-71.351283,42.772168],[-71.262917,42.75629],[-71.2454264,42.7425463]]]},"properties":{"State":"New Hampshire","County":"Rockingham","id":null,"long_name":"new-hampshire-rockingham-county","long_county":"Rockingham County","normalized":"Y"}},
{"type":"Feature","geometry":{"type":"Polygon","coordinates":[[[-71.2459853,43.2744629],[-71.1710371,43.2272577],[-71.1331229,43.2036958],[-71.1280979,43.200212],[-71.0266856,43.1379468],[-71.0732437,43.0815959],[-71.0121664,43.0820359],[-70.9808012,43.0823673],[-70.9339855,43.0902414],[-70.8921376,43.0839793],[-70.8916561,43.0831905],[-70.875401,43.0803887],[-70.8688732,43.0848658],[-70.8637155,43.0873226],[-70.860938,43.0946084],[-70.8609688,43.1023217],[-70.8619606,43.1114313],[-70.8600077,43.1164207],[-70.8640817,43.1201362],[-70.8619149,43.1246985],[-70.8555824,43.1268654],[-70.846015,43.1257208],[-70.8388427,43.120037],[-70.8310319,43.117668],[-70.8248955,43.1184043],[-70.8200148,43.1225276],[-70.8274,43.1278072],[-70.8291248,43.1314615],[-70.8297651,43.1376641],[-70.8332442,43.1444543],[-70.833534,43.1478112],[-70.8289717,43.1585227],[-70.8277819,43.1704321],[-70.8237681,43.1735754],[-70.8251418,43.1810292],[-70.8280566,43.186507],[-70.8257065,43.1902759],[-70.8203653,43.1917483],[-70.819343,43.1959902],[-70.8204575,43.2009569],[-70.8162455,43.2154984],[-70.8124461,43.2182067],[-70.8134534,43.2201522],[-70.8092299,43.2248566],[-70.8153966,43.2328166],[-70.8178174,43.2381344],[-70.8227459,43.2394976],[-70.827193,43.2433468],[-70.8387222,43.243124],[-70.8381425,43.2460231],[-70.8411098,43.2483092],[-70.839634,43.2516045],[-70.84385,43.2545374],[-70.8524248,43.25675],[-70.8552973,43.25505],[-70.859963,43.258112],[-70.8608483,43.2626473],[-70.86448,43.2656152],[-70.8697445,43.2659662],[-70.8748734,43.2721006],[-70.8821809,43.2725349],[-70.8845625,43.279475],[-70.8872476,43.2827724],[-70.8964196,43.2851721],[-70.8989893,43.28736],[-70.8980262,43.291168],[-70.9042436,43.2912715],[-70.9071593,43.2930693],[-70.9040085,43.2965905],[-70.8976105,43.2971203],[-70.9022618,43.305565],[-70.9064202,43.3047253],[-70.9122352,43.3075789],[-70.9112513,43.3107946],[-70.91492,43.3154885],[-70.9155747,43.3196193],[-70.9193977,43.3245453],[-70.9223928,43.3233601],[-70.9259171,43.3278633],[-70.931458,43.33094],[-70.931161,43.3366734],[-70.9373076,43.3375575],[-70.9399313,43.3354631],[-70.952517,43.3333781],[-70.9568101,43.3347299],[-70.9600617,43.3414985],[-70.9664118,43.3431693],[-70.9685578,43.3465393],[-70.967663,43.3493544],[-70.9732122,43.3498242],[-70.9719828,43.3549286],[-70.9758903,43.3585091],[-70.974501,43.3642617],[-70.9758371,43.3668007],[-70.9807929,43.3706227],[-70.9805471,43.3727866],[-70.985704,43.379222],[-70.9854706,43.3863489],[-70.9877073,43.3885148],[-70.987179,43.3935359],[-70.9828458,43.3944438],[-70.9822967,43.3982812],[-70.9866979,43.4037951],[-70.9859124,43.4102211],[-70.9872966,43.4127999],[-70.9816554,43.4205512],[-70.9750023,43.4222448],[-70.9697075,43.4269063],[-70.968578,43.4347798],[-70.963024,43.4364887],[-70.9608114,43.4393041],[-70.9615898,43.4432714],[-70.9655422,43.4472994],[-70.9662891,43.4533037],[-70.9632372,43.4580569],[-70.9603386,43.4661822],[-70.9613153,43.4695695],[-70.9673545,43.4738582],[-70.9700427,43.4730637],[-70.9721485,43.478328],[-70.9675892,43.4809402],[-70.9688934,43.4856187],[-70.9627534,43.4975233],[-70.9588124,43.4994764],[-70.9578056,43.508151],[-70.9546616,43.5093029],[-70.9567985,43.5127819],[-70.9538682,43.5191446],[-70.9539444,43.5222727],[-70.9571641,43.5248592],[-70.9567677,43.527949],[-70.9630242,43.535479],[-70.9622655,43.5412287],[-70.9684859,43.5363927],[-70.9812272,43.5244359],[-71.0182706,43.4881649],[-71.0241709,43.4821886],[-71.0369219,43.5266456],[-71.0424569,43.520854],[-71.0446739,43.5282294],[-71.0511781,43.5215459],[-71.0530465,43.5269291],[-71.0588974,43.5211073],[-71.0609646,43.5282655],[-71.087276,43.5036051],[-71.0891078,43.5127316],[-71.0944566,43.5081453],[-71.0958854,43.5158197],[-71.1028332,43.5100022],[-71.104739,43.5182065],[-71.1126654,43.5110986],[-71.1203354,43.543291],[-71.1277195,43.5729888],[-71.1532693,43.5471436],[-71.1628153,43.5389467],[-71.1915731,43.514576],[-71.1839663,43.4756566],[-71.1764271,43.434744],[-71.1672842,43.389958],[-71.1647417,43.3761137],[-71.1589375,43.3553249],[-71.1912917,43.3258867],[-71.2075857,43.3081699],[-71.2352009,43.2844356],[-71.2459853,43.2744629]]]},"properties":{"State":"New Hampshire","County":"Strafford","id":null,"long_name":"new-hampshire-strafford-county","long_county":"Strafford County","normalized":"Y"}},
{"type":"Feature","geometry":{"type":"Polygon","coordinates":[[[-72.4517579,43.1613143],[-72.43209,43.15982],[-72.431632,43.135635],[-72.372045,43.132118],[-72.376424,43.15773],[-72.330326,43.155166],[-72.332142,43.162841],[-72.262483,43.169952],[-72.186218,43.178436],[-72.1565438,43.1819569],[-72.173202,43.148956],[-72.178497,43.131866],[-72.123152,43.129715],[-72.038173,43.128799],[-72.023834,43.160152],[-72.03656,43.182388],[-72.008965,43.187504],[-72.041901,43.222401],[-72.0455125,43.2547031],[-72.065422,43.254601],[-72.089897,43.322285],[-72.0497877,43.3801246],[-72.046547,43.411201],[-72.057983,43.422981],[-72.0537982,43.4410765],[-72.0113293,43.4369541],[-72.0030147,43.448769],[-71.9903054,43.4649286],[-71.9352715,43.5288921],[-71.9699894,43.5324577],[-72.0672562,43.5439914],[-72.069503,43.553284],[-72.0909033,43.5289389],[-72.1198695,43.5382895],[-72.1064123,43.5534846],[-72.1711653,43.5740225],[-72.208145,43.5851619],[-72.3303188,43.6002671],[-72.3321091,43.5998404],[-72.343202,43.5918557],[-72.3493098,43.588131],[-72.3663993,43.5828606],[-72.3747463,43.578608],[-72.3803469,43.5736252],[-72.3803638,43.566184],[-72.3830991,43.5639833],[-72.3809818,43.5495591],[-72.3811466,43.5392577],[-72.3839053,43.5346404],[-72.3900498,43.5279226],[-72.3943349,43.527618],[-72.3962108,43.5240104],[-72.3970132,43.5177808],[-72.3987715,43.5139421],[-72.3978145,43.509303],[-72.3850875,43.5004749],[-72.3804437,43.4919719],[-72.3818979,43.4803122],[-72.3831433,43.475629],[-72.3904705,43.4695246],[-72.3929763,43.4664066],[-72.3903402,43.4525437],[-72.3959577,43.4375808],[-72.3961033,43.4283677],[-72.3998252,43.4160587],[-72.4002707,43.4083667],[-72.4021782,43.3991138],[-72.4049422,43.3903684],[-72.4118968,43.3852732],[-72.4148014,43.3814107],[-72.4160749,43.3756778],[-72.4145578,43.369167],[-72.414599,43.3642557],[-72.4037943,43.35789],[-72.392787,43.3579391],[-72.3900413,43.3557249],[-72.3947295,43.3506654],[-72.4007357,43.3460353],[-72.4081316,43.3357582],[-72.410553,43.3309642],[-72.4093618,43.3285104],[-72.4024184,43.3200746],[-72.3973259,43.3169506],[-72.3962674,43.3114818],[-72.4028973,43.3024032],[-72.4026781,43.3009784],[-72.4080378,43.2841183],[-72.4162025,43.2702351],[-72.4218341,43.2632572],[-72.4336345,43.2590008],[-72.4370002,43.2560492],[-72.4390219,43.2513732],[-72.4395898,43.2454367],[-72.4382276,43.2394557],[-72.4342662,43.2317344],[-72.44063,43.2202051],[-72.4412539,43.2161842],[-72.4388462,43.2083863],[-72.4390628,43.201006],[-72.4455993,43.1956902],[-72.4504268,43.1928999],[-72.4496883,43.1895285],[-72.444685,43.1834746],[-72.444366,43.1786088],[-72.4509991,43.1748402],[-72.452944,43.1719305],[-72.4517579,43.1613143]]]},"properties":{"State":"New Hampshire","County":"Sullivan","id":"7837744","long_name":"new-hampshire-sullivan-county","long_county":"Sullivan County","normalized":"Y"}}
]}