{"type":"FeatureCollection", "features": [
{"type":"Feature","geometry":{"type":"MultiPolygon","coordinates":[[[[-71.2933897,41.6876023],[-71.2955004,41.6855155],[-71.2973893,41.6830895],[-71.2988529,41.6820028],[-71.3028134,41.6819445],[-71.3036883,41.6800116],[-71.3038663,41.6782577],[-71.3053617,41.6750146],[-71.3057596,41.673668],[-71.3066067,41.6727531],[-71.3056996,41.6700914],[-71.3048781,41.6636899],[-71.3055164,41.660245],[-71.3047078,41.6561017],[-71.3028896,41.6534551],[-71.3017224,41.6505693],[-71.3005525,41.6494477],[-71.2995219,41.6494884],[-71.2983922,41.6505771],[-71.2981246,41.6516834],[-71.2982575,41.6546367],[-71.2986423,41.6577583],[-71.297607,41.6593238],[-71.2972918,41.6611082],[-71.2967151,41.6617254],[-71.2951447,41.6619248],[-71.2941617,41.6608828],[-71.2931239,41.6608507],[-71.2912515,41.6624748],[-71.2902644,41.6642021],[-71.2884321,41.6708471],[-71.2882238,41.674146],[-71.2885112,41.6744814],[-71.2896633,41.6797404],[-71.2889643,41.6805305],[-71.2878177,41.6803287],[-71.2866975,41.6823314],[-71.2856237,41.6825072],[-71.282928,41.6810178],[-71.2824213,41.6798854],[-71.279498,41.6792032],[-71.2790446,41.6755964],[-71.2802261,41.6724662],[-71.2791293,41.6694086],[-71.2781332,41.6692227],[-71.2782078,41.6676892],[-71.2774341,41.6661423],[-71.276624,41.6662932],[-71.2750591,41.6647233],[-71.2744117,41.6645643],[-71.2729553,41.6627662],[-71.2723618,41.6614647],[-71.2704153,41.6612327],[-71.2695053,41.6601209],[-71.2678036,41.6596023],[-71.2677073,41.6582552],[-71.2681879,41.6560364],[-71.2695593,41.6547927],[-71.2699542,41.6520073],[-71.2695438,41.6501389],[-71.2685238,41.6479045],[-71.2673843,41.646248],[-71.2672185,41.6453512],[-71.264357,41.6435641],[-71.2614447,41.6426924],[-71.2599562,41.6428286],[-71.2591949,41.6435904],[-71.2570474,41.6492948],[-71.2560174,41.6511868],[-71.2544296,41.6526618],[-71.2543437,41.6565737],[-71.2534425,41.6610625],[-71.2523964,41.6625754],[-71.2522978,41.6641901],[-71.2503687,41.6651903],[-71.249607,41.6664146],[-71.2473732,41.6678608],[-71.2441728,41.669366],[-71.243826,41.6683437],[-71.2417936,41.6674184],[-71.2418071,41.6667693],[-71.239572,41.6658542],[-71.2371594,41.6677386],[-71.2376068,41.6697065],[-71.2357936,41.6721709],[-71.2354717,41.6765464],[-71.2357399,41.6784536],[-71.2377842,41.6818285],[-71.2398054,41.684531],[-71.2415689,41.6873533],[-71.2422469,41.687463],[-71.2434003,41.689559],[-71.2442833,41.6921644],[-71.2456158,41.6940996],[-71.246383,41.6961624],[-71.246104,41.6991405],[-71.244775,41.7004116],[-71.2449547,41.7010024],[-71.2477281,41.7009162],[-71.2490866,41.7026855],[-71.248859,41.7036853],[-71.2503959,41.70425],[-71.2516968,41.7070394],[-71.2534805,41.7088756],[-71.2552507,41.7112003],[-71.2571819,41.712678],[-71.2597162,41.7162209],[-71.2591508,41.718595],[-71.2621227,41.7208293],[-71.2622032,41.721568],[-71.2640834,41.7239704],[-71.2641797,41.726406],[-71.2628824,41.7273279],[-71.2623582,41.7240448],[-71.2596652,41.7237125],[-71.2592361,41.7245453],[-71.2578783,41.7247394],[-71.2575195,41.7235203],[-71.2567127,41.7228653],[-71.2557511,41.7211196],[-71.2549864,41.7186121],[-71.2542596,41.7174799],[-71.253008,41.7180945],[-71.2512212,41.7201629],[-71.2509963,41.7185554],[-71.2498962,41.7182416],[-71.2474161,41.7160804],[-71.245251,41.7150717],[-71.2442372,41.7154001],[-71.2433178,41.7147749],[-71.2422608,41.7121253],[-71.2410829,41.7075031],[-71.2416494,41.7057766],[-71.2415979,41.7045234],[-71.2390659,41.7044914],[-71.2378642,41.7041389],[-71.2370145,41.7025886],[-71.23736,41.7021364],[-71.2396238,41.7034661],[-71.243057,41.7032098],[-71.2422845,41.7024728],[-71.2426381,41.6992435],[-71.242027,41.6982433],[-71.2391088,41.6988841],[-71.2330261,41.7018311],[-71.2317799,41.7037156],[-71.2279212,41.7057094],[-71.2268793,41.7075989],[-71.2257609,41.7082725],[-71.2254642,41.7096125],[-71.2262872,41.7108124],[-71.2261575,41.7123461],[-71.2610672,41.7520824],[-71.2835306,41.7616219],[-71.2827972,41.7594021],[-71.2816545,41.757914],[-71.2825075,41.7565819],[-71.2812227,41.7562938],[-71.2802442,41.7547226],[-71.2813934,41.7532496],[-71.2809589,41.7521279],[-71.2814108,41.7509245],[-71.2799791,41.7504239],[-71.2803215,41.7475507],[-71.2811241,41.7465489],[-71.27857,41.743764],[-71.2793624,41.7431101],[-71.2808675,41.7407739],[-71.2786374,41.7395525],[-71.2793624,41.7370194],[-71.2785385,41.7358061],[-71.2755063,41.7331909],[-71.2761765,41.7325679],[-71.2778142,41.7336126],[-71.2801205,41.7339124],[-71.280472,41.7350929],[-71.2815267,41.7354126],[-71.2822188,41.7363636],[-71.2855256,41.7377572],[-71.2863385,41.7396345],[-71.2871625,41.7398148],[-71.2882281,41.7383475],[-71.2884188,41.7373132],[-71.2875885,41.7352519],[-71.2877509,41.732963],[-71.2863591,41.7306643],[-71.2861392,41.7271873],[-71.2856805,41.7249979],[-71.286698,41.7247903],[-71.2855532,41.7229842],[-71.2848272,41.7226635],[-71.2854177,41.7190983],[-71.2848473,41.7180357],[-71.2855702,41.7158834],[-71.2855052,41.714917],[-71.2869601,41.7140595],[-71.2899753,41.7133875],[-71.2908569,41.7123288],[-71.2913829,41.710288],[-71.2908845,41.7054359],[-71.2910992,41.7018381],[-71.2918349,41.7000407],[-71.2925462,41.6943656],[-71.2928775,41.6883164],[-71.2933897,41.6876023]]],[[[-71.3517719,41.7529019],[-71.3512925,41.7521457],[-71.351551,41.7487077],[-71.3527816,41.7481356],[-71.352024,41.7463714],[-71.3530473,41.7458168],[-71.3517165,41.7448454],[-71.3509879,41.7436945],[-71.3492451,41.7432569],[-71.3475652,41.7450737],[-71.3482914,41.7459352],[-71.3462695,41.7465297],[-71.3455704,41.7448385],[-71.3459975,41.7442073],[-71.3477119,41.7438484],[-71.3484889,41.7421487],[-71.3474332,41.7405356],[-71.3471583,41.7391687],[-71.3446596,41.7368833],[-71.3416573,41.7352413],[-71.3412318,41.7338649],[-71.3409045,41.7309306],[-71.3412251,41.730201],[-71.3406933,41.7285761],[-71.3395634,41.7270922],[-71.3389313,41.7249239],[-71.3337659,41.7249189],[-71.3328975,41.7252817],[-71.3287644,41.7254379],[-71.3219441,41.7251932],[-71.3161805,41.7244275],[-71.3132326,41.7237285],[-71.3097981,41.7225144],[-71.3066864,41.7207414],[-71.3053833,41.7191869],[-71.3055111,41.7175195],[-71.3069057,41.7159634],[-71.3076023,41.7131818],[-71.3073682,41.7120187],[-71.3059512,41.709134],[-71.3041594,41.707343],[-71.3024323,41.7066291],[-71.3008477,41.7070318],[-71.3011221,41.7082345],[-71.2984542,41.7113281],[-71.2986749,41.7132522],[-71.2993262,41.7139163],[-71.2999657,41.7157467],[-71.2994725,41.7178167],[-71.2980578,41.7190293],[-71.2974545,41.7217281],[-71.2955298,41.7207531],[-71.2952952,41.7190078],[-71.2957684,41.7182609],[-71.2948849,41.7168909],[-71.2936272,41.7159199],[-71.2920989,41.716972],[-71.2922828,41.7185975],[-71.2920753,41.7214953],[-71.2923361,41.7222551],[-71.2906596,41.7224317],[-71.2907354,41.7231994],[-71.2894231,41.7242942],[-71.2894705,41.7254622],[-71.2883629,41.7276523],[-71.2887538,41.7298187],[-71.2910144,41.7319463],[-71.29283,41.7317918],[-71.2948418,41.7323077],[-71.2961404,41.7342844],[-71.2973104,41.7375483],[-71.2989039,41.7391612],[-71.3002018,41.7409885],[-71.3029393,41.7409408],[-71.3048395,41.7413876],[-71.3059854,41.7409465],[-71.306824,41.74211],[-71.3087219,41.7422979],[-71.3123746,41.7434065],[-71.3130582,41.7443902],[-71.3166396,41.7475994],[-71.3182721,41.7494074],[-71.3190942,41.7493767],[-71.3202998,41.7513529],[-71.3213086,41.7522132],[-71.3215703,41.7578047],[-71.3199761,41.759992],[-71.3210985,41.7612263],[-71.3207325,41.7642516],[-71.3221554,41.7695977],[-71.322144,41.7709862],[-71.322695,41.772714],[-71.3517719,41.7529019]]],[[[-71.3195672,41.7748613],[-71.3178274,41.7728372],[-71.3182483,41.7716452],[-71.3176554,41.7706783],[-71.3180823,41.7698918],[-71.317578,41.7675898],[-71.3166612,41.7663842],[-71.314393,41.7655704],[-71.312954,41.7658219],[-71.3119891,41.7665965],[-71.3100071,41.767369],[-71.309908,41.7657632],[-71.3113955,41.7651781],[-71.3133749,41.7638628],[-71.3140567,41.76238],[-71.3158395,41.7607027],[-71.3151078,41.7600359],[-71.3136033,41.7607047],[-71.3120152,41.7627651],[-71.3095877,41.764823],[-71.3086864,41.7664911],[-71.307141,41.7664063],[-71.3041848,41.7653095],[-71.3026886,41.7640651],[-71.302494,41.7619544],[-71.3019947,41.7612328],[-71.3031471,41.7591619],[-71.3061822,41.757197],[-71.307867,41.7581676],[-71.3093944,41.7574315],[-71.3120436,41.7580779],[-71.3137332,41.7575753],[-71.3143841,41.7565721],[-71.3174153,41.7540715],[-71.3179701,41.7517375],[-71.317347,41.7510821],[-71.3150277,41.7502975],[-71.3130333,41.7491134],[-71.3124415,41.7480435],[-71.3105224,41.7470658],[-71.3098509,41.7458699],[-71.3085463,41.74481],[-71.3066361,41.7441577],[-71.3038995,41.7446935],[-71.3000761,41.7431008],[-71.2987497,41.7418238],[-71.2973314,41.7410769],[-71.296847,41.739603],[-71.2952839,41.7383303],[-71.2942149,41.7367868],[-71.2929908,41.7339474],[-71.2921253,41.7333313],[-71.2907137,41.733514],[-71.2909039,41.7348341],[-71.2898292,41.7363318],[-71.2896886,41.7372962],[-71.2905981,41.7378845],[-71.2909266,41.738954],[-71.2887963,41.7418063],[-71.2893891,41.7440728],[-71.2894538,41.7477337],[-71.2886538,41.7498153],[-71.2902654,41.7513169],[-71.2892914,41.7529491],[-71.2895891,41.7549058],[-71.2881111,41.7553952],[-71.2873447,41.7572968],[-71.2875098,41.7585304],[-71.2860034,41.7588002],[-71.2865041,41.7596466],[-71.2865338,41.7616019],[-71.2859129,41.7624138],[-71.2867481,41.7629895],[-71.3177435,41.7761443],[-71.3195672,41.7748613]]],[[[-71.3168472,41.7637552],[-71.3175617,41.7640273],[-71.3191967,41.7633877],[-71.3192029,41.7619062],[-71.3177947,41.7616003],[-71.3169061,41.7628077],[-71.3168472,41.7637552]]],[[[-71.3225573,41.7727895],[-71.3212583,41.7697755],[-71.3211279,41.7686659],[-71.3198983,41.768784],[-71.3202306,41.7698542],[-71.319864,41.7713756],[-71.3200101,41.7729182],[-71.320652,41.774105],[-71.3225573,41.7727895]]]]},"properties":{"State":"Rhode Island","County":"Bristol","id":"relation/191223","long_name":"rhode-island-bristol-county","long_county":"Bristol County","normalized":"Y"}},
{"type":"Feature","geometry":{"type":"Polygon","coordinates":[[[-71.7891735,41.5992492],[-71.760827,41.598128],[-71.734643,41.59872],[-71.71402,41.598733],[-71.659745,41.596815],[-71.6591597,41.596756],[-71.6530496,41.5988659],[-71.644274,41.6001245],[-71.624153,41.600414],[-71.6135396,41.6006295],[-71.610348,41.600811],[-71.569138,41.601394],[-71.5544414,41.6018458],[-71.5227959,41.6025157],[-71.520447,41.602619],[-71.495689,41.60268],[-71.4846057,41.6027537],[-71.4852526,41.6129552],[-71.487839,41.61591],[-71.4862026,41.6198251],[-71.4840759,41.6217055],[-71.4834982,41.6215245],[-71.4820622,41.6236232],[-71.4793736,41.6240805],[-71.4713629,41.6289373],[-71.4725702,41.6320629],[-71.4719405,41.6329726],[-71.4693606,41.6346163],[-71.4678555,41.634163],[-71.466246,41.635488],[-71.463436,41.636544],[-71.462525,41.638255],[-71.459123,41.637946],[-71.458324,41.636366],[-71.45558,41.635109],[-71.45423,41.632953],[-71.454404,41.631202],[-71.45391,41.630048],[-71.452189,41.629399],[-71.451505,41.630386],[-71.449808,41.630932],[-71.448447,41.633377],[-71.449491,41.63518],[-71.448797,41.635719],[-71.449286,41.63673],[-71.448086,41.637162],[-71.444782,41.640753],[-71.4451072,41.6413847],[-71.443638,41.642543],[-71.441964,41.643328],[-71.442717,41.644398],[-71.442508,41.645818],[-71.440925,41.64618],[-71.439927,41.647656],[-71.4376654,41.6488618],[-71.4356552,41.6502985],[-71.4348855,41.6517748],[-71.4322307,41.6515848],[-71.4315524,41.6521398],[-71.4297619,41.6515323],[-71.4282288,41.6524491],[-71.4269337,41.6543514],[-71.4243989,41.6557393],[-71.4180278,41.6563601],[-71.4152418,41.6559916],[-71.4122545,41.6569469],[-71.4115731,41.6576735],[-71.409344,41.6573344],[-71.4092895,41.6582803],[-71.4105831,41.6601564],[-71.4097746,41.6619106],[-71.4084814,41.663057],[-71.411015,41.6634004],[-71.4165067,41.6647015],[-71.4211613,41.66722],[-71.4229712,41.6688022],[-71.4240937,41.6705078],[-71.4260659,41.6707985],[-71.4269215,41.669389],[-71.4291082,41.6682341],[-71.431545,41.6673092],[-71.4344493,41.6666416],[-71.4374667,41.6665935],[-71.4397573,41.6670093],[-71.4414183,41.6664994],[-71.4401426,41.6655589],[-71.4409667,41.6640028],[-71.4405231,41.6624939],[-71.441648,41.6604529],[-71.4415607,41.6585328],[-71.4424257,41.6562739],[-71.4442445,41.6543352],[-71.4465442,41.6537136],[-71.4473923,41.6525943],[-71.4489359,41.6519299],[-71.4494166,41.6495338],[-71.4504733,41.6485547],[-71.4501329,41.6472775],[-71.4529747,41.6470711],[-71.4535721,41.6476582],[-71.4552389,41.6472489],[-71.4555035,41.648154],[-71.4546701,41.6489158],[-71.4527568,41.6494054],[-71.4529537,41.6520664],[-71.4520664,41.6532443],[-71.4509529,41.6536495],[-71.4494967,41.6549724],[-71.4485691,41.6565879],[-71.4474392,41.6571064],[-71.4469993,41.6583428],[-71.4454896,41.6590861],[-71.44452,41.660648],[-71.4452755,41.6622663],[-71.4449452,41.6651131],[-71.4463947,41.6673606],[-71.4466829,41.6704831],[-71.4461936,41.6720218],[-71.4443311,41.6729578],[-71.4411554,41.672804],[-71.4409665,41.674317],[-71.4421081,41.6746439],[-71.4438247,41.6740669],[-71.4450006,41.6748363],[-71.4453439,41.6757274],[-71.4474382,41.6780352],[-71.4481334,41.6796763],[-71.4479789,41.681061],[-71.4499299,41.6847241],[-71.4492673,41.684906],[-71.4491297,41.6864976],[-71.4497586,41.6875001],[-71.4468922,41.6897396],[-71.4475096,41.6906018],[-71.447251,41.6918513],[-71.4495673,41.6918969],[-71.4518898,41.6930918],[-71.4516129,41.6940285],[-71.4529752,41.6962315],[-71.4560814,41.6961821],[-71.4579189,41.6966852],[-71.4579549,41.6973499],[-71.455708,41.6970426],[-71.4557269,41.698067],[-71.4531259,41.6980987],[-71.4518693,41.6974523],[-71.4514863,41.6963463],[-71.4497586,41.6958499],[-71.4482783,41.6960726],[-71.4464519,41.6958031],[-71.4454653,41.6932039],[-71.4434272,41.6926437],[-71.4416765,41.6916234],[-71.4412872,41.6905056],[-71.442754,41.6889275],[-71.443857,41.6882696],[-71.441884,41.6871309],[-71.4340405,41.6869507],[-71.4328804,41.686371],[-71.4298996,41.6857892],[-71.4276703,41.6861538],[-71.4242317,41.686125],[-71.4202197,41.6852709],[-71.4160615,41.6841872],[-71.4140385,41.6844118],[-71.4114276,41.6842226],[-71.4077116,41.6842625],[-71.4059504,41.6844926],[-71.4066569,41.6854575],[-71.4123258,41.6869066],[-71.4145283,41.6881488],[-71.4137431,41.6887165],[-71.4110654,41.6888214],[-71.4086466,41.6871663],[-71.4060005,41.6880111],[-71.4046094,41.6889826],[-71.406344,41.6923609],[-71.4077764,41.6934339],[-71.4082154,41.6943779],[-71.4102498,41.6952527],[-71.4124997,41.6965884],[-71.4155761,41.6975642],[-71.4145835,41.6982438],[-71.4124492,41.6978586],[-71.4097573,41.6961005],[-71.4081979,41.6957736],[-71.4066926,41.6964979],[-71.405743,41.6963045],[-71.406353,41.6947802],[-71.4034328,41.6915352],[-71.4037127,41.6899976],[-71.4027996,41.689474],[-71.4022445,41.6876425],[-71.4024471,41.6865308],[-71.4000339,41.6846343],[-71.4000241,41.6839603],[-71.3966687,41.6835966],[-71.3939307,41.684022],[-71.3927731,41.6838973],[-71.3934527,41.6857947],[-71.3934742,41.6870025],[-71.3946252,41.6894287],[-71.3934069,41.6912741],[-71.3946958,41.693413],[-71.391391,41.6928524],[-71.3907985,41.6950529],[-71.3915257,41.6963994],[-71.3890644,41.6972303],[-71.3875595,41.6981291],[-71.3865093,41.6978881],[-71.3848134,41.6991616],[-71.383368,41.699661],[-71.3811799,41.6985909],[-71.3813644,41.6975912],[-71.3831154,41.6978438],[-71.385315,41.6968985],[-71.3864738,41.6952478],[-71.3875569,41.6959006],[-71.3891613,41.6953327],[-71.3883067,41.6943389],[-71.3890282,41.6929073],[-71.3894332,41.6908289],[-71.3909697,41.6901248],[-71.391439,41.6894116],[-71.3908315,41.6882906],[-71.389246,41.6881162],[-71.3903765,41.6861086],[-71.3890123,41.683879],[-71.3895974,41.6828657],[-71.3907163,41.6824219],[-71.3909797,41.6803923],[-71.3907426,41.6781873],[-71.3907705,41.6745022],[-71.3901868,41.6729621],[-71.3904623,41.6723414],[-71.3870398,41.6716789],[-71.3854206,41.6696597],[-71.3832324,41.6685298],[-71.3824728,41.6677955],[-71.3790977,41.6667083],[-71.3779763,41.6668856],[-71.374688,41.6699843],[-71.3733971,41.6732831],[-71.374054,41.6760413],[-71.3732375,41.679811],[-71.3734882,41.6813341],[-71.3728819,41.6821916],[-71.3717304,41.6851421],[-71.3707601,41.6860239],[-71.3687243,41.6871106],[-71.3665643,41.6876319],[-71.3652188,41.6885812],[-71.3650484,41.6897459],[-71.3638076,41.6901784],[-71.3632064,41.6921847],[-71.3647045,41.6923357],[-71.3655142,41.6930621],[-71.3660463,41.694564],[-71.3661572,41.6985309],[-71.3653506,41.7003266],[-71.3654312,41.7013529],[-71.3646338,41.7044572],[-71.3656439,41.7054973],[-71.3665153,41.7113997],[-71.3669582,41.7122292],[-71.3686153,41.7132028],[-71.3701969,41.7132673],[-71.3698993,41.7150767],[-71.368273,41.7147704],[-71.3676564,41.7139335],[-71.3661254,41.7133735],[-71.3640951,41.7141922],[-71.3634481,41.7138439],[-71.3585047,41.7164625],[-71.3573348,41.7178224],[-71.3610856,41.7174216],[-71.3649077,41.7173937],[-71.3701541,41.7183574],[-71.3772783,41.7224076],[-71.3795552,41.7245409],[-71.380617,41.7271278],[-71.3822012,41.7285968],[-71.3857164,41.7304078],[-71.385355,41.731493],[-71.3855615,41.7328904],[-71.3872464,41.7328323],[-71.3893629,41.7318011],[-71.391561,41.7328323],[-71.3892019,41.733974],[-71.389664,41.735372],[-71.3896677,41.7369325],[-71.3890999,41.737826],[-71.3878274,41.7374088],[-71.3848708,41.7383083],[-71.3832917,41.7394083],[-71.3826551,41.7383558],[-71.3830173,41.7372914],[-71.3825472,41.7359186],[-71.3809603,41.735543],[-71.3816151,41.7371755],[-71.3803092,41.7406038],[-71.3782017,41.7429844],[-71.3766057,41.7442691],[-71.380674,41.7454452],[-71.3825944,41.7466093],[-71.3849358,41.7457323],[-71.3861693,41.74457],[-71.3899963,41.7445829],[-71.3875316,41.7454784],[-71.3848909,41.7478261],[-71.3833348,41.747874],[-71.3816307,41.7496238],[-71.3825284,41.7509253],[-71.3822877,41.7537823],[-71.3837906,41.75362],[-71.3855386,41.7550378],[-71.3875881,41.759042],[-71.3889883,41.7636496],[-71.3904359,41.7644003],[-71.391969,41.763864],[-71.394121,41.764038],[-71.395412,41.764837],[-71.395628,41.766684],[-71.399378,41.768264],[-71.400569,41.767796],[-71.401395,41.766552],[-71.402355,41.767524],[-71.403849,41.767845],[-71.407191,41.767404],[-71.410702,41.766554],[-71.414383,41.762953],[-71.416016,41.762897],[-71.41974,41.761626],[-71.420121,41.762175],[-71.418761,41.763813],[-71.420285,41.764876],[-71.421994,41.76458],[-71.422957,41.762971],[-71.426224,41.761025],[-71.427735,41.760546],[-71.430817,41.760788],[-71.431642,41.759658],[-71.433395,41.759613],[-71.432891,41.760892],[-71.433958,41.761362],[-71.434601,41.760116],[-71.435883,41.759677],[-71.437561,41.759827],[-71.438218,41.758102],[-71.440398,41.758053],[-71.440551,41.757419],[-71.439196,41.756607],[-71.439533,41.755305],[-71.441165,41.754712],[-71.440191,41.752918],[-71.441748,41.751342],[-71.443732,41.750624],[-71.445974,41.750556],[-71.446616,41.749072],[-71.445327,41.745607],[-71.444044,41.743349],[-71.443937,41.741293],[-71.444684,41.740155],[-71.446071,41.739975],[-71.449953,41.74003],[-71.451748,41.739456],[-71.453736,41.737428],[-71.453754,41.73624],[-71.45285,41.734335],[-71.453669,41.733004],[-71.455342,41.732365],[-71.460642,41.732342],[-71.482142,41.731825],[-71.4839493,41.7316402],[-71.5120161,41.7307752],[-71.523665,41.730523],[-71.5342854,41.7301464],[-71.5454971,41.7300765],[-71.6684255,41.7273983],[-71.672095,41.7273038],[-71.789703,41.724563],[-71.7878437,41.6698349],[-71.7872473,41.6560544],[-71.787658,41.639918],[-71.788216,41.620976],[-71.788856,41.60766],[-71.7891735,41.5992492]]]},"properties":{"State":"Rhode Island","County":"Kent","id":"relation/191214","long_name":"rhode-island-kent-county","long_county":"Kent County","normalized":"Y"}},
{"type":"Feature","geometry":{"type":"MultiPolygon","coordinates":[[[[-71.351584,41.4508918],[-71.3478611,41.4528947],[-71.346148,41.4523762],[-71.3456565,41.4532466],[-71.34107,41.45379],[-71.33985,41.453363],[-71.339006,41.451902],[-71.337839,41.451829],[-71.33806,41.449531],[-71.3365029,41.4498944],[-71.3347179,41.449511],[-71.3348682,41.4505915],[-71.3362883,41.4505835],[-71.3366317,41.4526238],[-71.3364386,41.4542378],[-71.3379266,41.4546963],[-71.3396795,41.4541574],[-71.3408885,41.4549778],[-71.3409422,41.4558571],[-71.3386063,41.4565193],[-71.3380161,41.4561092],[-71.3360484,41.4563068],[-71.3358355,41.4548999],[-71.3350513,41.4537134],[-71.3339661,41.4536432],[-71.3331871,41.452792],[-71.3313022,41.4530771],[-71.3306699,41.4549463],[-71.3280577,41.4558676],[-71.327159,41.4569027],[-71.3276447,41.4578695],[-71.3271226,41.458537],[-71.3246076,41.4596832],[-71.3219132,41.4594547],[-71.3203675,41.4596816],[-71.3192284,41.4589065],[-71.3197905,41.4566162],[-71.3179777,41.4543944],[-71.3167008,41.4543133],[-71.3153468,41.4559623],[-71.3137016,41.4563008],[-71.3118865,41.4556728],[-71.311068,41.4543967],[-71.3120388,41.4530112],[-71.3120801,41.4512076],[-71.3098436,41.4511664],[-71.3090334,41.4521287],[-71.3077645,41.4518443],[-71.3074223,41.4527403],[-71.3054601,41.4542264],[-71.3043101,41.4544857],[-71.3041175,41.4582204],[-71.3023589,41.4600877],[-71.3034875,41.4607358],[-71.3032074,41.4620683],[-71.303972,41.4629396],[-71.3027237,41.4657208],[-71.30196,41.4667178],[-71.3004043,41.4672895],[-71.297928,41.4673709],[-71.2965114,41.4689187],[-71.2972162,41.4706232],[-71.2972642,41.4728546],[-71.297979,41.474392],[-71.2970044,41.4759704],[-71.296932,41.478226],[-71.296495,41.479773],[-71.296935,41.483766],[-71.297253,41.484986],[-71.2933033,41.486863],[-71.2895625,41.4880032],[-71.2857302,41.4885046],[-71.2827074,41.4884444],[-71.2811316,41.4869541],[-71.2806258,41.4858061],[-71.2795663,41.4848878],[-71.2795444,41.4837657],[-71.2784428,41.4836519],[-71.2776961,41.4810736],[-71.2769491,41.4801823],[-71.2752765,41.479413],[-71.2719079,41.482241],[-71.2695423,41.4833188],[-71.2677188,41.487232],[-71.2676881,41.4884848],[-71.266337,41.4888961],[-71.2627885,41.4886901],[-71.2580292,41.4875685],[-71.253958,41.4863159],[-71.2488243,41.4838216],[-71.2461982,41.4818604],[-71.245314,41.4807512],[-71.2473899,41.4756295],[-71.2477939,41.4729938],[-71.2451464,41.4737073],[-71.2440121,41.4750883],[-71.2409108,41.4754105],[-71.2399063,41.476485],[-71.2401805,41.477988],[-71.239405,41.4800553],[-71.2383169,41.4802148],[-71.2375536,41.4813033],[-71.2374757,41.4847475],[-71.2370414,41.4857483],[-71.2381293,41.4864295],[-71.2395423,41.4857282],[-71.2413619,41.4853799],[-71.2433474,41.4854968],[-71.2454253,41.486355],[-71.2471555,41.4881095],[-71.2475542,41.4893689],[-71.2474276,41.4917729],[-71.2467235,41.494287],[-71.2458232,41.4947174],[-71.2427319,41.4984456],[-71.2404296,41.5023839],[-71.2397794,41.5044015],[-71.2408984,41.5049336],[-71.2395794,41.5071103],[-71.2380787,41.5079747],[-71.237657,41.5090326],[-71.2364572,41.5099288],[-71.236012,41.5116111],[-71.2349925,41.5135921],[-71.2335173,41.5141415],[-71.2328197,41.5168897],[-71.2321929,41.5172533],[-71.2320737,41.5193003],[-71.2308113,41.519614],[-71.2308183,41.520521],[-71.2288135,41.5246434],[-71.2290469,41.5253244],[-71.2279407,41.5283662],[-71.2293041,41.5291793],[-71.228784,41.5306468],[-71.2308713,41.5297619],[-71.2328013,41.5312426],[-71.2346319,41.5321789],[-71.2367525,41.5360003],[-71.2360427,41.539708],[-71.2352306,41.542255],[-71.2362775,41.5434009],[-71.2363435,41.5453664],[-71.2348417,41.548758],[-71.2348952,41.5502326],[-71.2338935,41.5528976],[-71.2347785,41.5539425],[-71.2368496,41.5545443],[-71.2377086,41.5565051],[-71.2375523,41.5587475],[-71.2381989,41.5602473],[-71.2360219,41.5674308],[-71.235969,41.5748454],[-71.2346469,41.5766987],[-71.2354494,41.5774425],[-71.2376464,41.5776305],[-71.2398718,41.5820995],[-71.2413371,41.5834611],[-71.2427116,41.5852221],[-71.2431088,41.5873529],[-71.2428104,41.5907424],[-71.2434445,41.5930299],[-71.2426612,41.5973814],[-71.2426985,41.598804],[-71.2413555,41.6057936],[-71.2408586,41.6064206],[-71.2408957,41.6128421],[-71.240446,41.6163586],[-71.240473,41.6191423],[-71.2385011,41.6206599],[-71.2333568,41.6218905],[-71.2235094,41.6229227],[-71.2197733,41.6240083],[-71.2195051,41.6265646],[-71.2183732,41.6278939],[-71.2190679,41.6302199],[-71.2180425,41.630842],[-71.218581,41.6319192],[-71.2180738,41.6328754],[-71.2187364,41.6360657],[-71.2183912,41.6372094],[-71.2167909,41.6376419],[-71.2155562,41.6388646],[-71.2168765,41.6395913],[-71.2171555,41.6408922],[-71.2181043,41.6421871],[-71.2174478,41.6432695],[-71.2183893,41.6449672],[-71.2200335,41.6450514],[-71.2198404,41.6475668],[-71.221337,41.6492042],[-71.2209454,41.6511924],[-71.2199718,41.6528639],[-71.2195131,41.6544491],[-71.2202829,41.6554411],[-71.2215865,41.6551265],[-71.2228337,41.6528598],[-71.2229732,41.6514429],[-71.2244983,41.650778],[-71.2227505,41.6499558],[-71.2225252,41.6485789],[-71.2243637,41.6488225],[-71.2247139,41.6474906],[-71.2257224,41.646258],[-71.2295954,41.6443046],[-71.2321866,41.6433597],[-71.2322536,41.6416238],[-71.2330816,41.6403236],[-71.2356502,41.6386314],[-71.2390342,41.63816],[-71.2429516,41.6384848],[-71.2486535,41.6394837],[-71.2500384,41.6391207],[-71.2522213,41.6377499],[-71.2531761,41.6377145],[-71.2534744,41.6362232],[-71.2551985,41.6357933],[-71.258412,41.6339515],[-71.2599021,41.6314452],[-71.2620242,41.6272485],[-71.2642701,41.6253656],[-71.2668103,41.6250244],[-71.2693799,41.6242212],[-71.2719319,41.623832],[-71.273639,41.6210498],[-71.2750506,41.6193447],[-71.2733041,41.6154612],[-71.2725069,41.6150682],[-71.2722319,41.613401],[-71.2728794,41.6123615],[-71.2724203,41.6112323],[-71.273629,41.6068847],[-71.2759136,41.6023531],[-71.2770766,41.6012355],[-71.2780016,41.5996249],[-71.2805883,41.593342],[-71.2814103,41.5929898],[-71.2863465,41.5925165],[-71.2857999,41.5911459],[-71.2839277,41.5918907],[-71.2828274,41.5915315],[-71.2842768,41.588614],[-71.285303,41.588688],[-71.2855038,41.5901054],[-71.2866605,41.5898434],[-71.2873531,41.5880888],[-71.2874958,41.585288],[-71.287115,41.5839761],[-71.2863991,41.5836014],[-71.2847066,41.5798229],[-71.2846543,41.5777323],[-71.2853737,41.5763004],[-71.2886028,41.5732245],[-71.2897672,41.5724877],[-71.2944121,41.5712018],[-71.2958423,41.5680193],[-71.2970682,41.5670012],[-71.2988447,41.5643719],[-71.2996209,41.5640724],[-71.3038792,41.5585466],[-71.3062139,41.554099],[-71.3067914,41.5525296],[-71.3079496,41.5516316],[-71.3110955,41.5463158],[-71.3109217,41.5445927],[-71.307992,41.5430631],[-71.3075522,41.5413262],[-71.3085384,41.5396182],[-71.3122615,41.5362141],[-71.3130272,41.536349],[-71.3137483,41.5350028],[-71.3129989,41.5342199],[-71.3132958,41.5323683],[-71.3141173,41.5317163],[-71.3114709,41.5242914],[-71.3120827,41.5232139],[-71.311724,41.5221825],[-71.3151669,41.5198085],[-71.3178265,41.5197837],[-71.3191427,41.5194475],[-71.3213967,41.519978],[-71.3225416,41.5208986],[-71.3239487,41.5231071],[-71.3267436,41.5218592],[-71.3273132,41.5212213],[-71.3278129,41.5191398],[-71.32891,41.5184615],[-71.3274515,41.5178294],[-71.3260617,41.5177317],[-71.3231997,41.5162333],[-71.3224044,41.5149435],[-71.3223795,41.512224],[-71.3227291,41.5115748],[-71.3204087,41.5107613],[-71.3216848,41.5101695],[-71.3227444,41.509096],[-71.3227554,41.5070891],[-71.3239049,41.5062374],[-71.3229674,41.5054418],[-71.3219436,41.5015312],[-71.3221865,41.5008418],[-71.3218085,41.4973111],[-71.3221347,41.4962311],[-71.3215765,41.4946422],[-71.3214666,41.4929205],[-71.321848,41.4921211],[-71.3215358,41.4908329],[-71.323048,41.4907286],[-71.3226373,41.4888285],[-71.3173946,41.4895846],[-71.3170544,41.4883266],[-71.3170845,41.4850697],[-71.3162042,41.4824946],[-71.3169314,41.4793158],[-71.3162106,41.4774682],[-71.3187046,41.4775155],[-71.3198251,41.4766836],[-71.3241312,41.4757272],[-71.3265356,41.4742799],[-71.3277372,41.4741759],[-71.3299254,41.4724823],[-71.3344557,41.4705099],[-71.336725,41.4692055],[-71.3376009,41.4696034],[-71.3365778,41.4706743],[-71.3365325,41.4717445],[-71.3377123,41.4729556],[-71.3365233,41.4750407],[-71.3350775,41.4763096],[-71.3353265,41.4794475],[-71.3367718,41.4808395],[-71.3381784,41.4808777],[-71.3389213,41.4792227],[-71.341196,41.477153],[-71.3412226,41.47662],[-71.344702,41.473425],[-71.346308,41.47253],[-71.3479142,41.4706937],[-71.353139,41.46953],[-71.35396,41.46843],[-71.355717,41.467346],[-71.356322,41.466392],[-71.3577991,41.4658465],[-71.359195,41.464408],[-71.36093,41.465142],[-71.361553,41.464781],[-71.361829,41.463259],[-71.363426,41.461578],[-71.363108,41.460337],[-71.362304,41.460011],[-71.360445,41.4603538],[-71.3588339,41.4596928],[-71.358506,41.45711],[-71.357461,41.455899],[-71.357562,41.453817],[-71.357166,41.451453],[-71.3561889,41.4510009],[-71.356348,41.450088],[-71.35551,41.448967],[-71.354016,41.449722],[-71.35168,41.449764],[-71.351584,41.4508918]]],[[[-71.4002423,41.4615587],[-71.4009107,41.4594025],[-71.4004994,41.4576204],[-71.4009476,41.4546045],[-71.4001313,41.4532552],[-71.4004456,41.4524827],[-71.4003581,41.4501968],[-71.399683,41.4486988],[-71.3978346,41.4498218],[-71.3961037,41.4518778],[-71.3905307,41.4545492],[-71.389929,41.4558819],[-71.3898471,41.4578573],[-71.3902708,41.4582523],[-71.3892529,41.4606164],[-71.3896536,41.4633305],[-71.3903117,41.4647148],[-71.389653,41.4656753],[-71.3886218,41.465945],[-71.3850491,41.4642221],[-71.3839449,41.4642417],[-71.381991,41.4674345],[-71.3815816,41.4698183],[-71.3817284,41.4715334],[-71.3830979,41.4749795],[-71.3842274,41.4768434],[-71.384781,41.4806982],[-71.3845466,41.4821031],[-71.3853246,41.4853906],[-71.3864018,41.4865813],[-71.3861314,41.4876666],[-71.3846856,41.4886811],[-71.3833489,41.4888924],[-71.3809389,41.4885051],[-71.3792704,41.4863981],[-71.3780877,41.4826796],[-71.3780687,41.4791964],[-71.3768242,41.4782962],[-71.3766277,41.4769071],[-71.3758638,41.4755612],[-71.3765708,41.474874],[-71.3753882,41.4740431],[-71.3727414,41.4752035],[-71.3729135,41.4767591],[-71.3718031,41.4777174],[-71.3705349,41.4780462],[-71.3674997,41.4778357],[-71.3667325,41.4770924],[-71.3646651,41.4767176],[-71.3625167,41.4784536],[-71.3616762,41.4779905],[-71.3595759,41.4779491],[-71.358232,41.4771596],[-71.3570739,41.4788471],[-71.3550576,41.4797994],[-71.354681,41.4803991],[-71.3564274,41.4813344],[-71.3570429,41.4809446],[-71.3585959,41.4815333],[-71.3606565,41.4832936],[-71.3601069,41.484608],[-71.3608539,41.4854273],[-71.3604196,41.486275],[-71.3625007,41.4876121],[-71.3631041,41.4894196],[-71.3647929,41.4912696],[-71.3668814,41.4947007],[-71.3667504,41.4976951],[-71.366081,41.4990837],[-71.3635661,41.5014107],[-71.3596179,41.5034035],[-71.358854,41.5046441],[-71.3577793,41.5081469],[-71.358366,41.5097188],[-71.3593791,41.5106637],[-71.3605852,41.51059],[-71.3624167,41.5098284],[-71.3645211,41.5107979],[-71.3661611,41.5129839],[-71.3663657,41.513756],[-71.3652165,41.5173778],[-71.3638574,41.5184777],[-71.3628361,41.5207119],[-71.3627756,41.5220362],[-71.3620522,41.5225778],[-71.3619175,41.5254781],[-71.3613857,41.5260421],[-71.3627028,41.5338014],[-71.3634042,41.5343003],[-71.3648052,41.5380574],[-71.365187,41.5400278],[-71.3648602,41.5414576],[-71.3622901,41.5441011],[-71.3601053,41.5485554],[-71.3599497,41.5548212],[-71.3604753,41.5566455],[-71.3607064,41.5598955],[-71.3627653,41.5650806],[-71.3634091,41.5699753],[-71.3645886,41.5714952],[-71.3663293,41.5723572],[-71.3714844,41.5735868],[-71.3721826,41.5735199],[-71.3755136,41.571141],[-71.3771603,41.569439],[-71.3789655,41.5668806],[-71.3813101,41.5614478],[-71.3813947,41.5590839],[-71.384421,41.5577378],[-71.3848482,41.5555786],[-71.3856359,41.5536057],[-71.3858145,41.551708],[-71.3855303,41.5500598],[-71.3857659,41.5477946],[-71.3863958,41.5464028],[-71.3859937,41.5445951],[-71.3864153,41.5423343],[-71.3861469,41.5407146],[-71.3854739,41.5399487],[-71.3857367,41.5387597],[-71.3869222,41.5368756],[-71.3882087,41.5357499],[-71.3894663,41.5332559],[-71.3897664,41.5312536],[-71.3917164,41.526191],[-71.3923802,41.5232452],[-71.3924787,41.5179158],[-71.3912283,41.5145537],[-71.3866674,41.5120015],[-71.3842129,41.5102558],[-71.380615,41.5067929],[-71.3789097,41.5060406],[-71.3785127,41.5052521],[-71.3796636,41.5040111],[-71.3819184,41.5025623],[-71.383677,41.5001301],[-71.3846798,41.4975765],[-71.3841416,41.4943427],[-71.3842552,41.4928003],[-71.3808343,41.4926145],[-71.3812433,41.4897823],[-71.3844692,41.48933],[-71.3859442,41.4888355],[-71.3866456,41.4895705],[-71.3865288,41.4919557],[-71.3878608,41.4921672],[-71.3888207,41.4929473],[-71.3908507,41.4919289],[-71.3934878,41.4918206],[-71.3961395,41.4922022],[-71.3971601,41.4933812],[-71.3985371,41.4932082],[-71.399814,41.4922348],[-71.4004091,41.4910108],[-71.4003485,41.489069],[-71.3981928,41.4877177],[-71.3974619,41.4862681],[-71.3983118,41.48514],[-71.3969321,41.4825203],[-71.3971049,41.4807923],[-71.3966681,41.479772],[-71.3967682,41.477973],[-71.3973547,41.4766273],[-71.3974883,41.473733],[-71.3966031,41.4714709],[-71.394783,41.4683042],[-71.3945228,41.46702],[-71.3953607,41.4652986],[-71.3971488,41.4643071],[-71.3988663,41.4638638],[-71.3997846,41.4630211],[-71.4002423,41.4615587]]],[[[-71.404497,41.496607],[-71.4031988,41.4991342],[-71.4017558,41.5005404],[-71.4006856,41.5000001],[-71.3986471,41.5016131],[-71.3969734,41.5033507],[-71.3966677,41.505255],[-71.3982993,41.506726],[-71.4008929,41.5066689],[-71.4023834,41.5052289],[-71.4039451,41.5047529],[-71.4031454,41.5037195],[-71.404029,41.5000422],[-71.404497,41.496607]]],[[[-71.3707424,41.5983353],[-71.3703441,41.5980345],[-71.3648738,41.6022235],[-71.3636494,41.6039816],[-71.3643767,41.6046719],[-71.3644921,41.6065379],[-71.3668101,41.6060927],[-71.3675181,41.604821],[-71.3676047,41.6036472],[-71.3717493,41.599869],[-71.3715458,41.5985409],[-71.3707424,41.5983353]]],[[[-71.3544631,41.6558519],[-71.3546442,41.6584927],[-71.3553216,41.6598151],[-71.3588047,41.6608599],[-71.3609378,41.6610486],[-71.3624971,41.6604023],[-71.3662553,41.6607158],[-71.3660928,41.6590741],[-71.3642438,41.6568392],[-71.3631821,41.6538333],[-71.3628327,41.6521355],[-71.3621209,41.6509999],[-71.3601654,41.6502871],[-71.3590295,41.6512725],[-71.3572573,41.6518472],[-71.3564205,41.6526529],[-71.3544631,41.6558519]]],[[[-71.3271897,41.4523357],[-71.3253156,41.4530928],[-71.3244516,41.4539894],[-71.3261131,41.454338],[-71.3271631,41.4531027],[-71.3271897,41.4523357]]],[[[-71.3268548,41.4901658],[-71.3270946,41.4917881],[-71.3285687,41.4915995],[-71.3281781,41.4892459],[-71.3286092,41.4871755],[-71.3284971,41.4849445],[-71.3278151,41.482846],[-71.3270666,41.4828717],[-71.3269828,41.4864871],[-71.32611,41.4875447],[-71.326737,41.488793],[-71.3268548,41.4901658]]],[[[-71.3398243,41.4952997],[-71.33946,41.4965236],[-71.3416701,41.4978575],[-71.3428074,41.4965557],[-71.342646,41.4953609],[-71.3398243,41.4952997]]],[[[-71.3247361,41.5132653],[-71.3270385,41.5144756],[-71.3295569,41.5135159],[-71.3302748,41.5118973],[-71.3302524,41.5093737],[-71.3307081,41.5073536],[-71.3274314,41.5050849],[-71.3266811,41.5067755],[-71.3252818,41.5065025],[-71.3241261,41.510457],[-71.3247361,41.5132653]]],[[[-71.3454273,41.5302903],[-71.3454681,41.5295341],[-71.3430424,41.5293885],[-71.3426663,41.5316154],[-71.3428326,41.5339814],[-71.3433782,41.5358858],[-71.3447473,41.5379889],[-71.3459514,41.5364203],[-71.3458987,41.533279],[-71.3454267,41.5318446],[-71.3454273,41.5302903]]],[[[-71.3159756,41.6305096],[-71.3174573,41.6313817],[-71.3216127,41.6312796],[-71.3223148,41.6317788],[-71.3255614,41.6318553],[-71.3288381,41.6324167],[-71.3336508,41.6341401],[-71.335046,41.634865],[-71.336215,41.6363793],[-71.3382407,41.6369748],[-71.3396453,41.6379729],[-71.3409724,41.6397937],[-71.3429096,41.6398329],[-71.3441148,41.6412241],[-71.3440125,41.6429314],[-71.342228,41.6446727],[-71.3385645,41.6461629],[-71.3386024,41.646978],[-71.3362152,41.648172],[-71.3354991,41.646898],[-71.3359196,41.6460996],[-71.3343888,41.644659],[-71.3347106,41.6423659],[-71.3330155,41.6428309],[-71.333112,41.644683],[-71.3347643,41.6471684],[-71.3376503,41.6502789],[-71.3390987,41.65371],[-71.3388949,41.6555297],[-71.3376825,41.6575096],[-71.3390451,41.6588162],[-71.3433903,41.6613171],[-71.3442378,41.6621667],[-71.3442378,41.6640502],[-71.344785,41.6668635],[-71.348229,41.6655009],[-71.3470703,41.6640022],[-71.3473278,41.6624953],[-71.348862,41.6609724],[-71.3510614,41.6597861],[-71.3512438,41.6587922],[-71.3500207,41.657205],[-71.3488512,41.6570928],[-71.3460081,41.6555457],[-71.343637,41.6548243],[-71.3432508,41.6534134],[-71.3445812,41.6525076],[-71.3446241,41.651281],[-71.3434117,41.6502228],[-71.3448387,41.6494051],[-71.3462012,41.6499984],[-71.3456219,41.6510566],[-71.347717,41.6529525],[-71.3479844,41.6508935],[-71.3470472,41.6491064],[-71.3482331,41.6483216],[-71.3510016,41.649163],[-71.3530487,41.6489931],[-71.3535762,41.6476702],[-71.3522917,41.6459012],[-71.3529446,41.6445596],[-71.3526414,41.642486],[-71.3528748,41.6394996],[-71.3518486,41.6370143],[-71.3511771,41.6346376],[-71.3492858,41.6323893],[-71.3471443,41.6315953],[-71.3452672,41.6325958],[-71.3429826,41.6323832],[-71.3379763,41.631221],[-71.3325886,41.6293592],[-71.3279283,41.6266873],[-71.3252969,41.6237327],[-71.3262696,41.6205615],[-71.3264095,41.6171938],[-71.3278548,41.6145977],[-71.3296338,41.6122843],[-71.3301647,41.610919],[-71.329342,41.6098655],[-71.3295132,41.6088388],[-71.3306636,41.6073283],[-71.3337695,41.6054553],[-71.3346832,41.6026853],[-71.3344083,41.601651],[-71.3368531,41.5950502],[-71.3363436,41.5878781],[-71.3354453,41.5854394],[-71.3335644,41.5837472],[-71.3313412,41.5810247],[-71.3300486,41.5800104],[-71.3281823,41.5791075],[-71.3265602,41.5787753],[-71.3251634,41.5790054],[-71.3238532,41.5802248],[-71.3227701,41.5803498],[-71.3220221,41.5813827],[-71.3207775,41.5815864],[-71.3182896,41.5825979],[-71.3162101,41.5837728],[-71.3162995,41.5843977],[-71.3152337,41.5868743],[-71.3135245,41.588176],[-71.311734,41.5914242],[-71.3103744,41.5944159],[-71.3095473,41.5950014],[-71.3088248,41.5971328],[-71.3079183,41.5974698],[-71.307671,41.599328],[-71.3060729,41.6012084],[-71.3051405,41.6046192],[-71.3027508,41.605633],[-71.3044219,41.6076875],[-71.3037848,41.6105583],[-71.3039769,41.6156713],[-71.3044588,41.6181988],[-71.3043108,41.6189241],[-71.3065781,41.6222947],[-71.3076454,41.62496],[-71.3083718,41.6260824],[-71.3139582,41.6277124],[-71.3159756,41.6305096]]],[[[-71.1988281,41.4497405],[-71.1973298,41.4495989],[-71.1984108,41.4513272],[-71.1995191,41.4505943],[-71.1988281,41.4497405]]],[[[-71.1204946,41.4974252],[-71.122443,41.522125],[-71.1262877,41.5515633],[-71.1268153,41.5549439],[-71.1316195,41.5937162],[-71.138347,41.6036774],[-71.1403081,41.6048495],[-71.1419579,41.6125329],[-71.1401849,41.6238689],[-71.1353068,41.6284884],[-71.1343536,41.6440466],[-71.1325581,41.6603662],[-71.161737,41.6656019],[-71.1621956,41.6657909],[-71.1761197,41.6682485],[-71.1757837,41.6714928],[-71.1954793,41.6750899],[-71.1964443,41.6737958],[-71.1968732,41.6709986],[-71.1980364,41.6684652],[-71.1996496,41.6666635],[-71.2018248,41.6624184],[-71.2034455,41.6605912],[-71.2056327,41.6574391],[-71.2065554,41.6557317],[-71.2066171,41.6544391],[-71.2081634,41.6525191],[-71.2082959,41.6509923],[-71.207234,41.6503005],[-71.2077758,41.6492564],[-71.2087575,41.6489838],[-71.2093324,41.6475015],[-71.2106014,41.6419285],[-71.2115951,41.6391326],[-71.2109971,41.6386534],[-71.2118267,41.6346539],[-71.2109774,41.6322603],[-71.211264,41.6298025],[-71.2131549,41.6274548],[-71.2138858,41.625899],[-71.2133709,41.6247902],[-71.2118098,41.6233526],[-71.210959,41.6206863],[-71.2082237,41.6184021],[-71.2111814,41.6188364],[-71.212188,41.6185945],[-71.2119412,41.6146643],[-71.2123811,41.6122178],[-71.2120324,41.6088206],[-71.2086354,41.6025662],[-71.2073683,41.6018013],[-71.2070955,41.5999259],[-71.2046564,41.5987724],[-71.2035567,41.5964541],[-71.2014136,41.5953464],[-71.2023819,41.5936072],[-71.2034842,41.5926023],[-71.2049139,41.593184],[-71.2039536,41.5941228],[-71.2043345,41.5949572],[-71.2057381,41.5942899],[-71.209036,41.5944894],[-71.2099172,41.5933227],[-71.2093042,41.591742],[-71.2108948,41.5893496],[-71.2140441,41.5871995],[-71.2149455,41.5859659],[-71.2139414,41.5849498],[-71.2140789,41.5838686],[-71.2125285,41.582865],[-71.2112694,41.5827422],[-71.2089695,41.5818351],[-71.2081663,41.5799566],[-71.2082796,41.5785693],[-71.2089842,41.5781275],[-71.2085125,41.5755085],[-71.2088249,41.5725098],[-71.2085264,41.5707499],[-71.2095859,41.568796],[-71.2101117,41.5671259],[-71.2100996,41.563442],[-71.2102871,41.5622455],[-71.2101954,41.5588783],[-71.2116678,41.5581502],[-71.2146563,41.5583992],[-71.2161,41.5591988],[-71.2167028,41.5620055],[-71.2183345,41.5627533],[-71.2197947,41.5628134],[-71.2210647,41.5613058],[-71.2199662,41.5593191],[-71.2163989,41.5587126],[-71.2137956,41.5569321],[-71.2135205,41.5549323],[-71.2149487,41.5540266],[-71.2156423,41.5526263],[-71.2154906,41.5496155],[-71.2160102,41.5487927],[-71.2158853,41.5469184],[-71.2139374,41.5462943],[-71.213827,41.5457758],[-71.2114534,41.5452947],[-71.2081836,41.5441063],[-71.2062568,41.5437495],[-71.2065402,41.5430388],[-71.2053499,41.5417835],[-71.2048513,41.5403783],[-71.2051138,41.5389634],[-71.2061955,41.5374254],[-71.2066504,41.5341152],[-71.2082517,41.5292164],[-71.2078228,41.5268904],[-71.2048719,41.5235897],[-71.2044516,41.5218078],[-71.2050998,41.5202484],[-71.2041329,41.5184952],[-71.2017438,41.5169758],[-71.2007138,41.5151385],[-71.2007693,41.5134007],[-71.202441,41.5123419],[-71.2026483,41.5100562],[-71.203397,41.5079649],[-71.2042221,41.5068724],[-71.2053915,41.5040568],[-71.2062549,41.4999724],[-71.2059013,41.4994806],[-71.2036742,41.499111],[-71.2007504,41.4977432],[-71.1995134,41.4964833],[-71.1989893,41.4919184],[-71.1973821,41.4907138],[-71.195355,41.4896323],[-71.1952023,41.4884845],[-71.1939298,41.4878627],[-71.1907572,41.4855805],[-71.1898774,41.4840895],[-71.1899955,41.4825472],[-71.190906,41.4819795],[-71.1893635,41.4789655],[-71.1904621,41.4771797],[-71.1906243,41.4758612],[-71.1919485,41.4744038],[-71.1915313,41.4715394],[-71.1925349,41.470196],[-71.1924403,41.4666485],[-71.1917742,41.4651866],[-71.1927769,41.4637744],[-71.1945138,41.4635508],[-71.1951286,41.4647251],[-71.1967926,41.4644473],[-71.1960881,41.4616588],[-71.1949785,41.4593526],[-71.1945707,41.4562775],[-71.1935201,41.4566025],[-71.1921758,41.4584113],[-71.1882224,41.4586622],[-71.1865145,41.4602651],[-71.1838107,41.4607439],[-71.1803527,41.4601357],[-71.1791234,41.4611611],[-71.1764106,41.4607033],[-71.1740874,41.461706],[-71.1726904,41.4608151],[-71.1704504,41.4606641],[-71.1686064,41.4616581],[-71.1697563,41.4641925],[-71.1698724,41.4667587],[-71.1704042,41.4682874],[-71.1694493,41.4703588],[-71.1671342,41.471647],[-71.1629091,41.4723277],[-71.1617327,41.4743544],[-71.1604025,41.4754062],[-71.1580928,41.4763262],[-71.1521452,41.4768036],[-71.1503478,41.476377],[-71.148695,41.4775336],[-71.1469374,41.4780567],[-71.1461755,41.4789147],[-71.1466154,41.4802701],[-71.1463117,41.4812552],[-71.1442358,41.4818887],[-71.1419294,41.482014],[-71.1394164,41.4836348],[-71.1397813,41.4849621],[-71.1408232,41.4867062],[-71.1413569,41.4890503],[-71.1412389,41.4905291],[-71.1397807,41.4915124],[-71.138202,41.4932218],[-71.1369628,41.4939531],[-71.1312282,41.4959139],[-71.1263198,41.4969746],[-71.1204946,41.4974252]]],[[[-71.2989843,41.5799945],[-71.2980402,41.5807872],[-71.2978512,41.5825549],[-71.2992812,41.5839468],[-71.2993986,41.5849521],[-71.3004106,41.585345],[-71.3011786,41.5830941],[-71.3005952,41.5822815],[-71.3007327,41.5811197],[-71.2989843,41.5799945]]],[[[-71.2795598,41.6478764],[-71.2813394,41.6481371],[-71.281829,41.6457104],[-71.2833347,41.6435368],[-71.2847121,41.643022],[-71.2857939,41.6418143],[-71.285168,41.6399848],[-71.2855594,41.6373062],[-71.2846469,41.6376873],[-71.2811482,41.6382918],[-71.2764829,41.6376764],[-71.2754378,41.6378632],[-71.2723924,41.6371428],[-71.2725757,41.6384279],[-71.2752251,41.6383543],[-71.2765365,41.6411015],[-71.2772224,41.6452015],[-71.2782109,41.6470162],[-71.2795598,41.6478764]]],[[[-71.286818,41.6457094],[-71.2857387,41.6453016],[-71.2852723,41.6470173],[-71.2868158,41.6468406],[-71.286818,41.6457094]]]]},"properties":{"State":"Rhode Island","County":"Newport","id":"relation/191205","long_name":"rhode-island-newport-county","long_county":"Newport County","normalized":"Y"}},
{"type":"Feature","geometry":{"type":"Polygon","coordinates":[[[-71.789703,41.724563],[-71.672095,41.7273038],[-71.6684255,41.7273983],[-71.5454971,41.7300765],[-71.5342854,41.7301464],[-71.523665,41.730523],[-71.5120161,41.7307752],[-71.4839493,41.7316402],[-71.482142,41.731825],[-71.460642,41.732342],[-71.455342,41.732365],[-71.453669,41.733004],[-71.45285,41.734335],[-71.453754,41.73624],[-71.453736,41.737428],[-71.451748,41.739456],[-71.449953,41.74003],[-71.446071,41.739975],[-71.444684,41.740155],[-71.443937,41.741293],[-71.444044,41.743349],[-71.445327,41.745607],[-71.446616,41.749072],[-71.445974,41.750556],[-71.443732,41.750624],[-71.441748,41.751342],[-71.440191,41.752918],[-71.441165,41.754712],[-71.439533,41.755305],[-71.439196,41.756607],[-71.440551,41.757419],[-71.440398,41.758053],[-71.438218,41.758102],[-71.437561,41.759827],[-71.435883,41.759677],[-71.434601,41.760116],[-71.433958,41.761362],[-71.432891,41.760892],[-71.433395,41.759613],[-71.431642,41.759658],[-71.430817,41.760788],[-71.427735,41.760546],[-71.426224,41.761025],[-71.422957,41.762971],[-71.421994,41.76458],[-71.420285,41.764876],[-71.418761,41.763813],[-71.420121,41.762175],[-71.41974,41.761626],[-71.416016,41.762897],[-71.414383,41.762953],[-71.410702,41.766554],[-71.407191,41.767404],[-71.403849,41.767845],[-71.402355,41.767524],[-71.401395,41.766552],[-71.400569,41.767796],[-71.399378,41.768264],[-71.395628,41.766684],[-71.395412,41.764837],[-71.394121,41.764038],[-71.391969,41.763864],[-71.3904359,41.7644003],[-71.3879965,41.765663],[-71.3864443,41.7603474],[-71.3856067,41.7610978],[-71.3854847,41.7635063],[-71.3860479,41.7649119],[-71.3861782,41.7675694],[-71.3878404,41.7676005],[-71.388909,41.768189],[-71.3896262,41.7694628],[-71.3890747,41.770232],[-71.3884152,41.7737117],[-71.3900222,41.775681],[-71.3910483,41.7775404],[-71.3910813,41.7797709],[-71.3919032,41.7811546],[-71.3916875,41.7828487],[-71.3906866,41.7837109],[-71.3853554,41.7853681],[-71.3835884,41.7856524],[-71.3810269,41.7854284],[-71.3795842,41.786414],[-71.3798747,41.7887151],[-71.3831062,41.7927997],[-71.3921574,41.8002211],[-71.3930495,41.8004676],[-71.3964875,41.7995899],[-71.3975081,41.8003925],[-71.3971009,41.8017969],[-71.3988701,41.8033971],[-71.3991764,41.804774],[-71.3999663,41.8053016],[-71.4006873,41.8071676],[-71.4032313,41.8113442],[-71.4013548,41.8122621],[-71.403069,41.8152892],[-71.4009844,41.8161767],[-71.3996207,41.8145815],[-71.396732,41.8171732],[-71.3949142,41.8177145],[-71.3926511,41.8176686],[-71.3907923,41.817281],[-71.390261,41.8167418],[-71.3907369,41.8154501],[-71.3915328,41.8150608],[-71.3914109,41.8135128],[-71.3921746,41.812045],[-71.3935328,41.81038],[-71.3903186,41.8073582],[-71.3882519,41.8081888],[-71.3874389,41.8076132],[-71.3862229,41.80513],[-71.3830927,41.8021639],[-71.3790246,41.7969485],[-71.3796479,41.7958484],[-71.3778689,41.7954424],[-71.3733991,41.7911603],[-71.3737649,41.7901787],[-71.3728926,41.7896384],[-71.3719135,41.791299],[-71.3705585,41.7911575],[-71.3711426,41.7887207],[-71.3702145,41.7857661],[-71.3722028,41.7839313],[-71.3706139,41.7807531],[-71.3687994,41.7815822],[-71.3664373,41.7794459],[-71.3655407,41.7778588],[-71.3650822,41.7761516],[-71.3661098,41.7757773],[-71.3664511,41.7738582],[-71.3656546,41.772102],[-71.3675385,41.7687125],[-71.3685291,41.7665458],[-71.3697656,41.7650006],[-71.3672827,41.7654002],[-71.3647333,41.7647081],[-71.3621144,41.7618772],[-71.3613671,41.7598623],[-71.3611954,41.7580335],[-71.3613373,41.7541703],[-71.3622737,41.7513314],[-71.3603753,41.7496393],[-71.3596319,41.747433],[-71.3598356,41.7454856],[-71.3589285,41.7448656],[-71.3557927,41.7454394],[-71.3560083,41.74715],[-71.3568921,41.748541],[-71.3558367,41.7500477],[-71.3576281,41.7513069],[-71.3592697,41.7530686],[-71.3587302,41.7550652],[-71.3574468,41.7535463],[-71.3552877,41.7539649],[-71.3554752,41.7554058],[-71.3550389,41.758],[-71.3535657,41.7587128],[-71.3521066,41.7577111],[-71.3537482,41.7562093],[-71.3523899,41.7551363],[-71.3527465,41.754068],[-71.3517719,41.7529019],[-71.322695,41.772714],[-71.3225573,41.7727895],[-71.320652,41.774105],[-71.3195672,41.7748613],[-71.3177435,41.7761443],[-71.3284718,41.7806942],[-71.3297355,41.7819842],[-71.3296876,41.7830323],[-71.3305191,41.7852845],[-71.3294008,41.7883823],[-71.3305695,41.7885672],[-71.3326349,41.7900354],[-71.3322108,41.7909566],[-71.3344477,41.7946739],[-71.3355254,41.7954042],[-71.3388382,41.7959352],[-71.3404955,41.7970738],[-71.3411777,41.7998407],[-71.3405964,41.8008994],[-71.3405106,41.8032258],[-71.3390882,41.8057827],[-71.3396749,41.8063397],[-71.3393318,41.8085269],[-71.3475459,41.8232462],[-71.3451984,41.8276768],[-71.3354167,41.8356453],[-71.3425502,41.8446565],[-71.3340402,41.862604],[-71.3408902,41.8818039],[-71.3387869,41.8985926],[-71.381463,41.8935458],[-71.3814398,41.9148205],[-71.3813636,41.9850832],[-71.3813271,42.0189359],[-71.4567437,42.0178717],[-71.4982567,42.0172722],[-71.5278436,42.0150848],[-71.5531017,42.0144726],[-71.5636582,42.0142771],[-71.6067008,42.0132805],[-71.6808666,42.0115301],[-71.7713744,42.0094824],[-71.799188,42.008053],[-71.799195,42.004218],[-71.798815,41.989097],[-71.798579,41.9719],[-71.798298,41.95762],[-71.798068,41.95373],[-71.798038,41.945079],[-71.797883,41.931011],[-71.7969,41.906897],[-71.796434,41.89172],[-71.795863,41.877688],[-71.795286,41.865713],[-71.79468,41.854409],[-71.794173,41.841416],[-71.79344,41.825637],[-71.793097,41.814729],[-71.792894,41.812521],[-71.792593,41.804016],[-71.792124,41.795398],[-71.79194,41.789614],[-71.791066,41.77018],[-71.790554,41.750117],[-71.790327,41.747883],[-71.789768,41.731556],[-71.789703,41.724563]]]},"properties":{"State":"Rhode Island","County":"Providence","id":"relation/191206","long_name":"rhode-island-providence-county","long_county":"Providence County","normalized":"Y"}},
{"type":"Feature","geometry":{"type":"MultiPolygon","coordinates":[[[[-71.888313,41.327507],[-71.8897917,41.3280395],[-71.8916812,41.3298071],[-71.8924187,41.3290635],[-71.8892467,41.3276056],[-71.88524,41.3251971],[-71.8851069,41.3258426],[-71.888313,41.327507]]],[[[-71.7686439,41.3325859],[-71.7689766,41.3337165],[-71.7744715,41.3327935],[-71.7717985,41.331269],[-71.7713337,41.3320914],[-71.7686439,41.3325859]]],[[[-71.7891735,41.5992492],[-71.789462,41.594328],[-71.790813,41.563371],[-71.790972,41.561451],[-71.791033,41.556177],[-71.791653,41.539719],[-71.792485,41.519772],[-71.79315,41.505747],[-71.793222,41.505439],[-71.794052,41.487902],[-71.795647,41.459984],[-71.796296,41.451516],[-71.796872,41.437587],[-71.796979,41.433703],[-71.797747,41.416834],[-71.799268,41.415971],[-71.8016068,41.4155799],[-71.8031208,41.4172887],[-71.8068464,41.4166346],[-71.8112124,41.4189162],[-71.8170264,41.4199192],[-71.8199803,41.4195595],[-71.8238517,41.4170841],[-71.8243459,41.4156381],[-71.8253329,41.4147172],[-71.8275022,41.414539],[-71.8344109,41.4115286],[-71.8363359,41.4122719],[-71.8395871,41.4123761],[-71.8426279,41.4100795],[-71.8424448,41.4079336],[-71.843539,41.4054029],[-71.8430841,41.4044565],[-71.8414276,41.4028664],[-71.8410671,41.4005293],[-71.8412645,41.3991387],[-71.842449,41.3965761],[-71.8420198,41.3947798],[-71.8406379,41.3936566],[-71.8387419,41.391057],[-71.834557,41.389181],[-71.83313,41.387839],[-71.832591,41.386385],[-71.833166,41.384731],[-71.833527,41.382264],[-71.832082,41.380139],[-71.830831,41.379137],[-71.830797,41.378348],[-71.832134,41.377059],[-71.832656,41.37585],[-71.831652,41.372226],[-71.832069,41.369863],[-71.832776,41.369169],[-71.837034,41.366286],[-71.837633,41.365499],[-71.8378329,41.3612637],[-71.8368604,41.3614295],[-71.8362047,41.3587662],[-71.8355074,41.357561],[-71.8356082,41.3562758],[-71.8348908,41.3559436],[-71.8341546,41.3541684],[-71.8309541,41.3534443],[-71.8294628,41.3506661],[-71.8287415,41.3499535],[-71.8264725,41.3490853],[-71.8276284,41.3471532],[-71.8292578,41.3462443],[-71.8279494,41.3452889],[-71.8273969,41.343866],[-71.8263042,41.3431118],[-71.8268055,41.3421581],[-71.8266705,41.3402366],[-71.8271329,41.3384029],[-71.8260806,41.3382612],[-71.8266205,41.336168],[-71.8252843,41.335762],[-71.8264701,41.3345962],[-71.8275826,41.3358762],[-71.827427,41.3367641],[-71.8280193,41.3382354],[-71.830518,41.3378817],[-71.8304173,41.3369557],[-71.82905,41.3364897],[-71.8295832,41.3347711],[-71.8324103,41.3348358],[-71.8320787,41.335949],[-71.8350173,41.3360756],[-71.8360901,41.3342402],[-71.8377671,41.333685],[-71.8394059,41.3325508],[-71.8447187,41.3300866],[-71.8474105,41.3279438],[-71.8474238,41.3261177],[-71.8439297,41.3268416],[-71.8426718,41.3268668],[-71.8411486,41.3279496],[-71.8406859,41.3262916],[-71.8434911,41.3241643],[-71.8448613,41.3246222],[-71.8476112,41.3230491],[-71.8479651,41.3231791],[-71.8511443,41.3212957],[-71.8500524,41.3209089],[-71.8505909,41.31952],[-71.852186,41.3189813],[-71.8538513,41.3192745],[-71.8556296,41.3201463],[-71.8564166,41.3189622],[-71.8579873,41.3182898],[-71.858263,41.3171389],[-71.8557799,41.3170521],[-71.8553089,41.3146684],[-71.8570689,41.3145051],[-71.8573438,41.31547],[-71.8587846,41.3151103],[-71.8595331,41.3133639],[-71.8573784,41.3127083],[-71.856866,41.312146],[-71.8578129,41.310646],[-71.8588396,41.3099983],[-71.8604739,41.3102966],[-71.8618945,41.3113697],[-71.8617879,41.3123013],[-71.8641097,41.3117936],[-71.8683419,41.3117249],[-71.8720987,41.3113699],[-71.878833,41.3094119],[-71.8801044,41.3083266],[-71.8820025,41.308585],[-71.8826619,41.3098823],[-71.8844462,41.3077131],[-71.886195,41.307423],[-71.8856146,41.306005],[-71.8840014,41.3056434],[-71.8764692,41.3089716],[-71.8721683,41.3102932],[-71.8691814,41.3107574],[-71.8654048,41.310925],[-71.8637287,41.3107057],[-71.8630225,41.3100338],[-71.8600359,41.3095101],[-71.8583732,41.3086263],[-71.8569746,41.3062709],[-71.8546242,41.3078582],[-71.8452853,41.3118786],[-71.842042,41.3131124],[-71.8327787,41.3162885],[-71.8272837,41.317455],[-71.8226903,41.3187579],[-71.8188491,41.3195651],[-71.7985651,41.3235657],[-71.795925,41.3237771],[-71.790436,41.3247055],[-71.7844816,41.3262187],[-71.7746186,41.3280091],[-71.7683031,41.3287893],[-71.7656432,41.328953],[-71.7631328,41.3286804],[-71.7629168,41.3297753],[-71.7634584,41.3307479],[-71.7671009,41.3352105],[-71.7677692,41.3354437],[-71.7687092,41.3337775],[-71.7681001,41.3331611],[-71.7691632,41.3321919],[-71.7715304,41.3317722],[-71.7729274,41.3305753],[-71.7743254,41.3315823],[-71.7804866,41.3313679],[-71.7818458,41.3308416],[-71.7826322,41.3296622],[-71.7839068,41.3292455],[-71.7884765,41.3288945],[-71.7895958,41.3266071],[-71.7904033,41.325898],[-71.7922094,41.3263044],[-71.793925,41.326063],[-71.795492,41.3268064],[-71.7969375,41.3262829],[-71.7990449,41.327385],[-71.8024975,41.3257702],[-71.8045006,41.3245875],[-71.8094087,41.3228492],[-71.8099839,41.3232963],[-71.808552,41.3257058],[-71.8083303,41.3277456],[-71.8075712,41.3290593],[-71.805605,41.3300982],[-71.8022675,41.331073],[-71.7993133,41.330196],[-71.7993088,41.331357],[-71.7979442,41.3315013],[-71.7969226,41.331047],[-71.7956919,41.3324724],[-71.7939762,41.3327416],[-71.7924747,41.3322889],[-71.7900023,41.3324921],[-71.7888816,41.33186],[-71.786731,41.3334673],[-71.7876904,41.3342515],[-71.7868042,41.3361987],[-71.7872031,41.3373751],[-71.7860892,41.3386153],[-71.7845136,41.3375788],[-71.7841901,41.3353576],[-71.7819412,41.3355728],[-71.7817366,41.3360478],[-71.77799,41.3373866],[-71.7782479,41.3366335],[-71.7769255,41.3347726],[-71.7748509,41.3341954],[-71.7723144,41.3347138],[-71.7710115,41.3342599],[-71.7706951,41.3358984],[-71.7684412,41.3366706],[-71.7677298,41.3363895],[-71.7643911,41.3332291],[-71.7634374,41.3320397],[-71.7623983,41.3298657],[-71.7625577,41.3285792],[-71.7606215,41.3284071],[-71.7598658,41.3277813],[-71.7582019,41.3274752],[-71.7567573,41.3267226],[-71.7534499,41.3263116],[-71.7516563,41.32541],[-71.7496796,41.3271076],[-71.7465267,41.3281748],[-71.7426625,41.3289849],[-71.7400982,41.3297779],[-71.7309013,41.3316208],[-71.7248165,41.3321375],[-71.7183129,41.3318395],[-71.7194113,41.3331852],[-71.7232258,41.3363999],[-71.7255646,41.3358873],[-71.7257047,41.334895],[-71.7283694,41.3345517],[-71.7284188,41.3335644],[-71.7296091,41.3328243],[-71.7317861,41.3327051],[-71.7330631,41.3331173],[-71.7334372,41.3321578],[-71.7355225,41.3318218],[-71.7392743,41.332418],[-71.7403168,41.3312467],[-71.7422346,41.3312049],[-71.7440137,41.3306215],[-71.7457035,41.3307323],[-71.7466745,41.3298843],[-71.7480505,41.3297614],[-71.7493728,41.3282831],[-71.7511195,41.3283108],[-71.751191,41.3296795],[-71.7499915,41.3296131],[-71.749557,41.3305932],[-71.750008,41.3316474],[-71.7505467,41.3361877],[-71.7487743,41.3367794],[-71.7473624,41.3363225],[-71.7472927,41.3356197],[-71.7437087,41.3338814],[-71.7426431,41.3357914],[-71.738072,41.3379952],[-71.7366528,41.3373949],[-71.7369955,41.3355251],[-71.7337461,41.3363067],[-71.7319475,41.3388672],[-71.7322938,41.3402878],[-71.7320345,41.3416268],[-71.7298046,41.3440831],[-71.7291988,41.3452918],[-71.7280193,41.3441686],[-71.7270293,41.3446325],[-71.7258639,41.3442773],[-71.7241346,41.3454521],[-71.72403,41.3474841],[-71.7224339,41.3464987],[-71.7208068,41.3482869],[-71.7185396,41.349759],[-71.7170488,41.3489406],[-71.7161295,41.3504728],[-71.7139054,41.3515849],[-71.7113802,41.3512288],[-71.7092516,41.3516064],[-71.708533,41.3499022],[-71.708988,41.3470922],[-71.7099537,41.346776],[-71.711081,41.3450635],[-71.7122959,41.3445956],[-71.7118769,41.3435612],[-71.7127788,41.34229],[-71.7121806,41.3372678],[-71.713903,41.3365535],[-71.7135605,41.3392946],[-71.7160823,41.3401776],[-71.7151743,41.3372247],[-71.7169173,41.3359006],[-71.7183581,41.3353492],[-71.7183308,41.3367451],[-71.7193855,41.3371881],[-71.7200685,41.3385868],[-71.7210473,41.3383392],[-71.7207971,41.3368616],[-71.722535,41.336463],[-71.7185735,41.3331949],[-71.7175519,41.3317656],[-71.7185444,41.3307771],[-71.714175,41.3311691],[-71.7129635,41.3319512],[-71.7097443,41.3328927],[-71.7089952,41.3333467],[-71.7057663,41.3339693],[-71.7041943,41.3349706],[-71.7036921,41.3359127],[-71.7010897,41.3376913],[-71.6995655,41.3383529],[-71.6978912,41.3397621],[-71.6926004,41.3419141],[-71.6866378,41.3437831],[-71.6771919,41.3465022],[-71.6713868,41.3479081],[-71.6600385,41.3512973],[-71.656712,41.3521552],[-71.6501916,41.3534147],[-71.6426713,41.3554189],[-71.6390123,41.3556284],[-71.6392087,41.3570824],[-71.6399692,41.3576717],[-71.6390393,41.3598544],[-71.6406288,41.3609981],[-71.640807,41.3618588],[-71.6401981,41.3632438],[-71.6431223,41.3637805],[-71.6439496,41.3623504],[-71.6435602,41.3617162],[-71.6428903,41.3587531],[-71.6432529,41.3579805],[-71.6458897,41.3596811],[-71.6451161,41.3616722],[-71.64603,41.3627528],[-71.647158,41.3631244],[-71.6483665,41.362756],[-71.6472346,41.3604145],[-71.6467233,41.3585882],[-71.6459927,41.3579842],[-71.6469401,41.3558177],[-71.6484184,41.3571639],[-71.6494172,41.357041],[-71.6500141,41.3557441],[-71.6515258,41.355365],[-71.6530859,41.3564443],[-71.6575723,41.3547732],[-71.6583907,41.3552206],[-71.6593725,41.3539105],[-71.661505,41.3524279],[-71.665503,41.3518784],[-71.6674488,41.3506794],[-71.6695012,41.3500363],[-71.6709995,41.3500986],[-71.6724381,41.3493348],[-71.6754424,41.3490678],[-71.6775631,41.3483996],[-71.6792982,41.3482667],[-71.6814464,41.3474938],[-71.684641,41.3467888],[-71.686883,41.3454948],[-71.6886066,41.3448619],[-71.6912639,41.3447214],[-71.6919079,41.3440505],[-71.6940239,41.3433292],[-71.6950327,41.3440574],[-71.6976072,41.3475594],[-71.6983172,41.3488593],[-71.6985428,41.3508694],[-71.6957678,41.3542007],[-71.6934368,41.3554548],[-71.6924262,41.3570226],[-71.690873,41.3573059],[-71.6900129,41.3581511],[-71.6872225,41.3600492],[-71.6860109,41.3602949],[-71.686891,41.3617231],[-71.6851254,41.3617732],[-71.6842763,41.3612423],[-71.6847118,41.3601999],[-71.6804587,41.358595],[-71.678873,41.3591595],[-71.6768724,41.3588849],[-71.6759629,41.3600687],[-71.6771085,41.36102],[-71.6777778,41.3637039],[-71.6773224,41.364243],[-71.6785135,41.3664262],[-71.6769996,41.3668377],[-71.6755501,41.3661112],[-71.6745994,41.3663056],[-71.6722786,41.3648228],[-71.6737069,41.3640111],[-71.6729715,41.3627472],[-71.6746134,41.3612419],[-71.6747076,41.3603194],[-71.6766022,41.3588078],[-71.6746292,41.3578052],[-71.6720236,41.3578885],[-71.6696485,41.3573],[-71.6664306,41.3579984],[-71.6643382,41.3567899],[-71.6615639,41.3573733],[-71.6600833,41.3580146],[-71.6606376,41.3604005],[-71.659294,41.3602055],[-71.656979,41.3605151],[-71.6566909,41.3621758],[-71.6549581,41.362675],[-71.6547848,41.3639254],[-71.6531928,41.3645323],[-71.6541093,41.3658464],[-71.6517926,41.3667056],[-71.6528019,41.3675402],[-71.6526753,41.3686531],[-71.653383,41.370713],[-71.6530367,41.3717482],[-71.6513482,41.3723295],[-71.6495939,41.3724807],[-71.6485021,41.3741745],[-71.6499751,41.3753918],[-71.651352,41.3750932],[-71.6508108,41.3775212],[-71.6485708,41.3778656],[-71.6487523,41.3789936],[-71.6507602,41.3789032],[-71.6520574,41.3795505],[-71.6521866,41.3811236],[-71.6479092,41.3806629],[-71.6457466,41.3813538],[-71.6440098,41.3807431],[-71.6446234,41.3797073],[-71.6445853,41.377671],[-71.64296,41.3776822],[-71.6439569,41.3762943],[-71.6437765,41.3753172],[-71.6446519,41.3741759],[-71.6444785,41.3732806],[-71.6460121,41.3723286],[-71.6438016,41.3720174],[-71.643491,41.3709164],[-71.6448279,41.3690407],[-71.6427361,41.3696973],[-71.6397056,41.3695053],[-71.6396177,41.3702148],[-71.638067,41.3712111],[-71.6356082,41.3698886],[-71.6356442,41.3689517],[-71.6345283,41.3681567],[-71.6326512,41.3682859],[-71.6298206,41.3691925],[-71.6297149,41.3670549],[-71.6277455,41.3650101],[-71.6261944,41.3642464],[-71.6251845,41.3647011],[-71.6250227,41.3656162],[-71.6230407,41.3664149],[-71.6219837,41.3686295],[-71.6234498,41.3682225],[-71.6253024,41.3691215],[-71.6257525,41.3709258],[-71.6219852,41.3703672],[-71.6217711,41.3719973],[-71.6209076,41.3734907],[-71.6194996,41.3742293],[-71.6182313,41.3740028],[-71.6169074,41.3752669],[-71.6154534,41.3742465],[-71.6146083,41.3746329],[-71.6148489,41.3763504],[-71.614577,41.3774931],[-71.6127038,41.3782942],[-71.6110229,41.3781013],[-71.6105295,41.3772028],[-71.6093087,41.3771928],[-71.6057428,41.3758948],[-71.6057857,41.3751368],[-71.6072926,41.3739044],[-71.6081393,41.374024],[-71.6098408,41.3723914],[-71.6089136,41.3695726],[-71.6076539,41.371654],[-71.6070773,41.3710598],[-71.6027592,41.3717773],[-71.6016966,41.3706427],[-71.601486,41.3670789],[-71.6052688,41.3672674],[-71.6057861,41.3653895],[-71.6067729,41.3649705],[-71.6084414,41.3658027],[-71.6109756,41.3648046],[-71.6125019,41.3653233],[-71.6120282,41.3667336],[-71.6136624,41.3665867],[-71.614448,41.3655829],[-71.6164429,41.3653353],[-71.6171379,41.3643321],[-71.6183631,41.3640589],[-71.6207002,41.3642976],[-71.6221043,41.3648388],[-71.6275905,41.3635777],[-71.6284396,41.3625315],[-71.6307406,41.3622018],[-71.6333151,41.3608196],[-71.6344544,41.3613604],[-71.6374089,41.3608921],[-71.638556,41.3586381],[-71.6387939,41.3572028],[-71.6374936,41.35638],[-71.6330117,41.3586285],[-71.6284861,41.3600779],[-71.617109,41.3629575],[-71.6110486,41.3635455],[-71.6097556,41.3638457],[-71.606488,41.3639514],[-71.6022734,41.3644433],[-71.5977718,41.3646821],[-71.5952039,41.3650724],[-71.5906135,41.36676],[-71.5853929,41.368346],[-71.5816183,41.3691901],[-71.5763324,41.3698328],[-71.5723455,41.3707737],[-71.5680617,41.3711547],[-71.5629678,41.3721645],[-71.5609185,41.3727364],[-71.5559678,41.3737231],[-71.5512012,41.3744948],[-71.5459384,41.3741893],[-71.5429008,41.3732236],[-71.5408203,41.3729955],[-71.5372373,41.3733371],[-71.5364183,41.3747664],[-71.5345706,41.375189],[-71.5331399,41.3760585],[-71.5297653,41.3768288],[-71.5256619,41.3769923],[-71.5216014,41.3767604],[-71.517106,41.375825],[-71.5143696,41.3745935],[-71.5146214,41.3766801],[-71.5157078,41.3779611],[-71.5159251,41.3792013],[-71.5176441,41.3827311],[-71.5185229,41.3853004],[-71.5201626,41.3846592],[-71.5195979,41.3839517],[-71.5195066,41.3824057],[-71.5185296,41.3807747],[-71.5206676,41.3797616],[-71.521473,41.3790141],[-71.5229032,41.3803232],[-71.5218735,41.3808781],[-71.5219816,41.3818355],[-71.5205866,41.3832984],[-71.5245869,41.3842286],[-71.5257411,41.3859106],[-71.527225,41.3859484],[-71.5277942,41.3852918],[-71.526647,41.3836867],[-71.5279336,41.3825844],[-71.5280351,41.3816207],[-71.5289517,41.3803754],[-71.5309601,41.3795927],[-71.5315363,41.3787401],[-71.5326988,41.3785418],[-71.5336722,41.376428],[-71.5356007,41.3755953],[-71.5366285,41.3774826],[-71.5387003,41.3780191],[-71.5397479,41.376032],[-71.5402443,41.3743151],[-71.5419322,41.3748529],[-71.5406453,41.3771382],[-71.5408796,41.3776151],[-71.5381242,41.3803154],[-71.5414126,41.3802945],[-71.5416509,41.3814092],[-71.541155,41.3822785],[-71.5412211,41.3838255],[-71.5399714,41.385288],[-71.5406066,41.386868],[-71.5380315,41.3859646],[-71.5384439,41.3849215],[-71.537261,41.3837994],[-71.5351089,41.3854783],[-71.5342218,41.3855765],[-71.5333066,41.3843953],[-71.5327635,41.3824374],[-71.5310286,41.3846464],[-71.5335925,41.3889505],[-71.5352449,41.3909793],[-71.5342672,41.3916693],[-71.5349164,41.3934175],[-71.5371302,41.3934484],[-71.5375264,41.3929829],[-71.5399277,41.3935106],[-71.5402661,41.3949276],[-71.5409989,41.395753],[-71.5403228,41.3964681],[-71.5416466,41.397713],[-71.5410921,41.3991612],[-71.5401134,41.3990112],[-71.540509,41.3977406],[-71.5399733,41.3966589],[-71.5386717,41.3973325],[-71.5378718,41.3990034],[-71.5350186,41.3969454],[-71.5352516,41.3953445],[-71.5344206,41.3945523],[-71.5327642,41.3948718],[-71.532402,41.3939557],[-71.5330394,41.3929023],[-71.5305473,41.3892048],[-71.5303146,41.3876607],[-71.5279847,41.3861673],[-71.5268314,41.3865048],[-71.5248048,41.3858136],[-71.5227371,41.3863246],[-71.5196927,41.3857145],[-71.5175428,41.3866184],[-71.5172889,41.3880001],[-71.5155804,41.3904516],[-71.5166444,41.3903808],[-71.5164091,41.3922064],[-71.5157702,41.3940077],[-71.5157457,41.3951858],[-71.5163433,41.396779],[-71.5135873,41.3977719],[-71.5137968,41.3997496],[-71.5122517,41.4029888],[-71.511503,41.403797],[-71.5125296,41.404552],[-71.5124783,41.4067057],[-71.5108484,41.4079888],[-71.5094735,41.4067585],[-71.5087431,41.4082181],[-71.5089101,41.4089876],[-71.5075015,41.410026],[-71.5069417,41.4113067],[-71.5086144,41.4123418],[-71.5111811,41.4121092],[-71.5123913,41.4144382],[-71.5120035,41.414985],[-71.5103534,41.414926],[-71.5080174,41.4142561],[-71.5072115,41.4149836],[-71.5084784,41.4159845],[-71.5072987,41.4169334],[-71.5073485,41.4183993],[-71.5095597,41.4188295],[-71.5092188,41.420276],[-71.5122703,41.4226575],[-71.511435,41.4231049],[-71.5093732,41.4219668],[-71.5092885,41.4211081],[-71.506649,41.4212982],[-71.5063386,41.4220861],[-71.5046754,41.4215663],[-71.5030257,41.4224613],[-71.5014618,41.4220791],[-71.5002581,41.4210127],[-71.4998093,41.4199213],[-71.5001606,41.4188698],[-71.4976576,41.4185009],[-71.4979555,41.4197789],[-71.4988277,41.4202173],[-71.498818,41.4212898],[-71.4979962,41.4225979],[-71.4977741,41.4241656],[-71.4996344,41.4259227],[-71.4989444,41.4281142],[-71.4997529,41.4292543],[-71.4993727,41.430181],[-71.4981333,41.4297868],[-71.4988324,41.4288269],[-71.4983188,41.4267478],[-71.492535,41.4293043],[-71.4919975,41.4288007],[-71.4938894,41.4275456],[-71.4931607,41.4243419],[-71.4932397,41.4230894],[-71.4926222,41.4224286],[-71.4935734,41.4196635],[-71.4927587,41.418687],[-71.4930182,41.4177468],[-71.4919948,41.4161485],[-71.4927653,41.4158658],[-71.4926139,41.4136807],[-71.4916368,41.4131015],[-71.490791,41.4108876],[-71.4925506,41.4104382],[-71.4921774,41.4117645],[-71.4935392,41.414017],[-71.4944877,41.4145667],[-71.493571,41.4161741],[-71.4941014,41.4194469],[-71.495013,41.4197527],[-71.4963859,41.4187686],[-71.4964647,41.4173786],[-71.4976075,41.4158028],[-71.4982334,41.4168248],[-71.4999594,41.4165042],[-71.4982735,41.4131483],[-71.4995311,41.4109919],[-71.4976683,41.409994],[-71.4973412,41.4092519],[-71.4981639,41.4077091],[-71.4973164,41.4067791],[-71.4950278,41.4077423],[-71.4935412,41.4065918],[-71.4920103,41.4072091],[-71.4928662,41.4083538],[-71.4913195,41.4098067],[-71.4906773,41.4082025],[-71.4911088,41.4066464],[-71.493224,41.4042634],[-71.4940529,41.4024671],[-71.4942738,41.4002177],[-71.4937163,41.3993601],[-71.4940221,41.3982713],[-71.495241,41.3974857],[-71.4941251,41.3968265],[-71.4933685,41.3975852],[-71.491801,41.3975589],[-71.491076,41.3967083],[-71.4910137,41.3937869],[-71.4897966,41.3930384],[-71.4913478,41.3921058],[-71.4928603,41.3900975],[-71.4937726,41.3897323],[-71.4948553,41.3876073],[-71.4966356,41.3866525],[-71.4967945,41.3852762],[-71.4977415,41.3847337],[-71.4971337,41.3831333],[-71.4982388,41.3820597],[-71.4985499,41.380071],[-71.5018595,41.3823595],[-71.5023018,41.3816184],[-71.5047505,41.3826092],[-71.5068259,41.3825681],[-71.5075798,41.3833275],[-71.5113471,41.383036],[-71.5123271,41.3813083],[-71.5104115,41.3801037],[-71.5104555,41.379566],[-71.51305,41.3771253],[-71.5132924,41.375277],[-71.5099698,41.3752463],[-71.5062168,41.3745966],[-71.5036623,41.3739126],[-71.4989971,41.3721947],[-71.496858,41.3704556],[-71.4965315,41.3695568],[-71.4931227,41.3666734],[-71.4899274,41.3647721],[-71.4889748,41.3636709],[-71.4891897,41.3630049],[-71.488355,41.3608098],[-71.4872872,41.3618813],[-71.4854059,41.3616989],[-71.4817388,41.3604529],[-71.4803338,41.3612866],[-71.4807424,41.3632109],[-71.4825179,41.3652824],[-71.4833782,41.3667243],[-71.4840672,41.3704757],[-71.4835265,41.37181],[-71.4815354,41.3749931],[-71.4795153,41.3768639],[-71.4788047,41.37907],[-71.4772818,41.3817123],[-71.4759038,41.3832512],[-71.476028,41.3842272],[-71.4752394,41.3860381],[-71.4704203,41.3912958],[-71.46913,41.393415],[-71.467189,41.3950322],[-71.4657297,41.3948374],[-71.4641167,41.3954836],[-71.463105,41.3963657],[-71.4624209,41.3980043],[-71.4629821,41.3988363],[-71.4626354,41.4007453],[-71.4599406,41.4031122],[-71.4588255,41.4035809],[-71.4574561,41.4048912],[-71.4561662,41.4054187],[-71.4565321,41.4067715],[-71.4556217,41.407905],[-71.4528721,41.4094193],[-71.4533812,41.4118298],[-71.4529087,41.4145508],[-71.4523903,41.4155181],[-71.4529342,41.4164016],[-71.4526101,41.417712],[-71.4531778,41.4193945],[-71.4553527,41.422068],[-71.4556361,41.4234004],[-71.4558095,41.4268233],[-71.4549967,41.4303915],[-71.4557458,41.4315089],[-71.4568833,41.4322079],[-71.4560212,41.4339077],[-71.4541151,41.4356492],[-71.4509009,41.4378661],[-71.4453817,41.4407151],[-71.4421744,41.4415302],[-71.4425629,41.4420403],[-71.4459075,41.4421754],[-71.4466988,41.4430088],[-71.4472566,41.4446873],[-71.4479771,41.4450964],[-71.4492138,41.4473341],[-71.4495427,41.4485588],[-71.4507227,41.4493082],[-71.4538286,41.4475698],[-71.4544734,41.4464114],[-71.4557094,41.4457813],[-71.4556887,41.444226],[-71.4562483,41.4430459],[-71.4583784,41.44333],[-71.4586202,41.4445943],[-71.4619285,41.4424102],[-71.4655616,41.4422327],[-71.466254,41.4410738],[-71.4684066,41.4405401],[-71.4701267,41.4388764],[-71.4731743,41.4386179],[-71.4733313,41.4395008],[-71.4718746,41.4410937],[-71.4692852,41.4413193],[-71.4667433,41.4422697],[-71.4637164,41.4444018],[-71.4620919,41.4459026],[-71.4613831,41.4477338],[-71.4596355,41.4494599],[-71.4584134,41.4495643],[-71.4551283,41.4517324],[-71.454934,41.4526983],[-71.4530977,41.4529151],[-71.4524168,41.4536144],[-71.4531125,41.4557237],[-71.4524665,41.457551],[-71.4525432,41.460427],[-71.4531315,41.4610634],[-71.4529173,41.4628322],[-71.4516089,41.464954],[-71.4506881,41.4655111],[-71.4497702,41.4680692],[-71.44913,41.4686102],[-71.4496877,41.4709416],[-71.4504126,41.4713261],[-71.4502268,41.4729288],[-71.4491621,41.4740783],[-71.4484818,41.4774337],[-71.4485809,41.4805536],[-71.4478546,41.4811299],[-71.4477043,41.4826868],[-71.4484209,41.4831312],[-71.4476689,41.4846631],[-71.4475677,41.4858492],[-71.4484316,41.4867117],[-71.4476029,41.4876434],[-71.4469094,41.489521],[-71.4474234,41.4904552],[-71.4494187,41.4911981],[-71.4501697,41.4923655],[-71.4501208,41.4942305],[-71.4496567,41.4959338],[-71.45009,41.4971681],[-71.4515785,41.4978613],[-71.452336,41.5001352],[-71.4539149,41.5031595],[-71.4533494,41.5039025],[-71.4534236,41.5052473],[-71.4520079,41.5059918],[-71.4524387,41.5082171],[-71.4509957,41.5101321],[-71.4482948,41.5101721],[-71.4493809,41.5120659],[-71.45086,41.5129247],[-71.4507208,41.514208],[-71.4490513,41.5161992],[-71.4472182,41.5174951],[-71.4457389,41.5168669],[-71.4440145,41.5156079],[-71.4438289,41.5148454],[-71.4448399,41.5134466],[-71.4447632,41.512431],[-71.4458972,41.5113632],[-71.4471859,41.5109574],[-71.4483133,41.5098209],[-71.4485398,41.5079249],[-71.4493137,41.5066399],[-71.4477583,41.5059157],[-71.4481489,41.5027307],[-71.4487292,41.5018452],[-71.4478034,41.4993107],[-71.4468861,41.4985612],[-71.4466382,41.4972672],[-71.4473261,41.4958762],[-71.4475908,41.4942818],[-71.4467773,41.4928936],[-71.4465254,41.491513],[-71.4470177,41.4817382],[-71.4466451,41.4810363],[-71.4479674,41.478908],[-71.4480739,41.4754994],[-71.4491241,41.472281],[-71.4485252,41.4693961],[-71.4475537,41.4686212],[-71.4489561,41.4664851],[-71.4489151,41.4653093],[-71.4500669,41.4642952],[-71.4504265,41.4624924],[-71.4492533,41.4614042],[-71.4500206,41.459337],[-71.4499058,41.4578627],[-71.4505034,41.4556529],[-71.4493752,41.4546625],[-71.4508397,41.4533714],[-71.4511945,41.4525217],[-71.4504127,41.4516184],[-71.4507618,41.4505097],[-71.4488124,41.4486016],[-71.4481785,41.4473286],[-71.4453632,41.4452034],[-71.443845,41.443225],[-71.441646,41.4434384],[-71.440149,41.4423323],[-71.4391458,41.4411058],[-71.4375043,41.4427706],[-71.4361149,41.4431084],[-71.4341086,41.4451592],[-71.4328265,41.4450345],[-71.4311689,41.44799],[-71.4322257,41.4487982],[-71.4301872,41.4530522],[-71.4290768,41.4541618],[-71.4272062,41.4544776],[-71.4259976,41.4552675],[-71.4266685,41.4567298],[-71.4270434,41.4590452],[-71.4279699,41.4592523],[-71.4297525,41.4612804],[-71.4303271,41.4646137],[-71.4310929,41.4656892],[-71.4310787,41.4672462],[-71.4305903,41.4690511],[-71.4307706,41.4707334],[-71.4288328,41.4719733],[-71.4264153,41.472863],[-71.4246154,41.4730419],[-71.4224013,41.4725385],[-71.4217787,41.4719283],[-71.4214379,41.4699084],[-71.4198822,41.4704712],[-71.4185551,41.4719617],[-71.41851,41.474047],[-71.4179217,41.4751188],[-71.4176159,41.4774105],[-71.4179259,41.4819964],[-71.4206547,41.4836258],[-71.4201772,41.4885325],[-71.4204402,41.4905975],[-71.4192984,41.4919172],[-71.4211163,41.4930272],[-71.4214256,41.4946184],[-71.4212003,41.4959516],[-71.4216752,41.4991294],[-71.4207093,41.5026097],[-71.4185672,41.5063205],[-71.4178398,41.5090757],[-71.4164157,41.5112345],[-71.4158818,41.5135621],[-71.4156818,41.5158659],[-71.414734,41.5171963],[-71.4147598,41.5187751],[-71.4155369,41.5210384],[-71.4154199,41.523413],[-71.4160231,41.5242028],[-71.4167347,41.5275378],[-71.4151709,41.5301205],[-71.4174498,41.5312192],[-71.4186902,41.5325051],[-71.4179922,41.5342494],[-71.4181255,41.5358514],[-71.4197055,41.5368572],[-71.4226271,41.5382532],[-71.4240191,41.5392984],[-71.4237653,41.5402543],[-71.425175,41.5417827],[-71.4261727,41.5438742],[-71.4257791,41.5457078],[-71.4269318,41.545309],[-71.4289465,41.5453135],[-71.4298367,41.544814],[-71.4324367,41.5445511],[-71.4321202,41.5456251],[-71.4339787,41.5476652],[-71.4356332,41.5486054],[-71.4343742,41.5497467],[-71.4349823,41.5513295],[-71.4338427,41.5524487],[-71.4327444,41.5525638],[-71.4304413,41.5512633],[-71.4291922,41.5537154],[-71.4279586,41.5548832],[-71.4279616,41.5566072],[-71.4301805,41.558565],[-71.432631,41.5574277],[-71.433946,41.558039],[-71.4359015,41.5577063],[-71.4353418,41.5592299],[-71.4362701,41.560032],[-71.438326,41.5578037],[-71.4396166,41.5594232],[-71.4400451,41.5605813],[-71.4369286,41.5613086],[-71.4374684,41.5627221],[-71.4389961,41.5638697],[-71.4417856,41.5637334],[-71.4435605,41.5664829],[-71.4437374,41.5679272],[-71.44126,41.5695489],[-71.4391952,41.5703166],[-71.4412847,41.5712918],[-71.4423505,41.5727129],[-71.4437398,41.5732921],[-71.4441637,41.5718165],[-71.4455849,41.5691769],[-71.4474265,41.567862],[-71.4483886,41.5686837],[-71.4508535,41.5691971],[-71.452178,41.5676939],[-71.4526006,41.5665169],[-71.4549545,41.5652722],[-71.4560482,41.5664366],[-71.4520648,41.568674],[-71.4510928,41.5701741],[-71.4521449,41.5707526],[-71.4552354,41.5700726],[-71.4555447,41.5709983],[-71.4536351,41.5712792],[-71.4524603,41.5709252],[-71.4498138,41.5707413],[-71.4471431,41.57093],[-71.4466328,41.5719473],[-71.4453728,41.571995],[-71.4469945,41.5739256],[-71.4472032,41.5769541],[-71.4482617,41.5766863],[-71.4493936,41.5751913],[-71.4501194,41.5761454],[-71.4501426,41.57732],[-71.4526212,41.57829],[-71.4534634,41.5780854],[-71.4554858,41.5786672],[-71.4560133,41.5778854],[-71.4573403,41.5784203],[-71.4564615,41.5792832],[-71.4565009,41.5802235],[-71.4575542,41.5822393],[-71.4567572,41.5830415],[-71.4552903,41.5826183],[-71.4540009,41.583621],[-71.452923,41.583156],[-71.4511266,41.5855628],[-71.449498,41.5889852],[-71.4481271,41.5884241],[-71.4491155,41.5871329],[-71.4496391,41.5828201],[-71.4504912,41.5824201],[-71.4507085,41.5810848],[-71.4494762,41.5799396],[-71.4485884,41.5813613],[-71.447277,41.581761],[-71.4464356,41.582991],[-71.4442506,41.5840446],[-71.443748,41.585173],[-71.440589,41.5847541],[-71.4399543,41.582887],[-71.4391464,41.5821972],[-71.4385155,41.580549],[-71.4389878,41.5792852],[-71.4386804,41.5770591],[-71.4332323,41.5820832],[-71.4292206,41.5841958],[-71.422618,41.5857201],[-71.4171335,41.5857373],[-71.4160243,41.5863212],[-71.4068943,41.5882343],[-71.4050495,41.5888416],[-71.4040474,41.5901389],[-71.4040447,41.5977723],[-71.4031907,41.5988362],[-71.4038881,41.6003226],[-71.4040533,41.6025324],[-71.4146231,41.6025156],[-71.4167272,41.6048227],[-71.4147735,41.6085555],[-71.412499,41.6107695],[-71.4113146,41.6112572],[-71.4103275,41.6108337],[-71.407066,41.6151176],[-71.4033217,41.6134917],[-71.4020624,41.6150733],[-71.4033601,41.6153218],[-71.4063621,41.6166026],[-71.4060335,41.6176522],[-71.4084098,41.6197487],[-71.4103371,41.6223271],[-71.4112633,41.6219313],[-71.4124968,41.6197921],[-71.4123203,41.6182249],[-71.413028,41.6175961],[-71.4146131,41.6178685],[-71.4145516,41.6198073],[-71.4153772,41.620069],[-71.414647,41.6213465],[-71.4171939,41.6205988],[-71.4191799,41.6212917],[-71.4179951,41.6221256],[-71.4162051,41.6225383],[-71.4160289,41.6252811],[-71.4155328,41.6264226],[-71.414596,41.6266463],[-71.4113182,41.6253584],[-71.4113723,41.6233354],[-71.4095418,41.6233335],[-71.4085469,41.6220436],[-71.4063801,41.6231585],[-71.4032662,41.6257684],[-71.4035862,41.6272169],[-71.4054098,41.6292291],[-71.4055591,41.6313153],[-71.4070959,41.6335937],[-71.4070955,41.6344246],[-71.4086392,41.6390241],[-71.4086441,41.6405459],[-71.4081687,41.6414851],[-71.4089093,41.6437606],[-71.4079882,41.6472299],[-71.4078455,41.6492247],[-71.4089135,41.6511535],[-71.4100965,41.6507732],[-71.4129115,41.6519258],[-71.4152378,41.6538276],[-71.4163821,41.6543673],[-71.4184532,41.6544647],[-71.4210088,41.6534702],[-71.4226128,41.6537749],[-71.4239284,41.6517317],[-71.4251393,41.6515021],[-71.429117,41.6497665],[-71.4301525,41.6496604],[-71.4323032,41.6510796],[-71.4334992,41.6497551],[-71.4347977,41.6495256],[-71.4387165,41.6475658],[-71.4402134,41.6461096],[-71.4422298,41.6453352],[-71.4412375,41.6432587],[-71.4416924,41.6425852],[-71.4451072,41.6413847],[-71.444782,41.640753],[-71.448086,41.637162],[-71.449286,41.63673],[-71.448797,41.635719],[-71.449491,41.63518],[-71.448447,41.633377],[-71.449808,41.630932],[-71.451505,41.630386],[-71.452189,41.629399],[-71.45391,41.630048],[-71.454404,41.631202],[-71.45423,41.632953],[-71.45558,41.635109],[-71.458324,41.636366],[-71.459123,41.637946],[-71.462525,41.638255],[-71.463436,41.636544],[-71.466246,41.635488],[-71.4678555,41.634163],[-71.4693606,41.6346163],[-71.4719405,41.6329726],[-71.4725702,41.6320629],[-71.4713629,41.6289373],[-71.4793736,41.6240805],[-71.4820622,41.6236232],[-71.4834982,41.6215245],[-71.4840759,41.6217055],[-71.4862026,41.6198251],[-71.487839,41.61591],[-71.4852526,41.6129552],[-71.4846057,41.6027537],[-71.495689,41.60268],[-71.520447,41.602619],[-71.5227959,41.6025157],[-71.5544414,41.6018458],[-71.569138,41.601394],[-71.610348,41.600811],[-71.6135396,41.6006295],[-71.624153,41.600414],[-71.644274,41.6001245],[-71.6530496,41.5988659],[-71.6591597,41.596756],[-71.659745,41.596815],[-71.71402,41.598733],[-71.734643,41.59872],[-71.760827,41.598128],[-71.7891735,41.5992492]]],[[[-71.6378062,41.3641264],[-71.6394749,41.3643108],[-71.6395532,41.361831],[-71.6387288,41.3616338],[-71.6372134,41.3638216],[-71.6378062,41.3641264]]],[[[-71.6328022,41.3657172],[-71.6333975,41.3639191],[-71.6317997,41.3632656],[-71.6311147,41.3641596],[-71.6328022,41.3657172]]],[[[-71.5544431,41.1735388],[-71.5559205,41.1726947],[-71.5588609,41.1745479],[-71.5610714,41.1755022],[-71.5640222,41.1784319],[-71.5656275,41.1817084],[-71.5663457,41.1842857],[-71.5665318,41.1867923],[-71.5663389,41.1886661],[-71.5655838,41.1916242],[-71.5641553,41.1955699],[-71.5617273,41.2001624],[-71.5604814,41.2017266],[-71.5585463,41.2035149],[-71.5573394,41.2063824],[-71.5554461,41.2087862],[-71.5553905,41.2107971],[-71.5543059,41.2124434],[-71.5553776,41.2143142],[-71.5556788,41.2163992],[-71.5580422,41.2184502],[-71.5595188,41.2202171],[-71.5599929,41.221486],[-71.56168,41.2235728],[-71.5625464,41.2242254],[-71.5659773,41.2250214],[-71.567872,41.2246778],[-71.5694943,41.2249549],[-71.5717184,41.2260041],[-71.5743767,41.2278464],[-71.5778688,41.2310794],[-71.5772741,41.2289013],[-71.5765226,41.2247423],[-71.5764112,41.2217693],[-71.5770403,41.2114768],[-71.5786769,41.2088504],[-71.5792349,41.2061577],[-71.5803683,41.2037912],[-71.5824514,41.2019545],[-71.5855158,41.2005499],[-71.5884708,41.198014],[-71.5876722,41.1960235],[-71.5857942,41.1962886],[-71.584769,41.197589],[-71.5845765,41.1985665],[-71.5809975,41.1999383],[-71.5802475,41.2011022],[-71.5779105,41.2011137],[-71.5770116,41.2018592],[-71.5768498,41.2028652],[-71.5751654,41.2021461],[-71.5758881,41.2012649],[-71.574276,41.2000964],[-71.573664,41.19857],[-71.5740169,41.1969794],[-71.5736632,41.1957912],[-71.5741658,41.1937262],[-71.5749604,41.192181],[-71.5738649,41.1918047],[-71.5733373,41.1902867],[-71.5710663,41.1905878],[-71.5694522,41.189397],[-71.5693518,41.1876814],[-71.5706042,41.1859169],[-71.5718361,41.1835421],[-71.571833,41.1817546],[-71.5703592,41.1813562],[-71.5696041,41.1831336],[-71.5684125,41.1832848],[-71.565422,41.1774185],[-71.563188,41.1760456],[-71.5633616,41.1751535],[-71.5660969,41.1756366],[-71.5666638,41.1768169],[-71.5696778,41.1763161],[-71.5695225,41.1776075],[-71.5666721,41.1780989],[-71.5664535,41.1790421],[-71.5673799,41.1807513],[-71.5696883,41.1804499],[-71.5698996,41.1792209],[-71.5720269,41.1779287],[-71.5747193,41.1772385],[-71.5752703,41.1754655],[-71.576914,41.1770463],[-71.5748233,41.178249],[-71.573408,41.178396],[-71.5728956,41.1803314],[-71.574526,41.1815628],[-71.5765796,41.1812581],[-71.5772299,41.1821981],[-71.5793493,41.1820167],[-71.5819516,41.1827534],[-71.5839315,41.1842685],[-71.5836943,41.185495],[-71.5844499,41.1860515],[-71.5840355,41.1871462],[-71.586387,41.1884305],[-71.5868655,41.1900782],[-71.590447,41.1884588],[-71.5916029,41.1890607],[-71.5919449,41.1906499],[-71.5909859,41.1913127],[-71.5887498,41.1939787],[-71.5885725,41.1951351],[-71.5896516,41.1964607],[-71.5905464,41.1966124],[-71.5929082,41.1984833],[-71.5932108,41.1926697],[-71.5936829,41.1907352],[-71.595804,41.1875663],[-71.5978097,41.1859071],[-71.5990544,41.1844364],[-71.6015222,41.1831326],[-71.6046403,41.1825778],[-71.6059937,41.1807174],[-71.6067061,41.1780519],[-71.6079188,41.1749632],[-71.608049,41.1727793],[-71.6092916,41.1719223],[-71.6102561,41.1699522],[-71.61087,41.1672058],[-71.610878,41.1635417],[-71.611653,41.1616703],[-71.6128912,41.160401],[-71.6125831,41.1564446],[-71.6119371,41.1543619],[-71.6086252,41.1514494],[-71.6031247,41.1487286],[-71.6015347,41.147638],[-71.6000601,41.1470908],[-71.5982746,41.1469826],[-71.5959974,41.1474256],[-71.5928313,41.146567],[-71.5917414,41.1470995],[-71.5900481,41.1472063],[-71.5866821,41.148282],[-71.5846931,41.1482298],[-71.5808883,41.1491181],[-71.5783344,41.1480576],[-71.5772577,41.1479385],[-71.5721304,41.1492593],[-71.5688139,41.1494611],[-71.5668669,41.1489297],[-71.5637067,41.1500833],[-71.5600691,41.1511165],[-71.5582607,41.1511648],[-71.5562185,41.1517206],[-71.5531747,41.1520657],[-71.5502082,41.1521551],[-71.5485508,41.1534974],[-71.5472421,41.153849],[-71.5465281,41.1547469],[-71.5467211,41.1559618],[-71.5452912,41.1576527],[-71.5456723,41.1592905],[-71.5445459,41.1617251],[-71.5456585,41.1629137],[-71.5456202,41.165033],[-71.5470768,41.1656625],[-71.5488303,41.1656056],[-71.5504235,41.1663241],[-71.5520889,41.1678603],[-71.5537887,41.1712675],[-71.5544431,41.1735388]]],[[[-71.5131174,41.3614082],[-71.5132934,41.3613527],[-71.5110876,41.3553183],[-71.5103755,41.354615],[-71.5072553,41.3541403],[-71.4978531,41.3597508],[-71.4980086,41.3599767],[-71.5066777,41.3549426],[-71.5074067,41.3543598],[-71.5094215,41.3545659],[-71.5107293,41.3553478],[-71.5131174,41.3614082]]],[[[-71.5187037,41.3806294],[-71.5192316,41.3818257],[-71.5203648,41.3821948],[-71.5202753,41.380014],[-71.5187037,41.3806294]]],[[[-71.4978252,41.3934745],[-71.4988825,41.3945312],[-71.4987711,41.3959065],[-71.4972766,41.3974816],[-71.4973129,41.3984213],[-71.4990771,41.3979702],[-71.4995848,41.3970671],[-71.5008472,41.3963458],[-71.5040171,41.3963361],[-71.5026556,41.3951146],[-71.5011816,41.3949942],[-71.5008041,41.3934613],[-71.5030427,41.3926685],[-71.5039502,41.3919192],[-71.5049333,41.3923566],[-71.5070432,41.3915881],[-71.5072705,41.3897041],[-71.5083247,41.3897262],[-71.5099501,41.3869238],[-71.5122347,41.38562],[-71.5118222,41.3847649],[-71.5079439,41.3860746],[-71.5069801,41.3855012],[-71.5073389,41.3843852],[-71.5043855,41.3854872],[-71.503601,41.3869767],[-71.5020071,41.3882964],[-71.5008316,41.3883221],[-71.4997925,41.389813],[-71.4979817,41.3908144],[-71.4973753,41.3927343],[-71.4957361,41.3933498],[-71.4959671,41.3942744],[-71.4976578,41.394856],[-71.4978252,41.3934745]]],[[[-71.5000251,41.4051551],[-71.499914,41.4034137],[-71.4992511,41.4028327],[-71.4988793,41.4004574],[-71.4973765,41.4003831],[-71.4968003,41.4021806],[-71.495815,41.4033041],[-71.4976568,41.4061288],[-71.4997408,41.4060152],[-71.5000251,41.4051551]]],[[[-71.4468639,41.5812223],[-71.4485071,41.5794602],[-71.4478125,41.5785348],[-71.4467721,41.578369],[-71.4444795,41.5791885],[-71.4447978,41.5800251],[-71.4468639,41.5812223]]],[[[-71.4554438,41.5815321],[-71.4554832,41.5807457],[-71.4534072,41.5796938],[-71.4528509,41.5810472],[-71.4534651,41.5815168],[-71.4554438,41.5815321]]]]},"properties":{"State":"Rhode Island","County":"Washington","id":"relation/4147360","long_name":"rhode-island-washington-county","long_county":"Washington County","normalized":"Y"}}
]}